{
"type": "FeatureCollection",
"name": "06",
"crs": { "type": "name", "properties": { "name": "urn:ogc:def:crs:OGC:1.3:CRS84" } },
"features": [
{ "type": "Feature", "properties": { "cve_edo": "06", "cve_mpo_ine": "006", "cve_edo_mpo_ine": "06006", "nom_mpo": "ARMERIA", "nom_edo": "Colima", "alianza_ganadora": "Juntos Haremos Historia", "margen_pp": 50.574146981627294, "por_participacion": 55.826731993223135 }, "geometry": { "type": "Polygon", "coordinates": [ [ [ -103.908569218413547, 19.01497688750651 ], [ -103.91492411323712, 19.008614396060565 ], [ -103.913380192192037, 18.995839334105991 ], [ -103.914937371098645, 18.978085408413317 ], [ -103.918721636328726, 18.975011177662665 ], [ -103.916870826860603, 18.965043329033385 ], [ -103.918458924797605, 18.951585885667463 ], [ -103.931612179971893, 18.950760219538996 ], [ -103.937416618668166, 18.95839799135452 ], [ -103.946400230076591, 18.957503835072629 ], [ -103.94361727167724, 18.948191372749086 ], [ -103.94717502290537, 18.944040981113581 ], [ -103.943278095989783, 18.937035063314493 ], [ -103.943833072102322, 18.921587860974753 ], [ -103.939923484637887, 18.916812649794121 ], [ -103.951593284478207, 18.901888765699397 ], [ -103.950762631452662, 18.895438949877544 ], [ -103.956464209125201, 18.890805772870859 ], [ -103.952994100637042, 18.880249825040686 ], [ -103.959482086292653, 18.869713701272556 ], [ -103.968821320610303, 18.866548238711822 ], [ -103.969013078728082, 18.863409656181105 ], [ -103.983580199092813, 18.872845627054872 ], [ -103.988137261551174, 18.872823902954341 ], [ -104.000260699940924, 18.879123667764592 ], [ -104.006067927909953, 18.884986304262874 ], [ -104.054040444935822, 18.906536686760013 ], [ -104.088242769656176, 18.928531442393989 ], [ -104.124069713736006, 18.947395477067236 ], [ -104.052914612772483, 19.019770713231903 ], [ -104.053075302681108, 19.100098201187595 ], [ -104.067816832427454, 19.133688628612074 ], [ -103.944202601449192, 19.108683321161458 ], [ -103.916977644675953, 19.133436905964064 ], [ -103.887532659628832, 19.13537159381422 ], [ -103.88360831424896, 19.124504628601883 ], [ -103.885694982260674, 19.111240765674985 ], [ -103.897088161966437, 19.103163990857809 ], [ -103.893748567392905, 19.086803193472683 ], [ -103.91387964187895, 19.037153748286329 ], [ -103.908569218413547, 19.01497688750651 ] ] ] } },
{ "type": "Feature", "properties": { "cve_edo": "06", "cve_mpo_ine": "001", "cve_edo_mpo_ine": "06001", "nom_mpo": "COLIMA", "nom_edo": "Colima", "alianza_ganadora": "Juntos Haremos Historia", "margen_pp": 6.2743772793196184, "por_participacion": 55.42037987920029 }, "geometry": { "type": "Polygon", "coordinates": [ [ [ -103.807174602601506, 19.077432537417167 ], [ -103.807146822427015, 19.112665048441865 ], [ -103.815089484710995, 19.121199162132456 ], [ -103.781245071367138, 19.160793175572934 ], [ -103.778251784855328, 19.219419125386771 ], [ -103.778743809670146, 19.230777356081699 ], [ -103.780729096601419, 19.232331380496571 ], [ -103.775230846438774, 19.236855452031143 ], [ -103.778586039505996, 19.245867137207888 ], [ -103.767790527530479, 19.238521145253767 ], [ -103.759616843574292, 19.242131866085984 ], [ -103.744456820908155, 19.242294673321243 ], [ -103.737222527141455, 19.256331330872687 ], [ -103.73273076840988, 19.254788114077176 ], [ -103.730097198031544, 19.257187555961778 ], [ -103.730067575807254, 19.260726100599438 ], [ -103.723660377423542, 19.258443951661825 ], [ -103.709466981207868, 19.293688612565784 ], [ -103.702145679935029, 19.298983226353069 ], [ -103.693013579602123, 19.31032178431197 ], [ -103.686550479311435, 19.314246676268013 ], [ -103.684551969541971, 19.318391273326654 ], [ -103.675439008311088, 19.241022829819311 ], [ -103.647966508441698, 19.222393301389911 ], [ -103.513672194721238, 19.210236448046157 ], [ -103.510764451865313, 19.200682197513629 ], [ -103.501127294779849, 19.189962748346531 ], [ -103.497709846163417, 19.174609392448453 ], [ -103.502342691270542, 19.170349934928712 ], [ -103.501948195836192, 19.162801423151468 ], [ -103.508542798265481, 19.157335314352906 ], [ -103.513562863127248, 19.138396943551935 ], [ -103.510948264611812, 19.131890652068723 ], [ -103.519182624165722, 19.124087323908402 ], [ -103.523301249032372, 19.116284746324336 ], [ -103.520664082711519, 19.112626537397922 ], [ -103.52103354882955, 19.102517035530145 ], [ -103.517490193868284, 19.098344888684998 ], [ -103.522690292472703, 19.091871172535171 ], [ -103.525882115663734, 19.079591417407453 ], [ -103.522018991426208, 19.073642070464114 ], [ -103.522696147348668, 19.066790094650727 ], [ -103.517259558390222, 19.061319953499851 ], [ -103.50970322079759, 19.058017197784157 ], [ -103.50586516970813, 19.049656410701267 ], [ -103.501294382371881, 19.048909708298716 ], [ -103.496883726206391, 19.04263323605317 ], [ -103.496653488770235, 19.035200933954453 ], [ -103.490880344458375, 19.032749731251698 ], [ -103.488713786388487, 19.028435366195836 ], [ -103.493333848306349, 19.022949863708067 ], [ -103.494149202379305, 19.015156384065765 ], [ -103.498574559407245, 19.012228028638912 ], [ -103.493752549802352, 19.006814307108893 ], [ -103.490997755156798, 18.996426293879683 ], [ -103.492514811317193, 18.987772896032116 ], [ -103.490136574164126, 18.981021063051536 ], [ -103.495764177431695, 18.97244948774269 ], [ -103.488913511200309, 18.967428472703375 ], [ -103.490022707444268, 18.959059975089829 ], [ -103.494488028519356, 18.958195924514072 ], [ -103.50903844086136, 18.963374748680565 ], [ -103.507966681774647, 18.959773040774273 ], [ -103.504550708833946, 18.959739584178852 ], [ -103.502774178130935, 18.957410571656702 ], [ -103.505914417518412, 18.948360103811478 ], [ -103.510622008676677, 18.946094543942355 ], [ -103.512623639313105, 18.949251250133482 ], [ -103.518867210104148, 18.950467859654783 ], [ -103.522595656210413, 18.947532008192724 ], [ -103.514963043909802, 18.938871853401199 ], [ -103.514070764011294, 18.934528906398029 ], [ -103.519819533738684, 18.932314499846036 ], [ -103.523971688802035, 18.926947256256366 ], [ -103.533868164356846, 18.927331813869284 ], [ -103.533401013459681, 18.920351171751321 ], [ -103.528248592316857, 18.91291253883589 ], [ -103.531314259574657, 18.905718305724374 ], [ -103.533693381177358, 18.904956924481528 ], [ -103.542222303191096, 18.909909774274357 ], [ -103.553718297543725, 18.905355025794382 ], [ -103.557757127050209, 18.907085883158096 ], [ -103.559401591195041, 18.896286292912126 ], [ -103.563129670672595, 18.893143099437509 ], [ -103.568994768801801, 18.892525502833912 ], [ -103.56866186514327, 18.88364165986216 ], [ -103.572106469511439, 18.880076201534692 ], [ -103.57269986053609, 18.871158633657942 ], [ -103.578918001769779, 18.875340274548094 ], [ -103.582682246126609, 18.875164437623862 ], [ -103.585650938068653, 18.865451121149711 ], [ -103.588350000454824, 18.965743377947451 ], [ -103.593266199430388, 18.974375446950919 ], [ -103.589267779372292, 18.982552720879028 ], [ -103.589200749946798, 18.99159229500151 ], [ -103.592413534408777, 18.995708996606957 ], [ -103.59263772496287, 19.004544892810728 ], [ -103.644359937534432, 19.004608077579821 ], [ -103.648131074853708, 19.011907523555379 ], [ -103.64670386945825, 19.017137182109522 ], [ -103.649464250919479, 19.019969204390545 ], [ -103.667167862164817, 19.072925826740637 ], [ -103.701357342491534, 19.072651088409504 ], [ -103.774112456259815, 19.058331272122356 ], [ -103.807174602601506, 19.077432537417167 ] ] ] } },
{ "type": "Feature", "properties": { "cve_edo": "06", "cve_mpo_ine": "002", "cve_edo_mpo_ine": "06002", "nom_mpo": "COMALA", "nom_edo": "Colima", "alianza_ganadora": "Juntos Haremos Historia", "margen_pp": 23.145454545454545, "por_participacion": 63.543411703541096 }, "geometry": { "type": "Polygon", "coordinates": [ [ [ -103.856737622428795, 19.344859219849415 ], [ -103.901178304430104, 19.376683458687022 ], [ -103.908975043923377, 19.379836070816232 ], [ -103.920139061467339, 19.403975305784829 ], [ -103.927264162717364, 19.40959783221415 ], [ -103.929017529461618, 19.408834120401472 ], [ -103.933626364129921, 19.420003247661619 ], [ -103.936172444687401, 19.420736342085483 ], [ -103.937417386047457, 19.43153421928249 ], [ -103.945370314637429, 19.434212144314973 ], [ -103.945645908492523, 19.454454771164389 ], [ -103.940766425691194, 19.458658123148453 ], [ -103.933489370614922, 19.454621192911393 ], [ -103.930645529907736, 19.458356570075427 ], [ -103.932917550531513, 19.460586187188813 ], [ -103.931527032745038, 19.463903198990195 ], [ -103.928672011025498, 19.460847017309415 ], [ -103.923555779355951, 19.462228368041082 ], [ -103.921162928129291, 19.457058747139104 ], [ -103.917145578533479, 19.454378423893491 ], [ -103.909524364362241, 19.452991893353104 ], [ -103.905969650561318, 19.448322282912702 ], [ -103.898580577803898, 19.446313492508303 ], [ -103.895202141603065, 19.442595673589189 ], [ -103.898974209892941, 19.436953396325215 ], [ -103.89246182505579, 19.437633726896962 ], [ -103.888328393469408, 19.434414773746802 ], [ -103.87960816509991, 19.436549957955368 ], [ -103.87792723497634, 19.440778336262657 ], [ -103.870657104822811, 19.440258934116624 ], [ -103.866684864290534, 19.426065122647426 ], [ -103.868365594223633, 19.421588381950126 ], [ -103.865627462253087, 19.4174542994962 ], [ -103.866667740289742, 19.41235804074849 ], [ -103.843992697346479, 19.413822938679051 ], [ -103.835726627561726, 19.404981053973664 ], [ -103.82502525339342, 19.401776436209317 ], [ -103.818011927613469, 19.412320971539394 ], [ -103.809240654821167, 19.415235196180092 ], [ -103.788756497149549, 19.429464406987993 ], [ -103.773349664981623, 19.431256012681509 ], [ -103.749735350421673, 19.444663562113881 ], [ -103.734358153823294, 19.443345921663987 ], [ -103.724772526414142, 19.450944431104094 ], [ -103.716648730860527, 19.454058898936783 ], [ -103.716117421993445, 19.466073408357293 ], [ -103.707512791357928, 19.470172495233488 ], [ -103.696350193972719, 19.485679992420646 ], [ -103.673198871803152, 19.476975215379337 ], [ -103.664047509037658, 19.46826095142346 ], [ -103.659277416790786, 19.467977682595652 ], [ -103.667430922992807, 19.465501960162417 ], [ -103.665245514819262, 19.456549192424941 ], [ -103.671456433599005, 19.453204626594129 ], [ -103.668625421398488, 19.448415529314111 ], [ -103.668730447987215, 19.437882706559297 ], [ -103.662602393946813, 19.432181285059979 ], [ -103.677790998725584, 19.407930905901331 ], [ -103.685669198616935, 19.382878554611274 ], [ -103.698978398447011, 19.363268846751545 ], [ -103.700312334153807, 19.355767983885702 ], [ -103.703323629981611, 19.352503250488091 ], [ -103.703530113810274, 19.342756490839363 ], [ -103.71701587973277, 19.32645244181035 ], [ -103.745649983792006, 19.314105668311566 ], [ -103.749271840707351, 19.293166569206907 ], [ -103.856737622428795, 19.344859219849415 ] ] ] } },
{ "type": "Feature", "properties": { "cve_edo": "06", "cve_mpo_ine": "003", "cve_edo_mpo_ine": "06003", "nom_mpo": "COQUIMATLAN", "nom_edo": "Colima", "alianza_ganadora": "Juntos Haremos Historia", "margen_pp": 27.051801321679811, "por_participacion": 56.518072289156628 }, "geometry": { "type": "Polygon", "coordinates": [ [ [ -103.778586039505996, 19.245867137207888 ], [ -103.775230846438774, 19.236855452031143 ], [ -103.780729096601419, 19.232331380496571 ], [ -103.778743809670146, 19.230777356081699 ], [ -103.778251784855328, 19.219419125386771 ], [ -103.781245071368588, 19.160793174713174 ], [ -103.815089484710995, 19.121199162132456 ], [ -103.807146822427015, 19.112665048441865 ], [ -103.807202904923187, 19.040922062029011 ], [ -103.844874391237383, 19.040904977875883 ], [ -103.862333046066837, 19.045697530422721 ], [ -103.858044559835378, 19.113897936127199 ], [ -103.895128007614417, 19.093395668292949 ], [ -103.897088161966437, 19.103163990857809 ], [ -103.885694982260674, 19.111240765674985 ], [ -103.884413454509072, 19.117093087136254 ], [ -103.88360831424896, 19.124504628601883 ], [ -103.887532659628832, 19.13537159381422 ], [ -103.916977644675953, 19.133436905964064 ], [ -103.944202601449192, 19.108683321161458 ], [ -104.067816832427454, 19.133688628612074 ], [ -104.057728249084903, 19.192777630078908 ], [ -104.066757061974485, 19.236632891475686 ], [ -104.031830565033985, 19.252554745674825 ], [ -104.029940331887786, 19.288745459079447 ], [ -103.969236369879226, 19.286669751995767 ], [ -103.914467428631596, 19.260313314351343 ], [ -103.843822388087489, 19.294677115005953 ], [ -103.848156505882201, 19.286133486320217 ], [ -103.778586039505996, 19.245867137207888 ] ] ] } },
{ "type": "Feature", "properties": { "cve_edo": "06", "cve_mpo_ine": "004", "cve_edo_mpo_ine": "06004", "nom_mpo": "CUAUHTEMOC", "nom_edo": "Colima", "alianza_ganadora": "Juntos Haremos Historia", "margen_pp": 12.299267372160141, "por_participacion": 57.45567413580509 }, "geometry": { "type": "Polygon", "coordinates": [ [ [ -103.609585454292102, 19.470145225305288 ], [ -103.587466342868012, 19.444146447527579 ], [ -103.586570041342924, 19.438861305090306 ], [ -103.581233442203086, 19.43633217032324 ], [ -103.579497005723596, 19.425595450324781 ], [ -103.576703947823759, 19.421869745596016 ], [ -103.577612159509769, 19.416558031389847 ], [ -103.573503540453402, 19.410533615312232 ], [ -103.569311069944064, 19.406621414869552 ], [ -103.559268915319336, 19.408424206074557 ], [ -103.55167644108414, 19.399056034965884 ], [ -103.538416396604532, 19.388155617625895 ], [ -103.536978869372831, 19.381595025109753 ], [ -103.530447052699316, 19.376805331659416 ], [ -103.52531915137385, 19.368600962352815 ], [ -103.522300150141646, 19.357427176301652 ], [ -103.500880613759364, 19.345234734237785 ], [ -103.497767737033854, 19.3471833421196 ], [ -103.492749750604517, 19.346220271296009 ], [ -103.486920379942603, 19.338644923608907 ], [ -103.487607440267155, 19.326690727060722 ], [ -103.496786720190713, 19.319713385220233 ], [ -103.491259868510852, 19.315471443514685 ], [ -103.490384627978202, 19.311958936218055 ], [ -103.493054934210434, 19.307856058126958 ], [ -103.49474279288151, 19.310001166528465 ], [ -103.499798728086475, 19.308330512546775 ], [ -103.501940272049112, 19.29889416939217 ], [ -103.505311584734372, 19.298717684085847 ], [ -103.508926647669924, 19.29457310757105 ], [ -103.506909882883889, 19.278659340734698 ], [ -103.508893693975949, 19.268590904874106 ], [ -103.505928555479713, 19.254153897843103 ], [ -103.509565225040703, 19.242038781091459 ], [ -103.506031627445651, 19.236116925132599 ], [ -103.50602194317139, 19.227345846490479 ], [ -103.513336530622738, 19.218754749757188 ], [ -103.510610105143044, 19.213422901107705 ], [ -103.513672194721238, 19.210236448046075 ], [ -103.647966508441698, 19.222393301389818 ], [ -103.675439008311088, 19.241022829819311 ], [ -103.684551969541971, 19.318391273326654 ], [ -103.670441409071998, 19.3390567049899 ], [ -103.666171530827498, 19.341851526791469 ], [ -103.666354697913107, 19.351230029665686 ], [ -103.657841044246524, 19.360620572039828 ], [ -103.660416167552043, 19.372133031258972 ], [ -103.659435715087568, 19.381022769866096 ], [ -103.66361153285861, 19.382706398300495 ], [ -103.655226902492259, 19.384436658663464 ], [ -103.65193498842207, 19.394538637711136 ], [ -103.653728993620291, 19.402213176810577 ], [ -103.649281416094098, 19.404760617967508 ], [ -103.648333049644748, 19.410096552234851 ], [ -103.642615650023288, 19.413560496422349 ], [ -103.639354825676136, 19.428331002758281 ], [ -103.662602393946813, 19.432181285059979 ], [ -103.668730447987215, 19.437882706559297 ], [ -103.668625421398488, 19.448415529314111 ], [ -103.671456433599005, 19.453204626594129 ], [ -103.665245514819262, 19.456549192424941 ], [ -103.667430922992807, 19.465501960162417 ], [ -103.659277416786892, 19.467977681835343 ], [ -103.658932977203847, 19.470087385809393 ], [ -103.663307064561437, 19.475458229633016 ], [ -103.662686016970952, 19.48410287032112 ], [ -103.65315167141803, 19.486720628805315 ], [ -103.63136798729407, 19.502048891818362 ], [ -103.616358723372329, 19.508830438868547 ], [ -103.615925664884145, 19.492196587241782 ], [ -103.613024318157287, 19.485368396463276 ], [ -103.61665372637809, 19.47533844227938 ], [ -103.609585454292102, 19.470145225305288 ] ] ] } },
{ "type": "Feature", "properties": { "cve_edo": "06", "cve_mpo_ine": "007", "cve_edo_mpo_ine": "06007", "nom_mpo": "IXTLAHUACAN", "nom_edo": "Colima", "alianza_ganadora": "Otros", "margen_pp": 11.1, "por_participacion": 76.089024158265175 }, "geometry": { "type": "Polygon", "coordinates": [ [ [ -103.623139908408547, 18.83738742580584 ], [ -103.650182692863396, 18.844844444645794 ], [ -103.810941518786493, 18.979746780744851 ], [ -103.81215077685404, 19.006606793880493 ], [ -103.786989165839799, 19.01733601502184 ], [ -103.781610308299079, 19.024279147707816 ], [ -103.774112456259815, 19.058331272122356 ], [ -103.701357342491534, 19.072651088409504 ], [ -103.667167862164817, 19.072925826740637 ], [ -103.649464250919479, 19.019969204390545 ], [ -103.64670386945825, 19.017137182109522 ], [ -103.648131074853708, 19.011907523555379 ], [ -103.644359937534432, 19.004608077579821 ], [ -103.59263772496287, 19.004544892810728 ], [ -103.592413534408777, 18.995708996606957 ], [ -103.589200749946798, 18.99159229500151 ], [ -103.589267779372292, 18.982552720879028 ], [ -103.593266199430388, 18.974375446950919 ], [ -103.588350000454824, 18.965743377947451 ], [ -103.585650938068653, 18.865451121149711 ], [ -103.589715245377207, 18.86837952283463 ], [ -103.589011891320354, 18.875967137394106 ], [ -103.596859985517028, 18.88430697839426 ], [ -103.602823306018422, 18.881214136180887 ], [ -103.610561590435978, 18.888846544904325 ], [ -103.620657298651764, 18.893016369712957 ], [ -103.630031161183297, 18.885641294709405 ], [ -103.633056113318233, 18.878658397627373 ], [ -103.641575171789782, 18.868825929625537 ], [ -103.636120049122781, 18.859558018390157 ], [ -103.618206602888662, 18.84364731076769 ], [ -103.616799632393622, 18.837781310689763 ], [ -103.623139908408547, 18.83738742580584 ] ] ] } },
{ "type": "Feature", "properties": { "cve_edo": "06", "cve_mpo_ine": "008", "cve_edo_mpo_ine": "06008", "nom_mpo": "MANZANILLO", "nom_edo": "Colima", "alianza_ganadora": "Juntos Haremos Historia", "margen_pp": 41.700282648664967, "por_participacion": 50.537045383628609 }, "geometry": { "type": "Polygon", "coordinates": [ [ [ -104.301612113409249, 19.087231318670408 ], [ -104.303278297444791, 19.085700988309597 ], [ -104.303207529931058, 19.082153139962184 ], [ -104.304787562655179, 19.083962684303991 ], [ -104.296186749389761, 19.068347615635442 ], [ -104.293982972544242, 19.07018143336413 ], [ -104.294484005858479, 19.067528215896164 ], [ -104.305096036814518, 19.062844987309795 ], [ -104.302723027638748, 19.066280220506275 ], [ -104.305559862828233, 19.077735578934806 ], [ -104.31938644657339, 19.094364702971024 ], [ -104.33602313152366, 19.102969206552523 ], [ -104.345230668599442, 19.103888202909484 ], [ -104.348221654363897, 19.100566879942456 ], [ -104.345045831693056, 19.098270721059226 ], [ -104.349776270742794, 19.097091004898406 ], [ -104.35142870210511, 19.090374626719754 ], [ -104.354905455208709, 19.090858279751078 ], [ -104.356831056516512, 19.097080137739223 ], [ -104.350204207987758, 19.102993631886825 ], [ -104.351165732144068, 19.105308250347321 ], [ -104.355750975837921, 19.105426679791133 ], [ -104.352406039579378, 19.106993111600975 ], [ -104.352111499306474, 19.11250964106469 ], [ -104.357751595958476, 19.11684494816673 ], [ -104.373665691515782, 19.120354991705224 ], [ -104.389067771616808, 19.11751592057373 ], [ -104.397039438590951, 19.111150868121392 ], [ -104.398825428626751, 19.104486394201352 ], [ -104.392786795307316, 19.101284451559806 ], [ -104.390470661883924, 19.096932440169191 ], [ -104.396328939952383, 19.090322609120623 ], [ -104.396387883612121, 19.085462556095731 ], [ -104.400428047925928, 19.090585517855978 ], [ -104.399467517047597, 19.093563885821631 ], [ -104.402598681061264, 19.097428195245048 ], [ -104.404969836069355, 19.097252317922262 ], [ -104.40532858698441, 19.101037791476895 ], [ -104.408328783588132, 19.101410409113871 ], [ -104.407895308686349, 19.10381424567727 ], [ -104.412421970855604, 19.10699082281123 ], [ -104.418093427648685, 19.106277288813697 ], [ -104.427450593713587, 19.096929592911316 ], [ -104.429357288406351, 19.092094093488196 ], [ -104.434813844855057, 19.094825480855473 ], [ -104.435989006645713, 19.098040090776706 ], [ -104.439681025507596, 19.098546006062399 ], [ -104.43763820205973, 19.090542156712083 ], [ -104.439092734657265, 19.084828094841008 ], [ -104.441867568178353, 19.084698629597469 ], [ -104.44594676264802, 19.091524507534423 ], [ -104.44907176251013, 19.091108737194443 ], [ -104.44644556825169, 19.093317564117545 ], [ -104.450417059511707, 19.094616323709886 ], [ -104.449251685519002, 19.100334285860519 ], [ -104.453000107131658, 19.100965316252214 ], [ -104.45088102555809, 19.10426106982008 ], [ -104.452205876753666, 19.109513293865948 ], [ -104.463844638902657, 19.112408239869872 ], [ -104.468484855134449, 19.110931808120704 ], [ -104.472524969055385, 19.116302483594872 ], [ -104.492234817616662, 19.125948213729234 ], [ -104.569044519507742, 19.146370685680772 ], [ -104.604013508374578, 19.151625109905225 ], [ -104.680447429425286, 19.177314354011571 ], [ -104.689572959848931, 19.17812929239177 ], [ -104.693077307433484, 19.174681039860207 ], [ -104.693219729154933, 19.177674034582189 ], [ -104.697733524278519, 19.177228971890518 ], [ -104.701314719184111, 19.18312929979594 ], [ -104.697150442492344, 19.188896459803836 ], [ -104.691301592029333, 19.189824211656372 ], [ -104.690984592073733, 19.198088067009184 ], [ -104.688484940227426, 19.199387833435384 ], [ -104.681361073266586, 19.195023787177753 ], [ -104.67532074081484, 19.186600934235788 ], [ -104.652862879032824, 19.183630487614547 ], [ -104.645038157391042, 19.180087476258752 ], [ -104.642027140989072, 19.17593809233545 ], [ -104.629586231010165, 19.173318178121029 ], [ -104.626356157829406, 19.178030903930186 ], [ -104.619457309416262, 19.180690392166159 ], [ -104.615943551848929, 19.174442180405059 ], [ -104.619283402398949, 19.168317110073509 ], [ -104.616408100870373, 19.161940321455628 ], [ -104.611871693963948, 19.160473782264518 ], [ -104.613317914221795, 19.156367785411188 ], [ -104.600565456348804, 19.151616146375734 ], [ -104.591798496047488, 19.151919243480791 ], [ -104.587283779459582, 19.155185784510174 ], [ -104.586733183318188, 19.161916133128795 ], [ -104.588775885587253, 19.164187513429862 ], [ -104.596214256670393, 19.165304593412014 ], [ -104.599848513920435, 19.172715112804379 ], [ -104.600473685753343, 19.182469538994432 ], [ -104.59617444098258, 19.182163829134087 ], [ -104.590211483145069, 19.186435900477505 ], [ -104.583319555682493, 19.177799303474178 ], [ -104.576999727579789, 19.180204511937994 ], [ -104.568970047526221, 19.203423465252584 ], [ -104.573305659394663, 19.211909894521192 ], [ -104.564807605204336, 19.221386852012923 ], [ -104.560168006038595, 19.223200040184615 ], [ -104.557294514203065, 19.233736314563188 ], [ -104.531856963747913, 19.260566469247607 ], [ -104.526386251301815, 19.258460941715384 ], [ -104.523439260763752, 19.253147012264964 ], [ -104.518689796173447, 19.253750926117412 ], [ -104.508950219020377, 19.245690676994904 ], [ -104.501052824237419, 19.253482475684716 ], [ -104.495606466517344, 19.2543260575411 ], [ -104.489714805686319, 19.248682641153415 ], [ -104.490198597551952, 19.231904612123454 ], [ -104.484308225622513, 19.231204928633016 ], [ -104.480062406117725, 19.238253917462359 ], [ -104.47681321975324, 19.239167100650199 ], [ -104.472086929011965, 19.232873593192977 ], [ -104.467821413344154, 19.231696066716889 ], [ -104.463474387385943, 19.237455434697956 ], [ -104.468051678026313, 19.246572285612043 ], [ -104.456731752956088, 19.250162783708944 ], [ -104.459670150878878, 19.256017741640292 ], [ -104.456902224091891, 19.260218954985849 ], [ -104.451705454585621, 19.259485793897348 ], [ -104.43886884609978, 19.264052247040571 ], [ -104.436522767879211, 19.271623879966477 ], [ -104.438765271382792, 19.275121319305622 ], [ -104.437488929220777, 19.27608966333133 ], [ -104.430403261960265, 19.276017690302975 ], [ -104.424204600729837, 19.278716711631159 ], [ -104.418330019943838, 19.277161858188347 ], [ -104.413306185748425, 19.282250785890454 ], [ -104.401016067968484, 19.286257610075385 ], [ -104.398210828577248, 19.283121756977163 ], [ -104.403104398864883, 19.27542459671082 ], [ -104.403815747779007, 19.267632425966557 ], [ -104.401993463174023, 19.263689528114448 ], [ -104.39592008687336, 19.268028203324413 ], [ -104.384601945714579, 19.269122433703899 ], [ -104.382326807599668, 19.276172986363598 ], [ -104.375131969805693, 19.282680872074938 ], [ -104.364513504650091, 19.275972035013563 ], [ -104.3637251556313, 19.269563368249884 ], [ -104.357554317735492, 19.272760970420354 ], [ -104.343447715995651, 19.290722180026247 ], [ -104.331154056376278, 19.288251731325516 ], [ -104.322803114103138, 19.281047915839263 ], [ -104.314484477921383, 19.279888900573862 ], [ -104.311251973787861, 19.284261037657078 ], [ -104.310526849030921, 19.290144718668223 ], [ -104.299630977806757, 19.296603271050273 ], [ -104.297628899527695, 19.302985380625817 ], [ -104.29379483897219, 19.303576102310213 ], [ -104.284111278798619, 19.297074859112502 ], [ -104.280655810567893, 19.3035857135594 ], [ -104.277213451654063, 19.301131409674252 ], [ -104.269893887800009, 19.302269475547732 ], [ -104.262133323362335, 19.308343748332096 ], [ -104.261049024652721, 19.312501287094438 ], [ -104.255978716316903, 19.310011507084546 ], [ -104.247385126532677, 19.312304807193513 ], [ -104.22517564528907, 19.301694884793271 ], [ -104.219876979025116, 19.301381589605057 ], [ -104.21818048203491, 19.298952699311815 ], [ -104.212951530303641, 19.302022146794805 ], [ -104.207587522074732, 19.299563283704281 ], [ -104.204825419445513, 19.303529282107156 ], [ -104.192728159352328, 19.295028876647883 ], [ -104.191901959043619, 19.291565695635647 ], [ -104.066757061974499, 19.236632891475686 ], [ -104.057728249084903, 19.192777630078908 ], [ -104.067816832427454, 19.133688628612074 ], [ -104.053075302681108, 19.100098201187595 ], [ -104.052914612772483, 19.019770713231903 ], [ -104.124069713736006, 18.947395477067236 ], [ -104.184020004193229, 18.973112602122914 ], [ -104.294789780752296, 19.013206446776969 ], [ -104.318813642146608, 19.019172363111725 ], [ -104.332534626153659, 19.017387470945479 ], [ -104.336530236831521, 19.021385134116855 ], [ -104.333941976418373, 19.025209181598253 ], [ -104.335452841318414, 19.028555308872537 ], [ -104.3307041838342, 19.034506590652303 ], [ -104.332149250993382, 19.045538584802866 ], [ -104.329704611535462, 19.051352870186211 ], [ -104.314966253673674, 19.06250373927859 ], [ -104.318741214908187, 19.058055551596933 ], [ -104.316710150606411, 19.05844709050951 ], [ -104.31806751415472, 19.055903994609316 ], [ -104.315280318114375, 19.054935787318961 ], [ -104.314434274322807, 19.057108906413887 ], [ -104.314586962381838, 19.054528212347847 ], [ -104.310861281670768, 19.054222861722675 ], [ -104.304472830974262, 19.060853831699408 ], [ -104.299993515573377, 19.061837905407863 ], [ -104.298495295968905, 19.057662734748359 ], [ -104.294683875846388, 19.058693112442487 ], [ -104.29061863633062, 19.078124827214086 ], [ -104.291853784897413, 19.081149924967299 ], [ -104.294643548480977, 19.080297342620074 ], [ -104.301612113409249, 19.087231318670408 ] ] ] } },
{ "type": "Feature", "properties": { "cve_edo": "06", "cve_mpo_ine": "009", "cve_edo_mpo_ine": "06009", "nom_mpo": "MINATITLAN", "nom_edo": "Colima", "alianza_ganadora": "Juntos Haremos Historia", "margen_pp": 26.534944480731546, "por_participacion": 78.172070462088328 }, "geometry": { "type": "Polygon", "coordinates": [ [ [ -104.191901959043619, 19.291565695635647 ], [ -104.192728159352328, 19.295028876647883 ], [ -104.204825419445513, 19.303529282107156 ], [ -104.207587522074732, 19.299563283704281 ], [ -104.212951530303641, 19.302022146794805 ], [ -104.21818048203491, 19.298952699311815 ], [ -104.219876979025116, 19.301381589605057 ], [ -104.22517564528907, 19.301694884793271 ], [ -104.235794420405952, 19.307905296412851 ], [ -104.190734881083756, 19.320356800103024 ], [ -104.18053368991022, 19.327586993073648 ], [ -104.152880320177388, 19.333103541904215 ], [ -104.137380664342814, 19.3533012115264 ], [ -104.125208211197702, 19.377435283710618 ], [ -104.108347237302553, 19.393645250469131 ], [ -104.098265602972106, 19.418799173313911 ], [ -104.092046055191688, 19.450521175319306 ], [ -104.090449834161646, 19.474417104229673 ], [ -104.074547420012905, 19.487176370431619 ], [ -104.069515010460123, 19.480090774480686 ], [ -104.0577776662617, 19.476453718521142 ], [ -104.056548234732503, 19.473186492184098 ], [ -104.050665548129118, 19.470018755693435 ], [ -104.050578222394194, 19.482318818350649 ], [ -104.039321340969309, 19.494906781229442 ], [ -104.03182034926742, 19.496672225025328 ], [ -104.026020097182197, 19.47826342108776 ], [ -104.011491596155068, 19.478029082635704 ], [ -103.988539737300258, 19.469194557087306 ], [ -103.985504380901617, 19.463779280223324 ], [ -103.985193150721429, 19.453385716488061 ], [ -103.981128648421546, 19.456918799480984 ], [ -103.971762695415265, 19.456037359156305 ], [ -103.972187995651566, 19.465685120396227 ], [ -103.965748790899468, 19.475064392871669 ], [ -103.961325602009296, 19.473794269239399 ], [ -103.964919985037426, 19.467198623922499 ], [ -103.95729677673107, 19.465317112654986 ], [ -103.955555047840392, 19.467144563418724 ], [ -103.952059685631411, 19.464090675554544 ], [ -103.948574450954553, 19.466792980250943 ], [ -103.9439783443366, 19.466226974684549 ], [ -103.940766425692729, 19.45865812276686 ], [ -103.945645908494072, 19.454454770782252 ], [ -103.945370314638978, 19.434212143930157 ], [ -103.937417386048992, 19.431534218897301 ], [ -103.936172444688921, 19.420736341698859 ], [ -103.933626364131428, 19.420003247274909 ], [ -103.92901752946311, 19.408834120013324 ], [ -103.92726416271887, 19.409597831826073 ], [ -103.926541228021094, 19.407275506679053 ], [ -103.920309850192012, 19.404225263370247 ], [ -103.908975043924826, 19.379836070424151 ], [ -103.900663210460053, 19.376140070137723 ], [ -104.027304278642475, 19.329059345727948 ], [ -104.031830565035904, 19.252554745265883 ], [ -104.066757061974499, 19.236632891475686 ], [ -104.191901959043619, 19.291565695635647 ] ] ] } },
{ "type": "Feature", "properties": { "cve_edo": "06", "cve_mpo_ine": "010", "cve_edo_mpo_ine": "06010", "nom_mpo": "TECOMAN", "nom_edo": "Colima", "alianza_ganadora": "Juntos Haremos Historia", "margen_pp": 27.311755216735182, "por_participacion": 45.455513110120279 }, "geometry": { "type": "Polygon", "coordinates": [ [ [ -103.807174602601506, 19.077432537417167 ], [ -103.774112456259815, 19.058331272122356 ], [ -103.781610308299079, 19.024279147707816 ], [ -103.786989165839799, 19.01733601502184 ], [ -103.81215077685404, 19.006606793880493 ], [ -103.810941518786493, 18.979746780744851 ], [ -103.650182692863396, 18.844844444645794 ], [ -103.623139908408547, 18.83738742580584 ], [ -103.625541971526189, 18.827880039514024 ], [ -103.621937037559888, 18.822605352345828 ], [ -103.618572414106822, 18.808822965041955 ], [ -103.61912705300719, 18.804489970193007 ], [ -103.627374687532352, 18.79100280438217 ], [ -103.627259667589854, 18.792987832835504 ], [ -103.644148154933333, 18.780541338499201 ], [ -103.647805868593153, 18.781449993257596 ], [ -103.661279782347577, 18.777021446008408 ], [ -103.667425111858478, 18.779656203114033 ], [ -103.670982970995126, 18.77848847769442 ], [ -103.681471391396258, 18.770397743145733 ], [ -103.684628991710781, 18.75807009852387 ], [ -103.692737686446208, 18.756421639481616 ], [ -103.694614689948466, 18.753270781739719 ], [ -103.698720915132142, 18.753425488030416 ], [ -103.700722937425013, 18.756538694455784 ], [ -103.706664063646713, 18.735609425514319 ], [ -103.698748482172249, 18.730644110365521 ], [ -103.714995131668289, 18.723548182949447 ], [ -103.716949671616376, 18.716292802757646 ], [ -103.726813073935091, 18.702127537077924 ], [ -103.736781367306648, 18.700984132908406 ], [ -103.738628040598186, 18.697207038995924 ], [ -103.733827001551035, 18.692991287633582 ], [ -103.737710236133339, 18.688388387623846 ], [ -103.739030316426962, 18.68914745580603 ], [ -103.738033890939207, 18.685937051727208 ], [ -103.740394565786147, 18.68477234913184 ], [ -103.740696901687429, 18.689953243682861 ], [ -103.744163004774521, 18.694474140084896 ], [ -103.775387255211314, 18.725251152193426 ], [ -103.813090144504656, 18.757152799865469 ], [ -103.835302026055373, 18.772120384211803 ], [ -103.836091570335071, 18.775265384384326 ], [ -103.837490898250493, 18.77362237604736 ], [ -103.891775131626147, 18.809137232747705 ], [ -103.948123357455088, 18.842129882129193 ], [ -103.972185423901294, 18.865453183487695 ], [ -103.969013078725681, 18.863409656660259 ], [ -103.968821320607887, 18.866548239190479 ], [ -103.962157594224351, 18.867581809670778 ], [ -103.958138771087789, 18.871729781125719 ], [ -103.95275791674149, 18.881033303461084 ], [ -103.956464209122828, 18.890805773346287 ], [ -103.950762631450331, 18.895438950352364 ], [ -103.951593284475877, 18.901888766173276 ], [ -103.939923484637887, 18.916812649794121 ], [ -103.943833072100034, 18.921587861446085 ], [ -103.943278095989783, 18.937035063314493 ], [ -103.947175022903068, 18.944040981581914 ], [ -103.943617271674967, 18.948191373216794 ], [ -103.946400230076591, 18.957503835072629 ], [ -103.937416618668166, 18.95839799135452 ], [ -103.931612179971893, 18.950760219538996 ], [ -103.918458924797605, 18.951585885667463 ], [ -103.916870826860603, 18.965043329033385 ], [ -103.918721636328726, 18.975011177662665 ], [ -103.914937371098645, 18.978085408413317 ], [ -103.913380192192037, 18.995839334105991 ], [ -103.91492411323712, 19.008614396060565 ], [ -103.908333371593997, 19.015636349503836 ], [ -103.91387964187895, 19.037153748286329 ], [ -103.903309107783272, 19.059558887630693 ], [ -103.902445744528208, 19.067898099826568 ], [ -103.895705001405801, 19.079875753296999 ], [ -103.896614808354173, 19.082690811095024 ], [ -103.893748567392905, 19.086803193472683 ], [ -103.895128007614417, 19.093395668292949 ], [ -103.858044559835378, 19.113897936127199 ], [ -103.862333046066837, 19.045697530422721 ], [ -103.844874391237383, 19.040904977875883 ], [ -103.807202904923187, 19.040922062029011 ], [ -103.807174602601506, 19.077432537417167 ] ] ] } },
{ "type": "Feature", "properties": { "cve_edo": "06", "cve_mpo_ine": "005", "cve_edo_mpo_ine": "06005", "nom_mpo": "VILLA DE ALVAREZ", "nom_edo": "Colima", "alianza_ganadora": "Juntos Haremos Historia", "margen_pp": 15.411984359037588, "por_participacion": 53.040976101945105 }, "geometry": { "type": "Polygon", "coordinates": [ [ [ -103.759616843574292, 19.242131866085984 ], [ -103.767790527530479, 19.238521145253767 ], [ -103.775330389333106, 19.24507216922073 ], [ -103.782471806228756, 19.246924304594465 ], [ -103.848156505882201, 19.286133486320217 ], [ -103.843822388087489, 19.294677115005953 ], [ -103.914467428631596, 19.260313314351343 ], [ -103.969236369879226, 19.286669751995767 ], [ -104.029940331887786, 19.288745459079344 ], [ -104.027304278640628, 19.329059346126844 ], [ -103.900663210458674, 19.376140070530258 ], [ -103.856737622428795, 19.344859219849415 ], [ -103.749271840707351, 19.293166569206907 ], [ -103.745649983792006, 19.314105668311566 ], [ -103.71701587973277, 19.32645244181035 ], [ -103.703530113810274, 19.342756490839363 ], [ -103.703323629981611, 19.352503250488091 ], [ -103.700312334153807, 19.355767983885702 ], [ -103.698978398447011, 19.363268846751545 ], [ -103.685669198619166, 19.38287855543005 ], [ -103.677790998725584, 19.407930905901331 ], [ -103.662602393946813, 19.432181285059979 ], [ -103.639354825676136, 19.428331002758281 ], [ -103.642615650023288, 19.413560496422349 ], [ -103.648333049644748, 19.410096552234851 ], [ -103.649281416094098, 19.404760617967508 ], [ -103.653728993620291, 19.402213176810577 ], [ -103.65193498842207, 19.394538637711136 ], [ -103.655226902492259, 19.384436658663464 ], [ -103.66361153285861, 19.382706398300495 ], [ -103.659435715087568, 19.381022769866096 ], [ -103.660353478414549, 19.371472298996874 ], [ -103.657567021704125, 19.36285351339809 ], [ -103.666354697913107, 19.351230029665686 ], [ -103.666171530827498, 19.341851526791469 ], [ -103.670441409071998, 19.3390567049899 ], [ -103.686550479311435, 19.314246676268013 ], [ -103.693013579602123, 19.31032178431197 ], [ -103.702145679935029, 19.298983226353069 ], [ -103.709466981207868, 19.293688612565784 ], [ -103.723660377423542, 19.258443951661825 ], [ -103.730067575807254, 19.260726100599438 ], [ -103.730097198031544, 19.257187555961778 ], [ -103.73273076840988, 19.254788114077176 ], [ -103.737222527141455, 19.256331330872687 ], [ -103.744456820908155, 19.242294673321243 ], [ -103.759616843574292, 19.242131866085984 ] ] ] } }
]
}
