{
"type": "FeatureCollection",
"name": "09",
"crs": { "type": "name", "properties": { "name": "urn:ogc:def:crs:OGC:1.3:CRS84" } },
"features": [
{ "type": "Feature", "properties": { "cve_edo": "09", "cve_mpo_ine": "010", "cve_edo_mpo_ine": "09010", "nom_mpo": "ALVARO OBREGON", "nom_edo": "Ciudad de México", "alianza_ganadora": "Va por México", "margen_pp": 17.315483155287431, "por_participacion": 53.969980136567251 }, "geometry": { "type": "Polygon", "coordinates": [ [ [ -99.279570977280443, 19.333620436418126 ], [ -99.255650469045506, 19.348030548729721 ], [ -99.260047469307281, 19.347551164142654 ], [ -99.258096990900583, 19.349875771544564 ], [ -99.261109236912219, 19.360992818036635 ], [ -99.271266712001335, 19.367505595944134 ], [ -99.270111985671264, 19.373160733613197 ], [ -99.260933549872647, 19.376092936102591 ], [ -99.246107675845707, 19.387193181927938 ], [ -99.242261935333971, 19.38727828361808 ], [ -99.238076123669629, 19.393457006198766 ], [ -99.192206477980747, 19.403739452578105 ], [ -99.188356792271122, 19.393710730303891 ], [ -99.191726496598733, 19.382759079849166 ], [ -99.191162033251075, 19.363614288135285 ], [ -99.184054917652603, 19.361594523518125 ], [ -99.177573560637029, 19.365116319420874 ], [ -99.171802919858152, 19.359601083001561 ], [ -99.191124287579157, 19.336847501813683 ], [ -99.200026564842176, 19.33323955282841 ], [ -99.194774562719132, 19.330137564079546 ], [ -99.194825315447943, 19.322431060049126 ], [ -99.204856175984176, 19.30551327206199 ], [ -99.216051088428216, 19.307938165872649 ], [ -99.220700120022343, 19.314041565926708 ], [ -99.221412767698268, 19.319856011290536 ], [ -99.212656213241502, 19.326867042547985 ], [ -99.206555305931019, 19.336279452275473 ], [ -99.213770539066829, 19.33659023846252 ], [ -99.230459931418721, 19.330186805669737 ], [ -99.237153317778947, 19.324627846840379 ], [ -99.24032094931178, 19.324502661326406 ], [ -99.244323406607307, 19.328597398052285 ], [ -99.254826075325113, 19.326800550258401 ], [ -99.266822570691517, 19.311410534786475 ], [ -99.271310747715233, 19.31136951359009 ], [ -99.27768813385336, 19.317680939155942 ], [ -99.278214589417644, 19.304084542149184 ], [ -99.284968125215855, 19.295007667372932 ], [ -99.2945452187098, 19.291342820585896 ], [ -99.302710051770859, 19.283026025848706 ], [ -99.311817225314641, 19.283613489253433 ], [ -99.279570977280443, 19.333620436418126 ] ] ] } },
{ "type": "Feature", "properties": { "cve_edo": "09", "cve_mpo_ine": "002", "cve_edo_mpo_ine": "09002", "nom_mpo": "AZCAPOTZALCO", "nom_edo": "Ciudad de México", "alianza_ganadora": "Juntos Haremos Historia", "margen_pp": 0.12958585912512557, "por_participacion": 53.948450207110355 }, "geometry": { "type": "Polygon", "coordinates": [ [ [ -99.205158638153293, 19.514943377712715 ], [ -99.177549191574514, 19.506322716726835 ], [ -99.17305472765598, 19.508620087323003 ], [ -99.156970994047356, 19.502739021878281 ], [ -99.143060518585131, 19.465136744668126 ], [ -99.150554620633955, 19.462948257508749 ], [ -99.158697560651149, 19.463881553644015 ], [ -99.163605187623048, 19.456381139193351 ], [ -99.188537665303485, 19.460765580339121 ], [ -99.190494689112313, 19.470358091625801 ], [ -99.200836155969697, 19.473271869106124 ], [ -99.206923482798715, 19.471208211258016 ], [ -99.221115250061757, 19.475058224509141 ], [ -99.210906890675417, 19.509718664933853 ], [ -99.205158638153293, 19.514943377712715 ] ] ] } },
{ "type": "Feature", "properties": { "cve_edo": "09", "cve_mpo_ine": "014", "cve_edo_mpo_ine": "09014", "nom_mpo": "BENITO JUAREZ", "nom_edo": "Ciudad de México", "alianza_ganadora": "Va por México", "margen_pp": 50.704928835555776, "por_participacion": 63.622162049573006 }, "geometry": { "type": "Polygon", "coordinates": [ [ [ -99.152419175673316, 19.404066684246899 ], [ -99.136500978877805, 19.403424360707053 ], [ -99.137148908060269, 19.39905245353566 ], [ -99.130972342065562, 19.398803976628919 ], [ -99.140213390510141, 19.356643505227652 ], [ -99.170084967272757, 19.358692818495349 ], [ -99.177573560637029, 19.365116319420874 ], [ -99.184054917652603, 19.361594523518125 ], [ -99.191162033251075, 19.363614288135285 ], [ -99.191726496598733, 19.382759079849166 ], [ -99.189076980678536, 19.395630043623026 ], [ -99.152419175673316, 19.404066684246899 ] ] ] } },
{ "type": "Feature", "properties": { "cve_edo": "09", "cve_mpo_ine": "003", "cve_edo_mpo_ine": "09003", "nom_mpo": "COYOACAN", "nom_edo": "Ciudad de México", "alianza_ganadora": "Va por México", "margen_pp": 15.106692604884897, "por_participacion": 58.257880868239468 }, "geometry": { "type": "Polygon", "coordinates": [ [ [ -99.200026564842176, 19.33323955282841 ], [ -99.191124287579157, 19.336847501813683 ], [ -99.180613420696062, 19.347230361513972 ], [ -99.171802919858152, 19.359601083001561 ], [ -99.144090282614144, 19.356310194129438 ], [ -99.133695374144125, 19.356290498195609 ], [ -99.131002350716003, 19.358624846616589 ], [ -99.121970183001991, 19.357619717854408 ], [ -99.112314547658272, 19.334537527493087 ], [ -99.099135705396691, 19.320921635575221 ], [ -99.100897024595952, 19.300015493754351 ], [ -99.117535503375862, 19.301469185940441 ], [ -99.134810939651516, 19.30825144640529 ], [ -99.142551965130835, 19.299643029943535 ], [ -99.147440351300276, 19.301284718364354 ], [ -99.156619837784532, 19.296781996399581 ], [ -99.1637121985558, 19.301476543705963 ], [ -99.179257667631177, 19.303428614619968 ], [ -99.197160637006306, 19.302535781449492 ], [ -99.205383259310636, 19.306415078232334 ], [ -99.194825315447943, 19.322431060049126 ], [ -99.194774562719132, 19.330137564079546 ], [ -99.200026564842176, 19.33323955282841 ] ] ] } },
{ "type": "Feature", "properties": { "cve_edo": "09", "cve_mpo_ine": "004", "cve_edo_mpo_ine": "09004", "nom_mpo": "CUAJIMALPA DE MORELOS", "nom_edo": "Ciudad de México", "alianza_ganadora": "Va por México", "margen_pp": 29.006639874191858, "por_participacion": 64.006710471130987 }, "geometry": { "type": "Polygon", "coordinates": [ [ [ -99.294001416704845, 19.369929335089292 ], [ -99.291107767543721, 19.374249730385358 ], [ -99.293249747559358, 19.380894466701658 ], [ -99.291301924078937, 19.383457987002366 ], [ -99.28682844997563, 19.38301313928071 ], [ -99.290064991009544, 19.376103958854344 ], [ -99.285926005093046, 19.377383724723796 ], [ -99.273961401520339, 19.386648692504632 ], [ -99.272839932647045, 19.390268344733059 ], [ -99.26989887927931, 19.390151398895991 ], [ -99.266503577510449, 19.39615634494454 ], [ -99.26749331681539, 19.399291480781891 ], [ -99.259738891067002, 19.400608843161464 ], [ -99.258159946436919, 19.397421301408432 ], [ -99.255281437792945, 19.399749237939819 ], [ -99.258909007174822, 19.392519659752747 ], [ -99.254689845540668, 19.395052437367756 ], [ -99.246257142322648, 19.393871078429132 ], [ -99.247287035527791, 19.386262510591699 ], [ -99.260933549872647, 19.376092936102591 ], [ -99.270243355871415, 19.372685234598492 ], [ -99.271266712001335, 19.367505595944134 ], [ -99.261109236912219, 19.360992818036635 ], [ -99.258096990900583, 19.349875771544564 ], [ -99.260047469307281, 19.347551164142654 ], [ -99.255650469045506, 19.348030548729721 ], [ -99.279570977280443, 19.333620436418126 ], [ -99.322194444444506, 19.267561944473083 ], [ -99.32024414364615, 19.265659842016973 ], [ -99.326831366532758, 19.256344565861827 ], [ -99.324249709991491, 19.255270728726192 ], [ -99.328768657240431, 19.206023880004857 ], [ -99.361987012866038, 19.212051445266766 ], [ -99.368689780833378, 19.23094620590091 ], [ -99.367808866501605, 19.241140646164659 ], [ -99.361716566277508, 19.244586128553792 ], [ -99.342976342890992, 19.243596981892118 ], [ -99.345559136235607, 19.258344278428694 ], [ -99.35455381748946, 19.267002114915158 ], [ -99.363722444174684, 19.267887840950578 ], [ -99.36937335754503, 19.270882783256329 ], [ -99.374234706759623, 19.278417712202938 ], [ -99.363739669336354, 19.292290686084005 ], [ -99.353488201913635, 19.292393866936827 ], [ -99.358245030680806, 19.297681103027539 ], [ -99.359497919381795, 19.303482315016037 ], [ -99.338743489410149, 19.317798382222236 ], [ -99.334395073199332, 19.323761421836849 ], [ -99.328575195382697, 19.344386837595636 ], [ -99.32928025670536, 19.352862663176527 ], [ -99.322958328524308, 19.35863200793094 ], [ -99.317043061234912, 19.357784821611119 ], [ -99.311801137496914, 19.35965197207501 ], [ -99.303598771146923, 19.376113750566631 ], [ -99.299027980915497, 19.367510078409889 ], [ -99.294001416704845, 19.369929335089292 ] ] ] } },
{ "type": "Feature", "properties": { "cve_edo": "09", "cve_mpo_ine": "015", "cve_edo_mpo_ine": "09015", "nom_mpo": "CUAUHTEMOC", "nom_edo": "Ciudad de México", "alianza_ganadora": "Va por México", "margen_pp": 11.588114183963052, "por_participacion": 51.66052721277007 }, "geometry": { "type": "Polygon", "coordinates": [ [ [ -99.177456041874393, 19.423684153577579 ], [ -99.165584515694164, 19.443424611219047 ], [ -99.163073418843695, 19.458760753913623 ], [ -99.159144844888644, 19.463624623661936 ], [ -99.13355696659103, 19.465093786376173 ], [ -99.122141290799675, 19.459950632551472 ], [ -99.125861663020657, 19.448281721862529 ], [ -99.123022078755938, 19.442634809464018 ], [ -99.128168473651797, 19.413717470819662 ], [ -99.125681041270667, 19.404353271177406 ], [ -99.156678855169901, 19.404027298615389 ], [ -99.170348554858705, 19.399824701847674 ], [ -99.171176613728349, 19.403512346143845 ], [ -99.184276666032432, 19.40791888787864 ], [ -99.177860737083591, 19.418945882056061 ], [ -99.177456041874393, 19.423684153577579 ] ] ] } },
{ "type": "Feature", "properties": { "cve_edo": "09", "cve_mpo_ine": "005", "cve_edo_mpo_ine": "09005", "nom_mpo": "GUSTAVO A. MADERO", "nom_edo": "Ciudad de México", "alianza_ganadora": "Juntos Haremos Historia", "margen_pp": 5.6337708986045882, "por_participacion": 50.275149395297966 }, "geometry": { "type": "Polygon", "coordinates": [ [ [ -99.097411350722098, 19.512621864778584 ], [ -99.063913430733166, 19.498362661024736 ], [ -99.068097634176539, 19.489111351514055 ], [ -99.050926765663377, 19.450121460606304 ], [ -99.052581363941698, 19.448421305171163 ], [ -99.062243535426518, 19.444851777572193 ], [ -99.080690075943522, 19.450092878138257 ], [ -99.087019088819687, 19.445728445001599 ], [ -99.093469948124422, 19.451824846243571 ], [ -99.101376314862492, 19.450058647711213 ], [ -99.133103340158883, 19.46496118891886 ], [ -99.143060518585131, 19.465136744668126 ], [ -99.162760035999241, 19.517742678766087 ], [ -99.174949581850342, 19.523753675441124 ], [ -99.171166635788623, 19.527360285032838 ], [ -99.176126941263206, 19.531816581658966 ], [ -99.159510657135144, 19.526901507944441 ], [ -99.156706698849035, 19.528048992694565 ], [ -99.15859712036081, 19.528896563432777 ], [ -99.15573496302099, 19.532288119940077 ], [ -99.159146002394507, 19.534023809841571 ], [ -99.151074802157467, 19.544767427605933 ], [ -99.16145493629277, 19.54944664424222 ], [ -99.157270503422239, 19.554723966986074 ], [ -99.158184037593983, 19.558314067042577 ], [ -99.147957229347725, 19.564177132943907 ], [ -99.145992550188453, 19.571467300060238 ], [ -99.140215852668348, 19.577025630558868 ], [ -99.138879796334464, 19.582755403885461 ], [ -99.125510019158696, 19.593731659802302 ], [ -99.119574528950125, 19.591885711455106 ], [ -99.120507080788272, 19.585965143106492 ], [ -99.116312901487703, 19.580319275769511 ], [ -99.111485549691366, 19.563400271949543 ], [ -99.130857450464134, 19.536102423981994 ], [ -99.129232794334484, 19.52688215298263 ], [ -99.126116885342384, 19.521043569459465 ], [ -99.114344656415724, 19.510888023718831 ], [ -99.105469043702527, 19.510319996172797 ], [ -99.097411350722098, 19.512621864778584 ] ] ] } },
{ "type": "Feature", "properties": { "cve_edo": "09", "cve_mpo_ine": "006", "cve_edo_mpo_ine": "09006", "nom_mpo": "IZTACALCO", "nom_edo": "Ciudad de México", "alianza_ganadora": "Juntos Haremos Historia", "margen_pp": 3.9991676182142211, "por_participacion": 52.134895223364929 }, "geometry": { "type": "Polygon", "coordinates": [ [ [ -99.056044446880605, 19.422146156912056 ], [ -99.060917327743809, 19.382679931063826 ], [ -99.084014906803773, 19.392648202362821 ], [ -99.084599885771496, 19.389432482985374 ], [ -99.088581222080236, 19.390732030198826 ], [ -99.095622742136257, 19.379536259632133 ], [ -99.12235557705965, 19.382476249319893 ], [ -99.122387038228865, 19.375651849028216 ], [ -99.135585100361411, 19.377276643314634 ], [ -99.130972342065562, 19.398803976628919 ], [ -99.137148908060269, 19.39905245353566 ], [ -99.136500978877805, 19.403424360707053 ], [ -99.097511944431872, 19.409185965029732 ], [ -99.078205773444822, 19.407077657701141 ], [ -99.069594115811682, 19.42018501173661 ], [ -99.056044446880605, 19.422146156912056 ] ] ] } },
{ "type": "Feature", "properties": { "cve_edo": "09", "cve_mpo_ine": "007", "cve_edo_mpo_ine": "09007", "nom_mpo": "IZTAPALAPA", "nom_edo": "Ciudad de México", "alianza_ganadora": "Juntos Haremos Historia", "margen_pp": 22.452830743274028, "por_participacion": 45.392182043182558 }, "geometry": { "type": "Polygon", "coordinates": [ [ [ -99.058176632889499, 19.400881146838806 ], [ -99.019046189538926, 19.382971068799716 ], [ -98.991696721414286, 19.367551017894439 ], [ -98.994589787076535, 19.358279582475095 ], [ -98.959994510798339, 19.324930266168977 ], [ -98.999763830179631, 19.325349401366513 ], [ -99.040477899894555, 19.315418248813859 ], [ -99.043629398798799, 19.312214374780755 ], [ -99.053568266069462, 19.312167259564898 ], [ -99.05982006535676, 19.304509661230259 ], [ -99.063391564859813, 19.305713437367167 ], [ -99.064791027648212, 19.301628660467404 ], [ -99.061614782144858, 19.292590140766745 ], [ -99.069094011018208, 19.284839888918086 ], [ -99.112314547658272, 19.334537527493087 ], [ -99.121970183001991, 19.357619717854408 ], [ -99.131002350716003, 19.358624846616589 ], [ -99.133695374144125, 19.356290498195609 ], [ -99.140213390510141, 19.356643505227652 ], [ -99.135585100361411, 19.377276643314634 ], [ -99.122387038228865, 19.375651849028216 ], [ -99.12235557705965, 19.382476249319893 ], [ -99.095622742136257, 19.379536259632133 ], [ -99.088581222080236, 19.390732030198826 ], [ -99.084599885771496, 19.389432482985374 ], [ -99.084014906803773, 19.392648202362821 ], [ -99.060917327743809, 19.382679931063826 ], [ -99.058176632889499, 19.400881146838806 ] ] ] } },
{ "type": "Feature", "properties": { "cve_edo": "09", "cve_mpo_ine": "008", "cve_edo_mpo_ine": "09008", "nom_mpo": "LA MAGDALENA CONTRERAS", "nom_edo": "Ciudad de México", "alianza_ganadora": "Va por México", "margen_pp": 9.4547691226220287, "por_participacion": 55.69830269571856 }, "geometry": { "type": "Polygon", "coordinates": [ [ [ -99.266558891400805, 19.311617342107745 ], [ -99.254826075325113, 19.326800550258401 ], [ -99.244323406607307, 19.328597398052285 ], [ -99.24032094931178, 19.324502661326406 ], [ -99.237153317778947, 19.324627846840379 ], [ -99.222006326420527, 19.333799293662047 ], [ -99.213770539066829, 19.33659023846252 ], [ -99.206555305931019, 19.336279452275473 ], [ -99.212656213241502, 19.326867042547985 ], [ -99.221412767698268, 19.319856011290536 ], [ -99.218856434351991, 19.310666286116568 ], [ -99.225079009755902, 19.310639680132738 ], [ -99.231280534877143, 19.305223561276986 ], [ -99.233075498980156, 19.296822480553605 ], [ -99.242881024827625, 19.291703133560013 ], [ -99.240788158203401, 19.287116040398004 ], [ -99.244955371443282, 19.279962454409823 ], [ -99.243688508964894, 19.26990251423819 ], [ -99.246399261759876, 19.264465084346124 ], [ -99.245218805234401, 19.258879874750285 ], [ -99.242432992131796, 19.257722786290639 ], [ -99.242536804243983, 19.251308507563081 ], [ -99.248404453414764, 19.243570821050369 ], [ -99.249674372145535, 19.236529541641829 ], [ -99.253693806978134, 19.230419487961676 ], [ -99.263759559193844, 19.225264685812203 ], [ -99.272330742684332, 19.217793894392994 ], [ -99.272682332086987, 19.214093539833982 ], [ -99.276981449693452, 19.210505171989691 ], [ -99.29785066577044, 19.21279825019678 ], [ -99.302713486817154, 19.209414435759001 ], [ -99.302454472977161, 19.204972387793248 ], [ -99.328768657240431, 19.206023880004857 ], [ -99.324249709991491, 19.255270728726192 ], [ -99.326831366532758, 19.256344565861827 ], [ -99.32024414364615, 19.265659842016973 ], [ -99.322194444444506, 19.267561944473083 ], [ -99.311817225314641, 19.283613489253433 ], [ -99.302710051770859, 19.283026025848706 ], [ -99.2945452187098, 19.291342820585896 ], [ -99.284968125215855, 19.295007667372932 ], [ -99.278214589417644, 19.304084542149184 ], [ -99.278131851181087, 19.317435438245585 ], [ -99.274606296889601, 19.316348196609656 ], [ -99.271310747715233, 19.31136951359009 ], [ -99.266558891400805, 19.311617342107745 ] ] ] } },
{ "type": "Feature", "properties": { "cve_edo": "09", "cve_mpo_ine": "016", "cve_edo_mpo_ine": "09016", "nom_mpo": "MIGUEL HIDALGO", "nom_edo": "Ciudad de México", "alianza_ganadora": "Va por México", "margen_pp": 21.548174442190671, "por_participacion": 60.911761344506665 }, "geometry": { "type": "Polygon", "coordinates": [ [ [ -99.177456041874393, 19.423684153577579 ], [ -99.177860737083591, 19.418945882056061 ], [ -99.184276666032432, 19.40791888787864 ], [ -99.171176613728349, 19.403512346143845 ], [ -99.170348554858705, 19.399824701847674 ], [ -99.189076980678536, 19.395630043623026 ], [ -99.192206477980747, 19.403739452578105 ], [ -99.19788748664314, 19.403033245932033 ], [ -99.238076123669629, 19.393457006198766 ], [ -99.239849917292275, 19.388887153245062 ], [ -99.247287035527791, 19.386262510591699 ], [ -99.246257142322648, 19.393871078429132 ], [ -99.254586951090545, 19.395063320674886 ], [ -99.259194472290602, 19.392989194810948 ], [ -99.25574472023257, 19.397129974836613 ], [ -99.255242423345535, 19.401669515063681 ], [ -99.242424391115833, 19.411279796123161 ], [ -99.237060040136882, 19.412458053799035 ], [ -99.221839608993363, 19.430677191146838 ], [ -99.222788212890919, 19.433825253306242 ], [ -99.229674202837003, 19.437334147507254 ], [ -99.232212077088917, 19.436331527085773 ], [ -99.233836966700778, 19.439512143005743 ], [ -99.240115849969996, 19.441971782856935 ], [ -99.229283161427006, 19.444364198525403 ], [ -99.222074710347627, 19.44940107304166 ], [ -99.215404388676845, 19.456060908396132 ], [ -99.212128126699184, 19.467082874131684 ], [ -99.20507447727276, 19.472221968132768 ], [ -99.200836155969697, 19.473271869106124 ], [ -99.190494689112313, 19.470358091625801 ], [ -99.188537665303485, 19.460765580339121 ], [ -99.163605187623048, 19.456381139193351 ], [ -99.165584515694164, 19.443424611219047 ], [ -99.177456041874393, 19.423684153577579 ] ] ] } },
{ "type": "Feature", "properties": { "cve_edo": "09", "cve_mpo_ine": "009", "cve_edo_mpo_ine": "09009", "nom_mpo": "MILPA ALTA", "nom_edo": "Ciudad de México", "alianza_ganadora": "Juntos Haremos Historia", "margen_pp": 19.999309177575903, "por_participacion": 51.902580697209544 }, "geometry": { "type": "Polygon", "coordinates": [ [ [ -98.988398553253518, 19.226026755795875 ], [ -98.977601560513989, 19.215915535124118 ], [ -98.981545382579654, 19.208556424417825 ], [ -98.977455975618867, 19.206945829130397 ], [ -98.977151501198691, 19.204250387479956 ], [ -98.973495652800693, 19.20400239883784 ], [ -98.966914532015679, 19.196777987783921 ], [ -98.966605229176935, 19.183352178246786 ], [ -98.953169899110506, 19.172951782066299 ], [ -98.961024953948922, 19.16040926636278 ], [ -98.956861495388651, 19.148660361261701 ], [ -98.953217006874667, 19.14755528842311 ], [ -98.951541047436351, 19.134108481586839 ], [ -98.964364881086553, 19.08116554206989 ], [ -98.984006549301199, 19.079797989589167 ], [ -99.028983024117395, 19.08595187249901 ], [ -99.0441873148322, 19.07572661607113 ], [ -99.060965149974137, 19.049519499138903 ], [ -99.125673210451112, 19.087848536942268 ], [ -99.150390193256882, 19.111656982341028 ], [ -99.14121648736139, 19.150826267182687 ], [ -99.130496153964842, 19.143204639916533 ], [ -99.100596832676601, 19.17205439083752 ], [ -99.107811637469069, 19.181934270149348 ], [ -99.107530411815631, 19.193291867548222 ], [ -99.10464691438743, 19.193498930216673 ], [ -99.10485740514315, 19.198879774364386 ], [ -99.10210573482523, 19.200993768616343 ], [ -99.099018391340621, 19.202034740126518 ], [ -99.087941914975659, 19.198959117299925 ], [ -99.086564925802392, 19.202631823583445 ], [ -99.080230417290267, 19.196330148558932 ], [ -99.074248089521774, 19.20231981269076 ], [ -99.0783045754049, 19.206716177568392 ], [ -99.062886293111475, 19.212844765316838 ], [ -99.058358199764356, 19.210563810483826 ], [ -99.051230459774757, 19.214420481954313 ], [ -99.055534208695363, 19.2220154836163 ], [ -99.05360959236971, 19.2227430740753 ], [ -99.046066724810231, 19.221297846819173 ], [ -99.047371424844656, 19.218349973296665 ], [ -99.04555099893534, 19.217286364072905 ], [ -99.031743761240477, 19.22470096899114 ], [ -98.988398553253518, 19.226026755795875 ] ] ] } },
{ "type": "Feature", "properties": { "cve_edo": "09", "cve_mpo_ine": "011", "cve_edo_mpo_ine": "09011", "nom_mpo": "TLAHUAC", "nom_edo": "Ciudad de México", "alianza_ganadora": "Juntos Haremos Historia", "margen_pp": 18.814762813622039, "por_participacion": 44.652151482103093 }, "geometry": { "type": "Polygon", "coordinates": [ [ [ -98.976361111111103, 19.253083333361811 ], [ -98.966027777777782, 19.250000000028528 ], [ -98.968605554339547, 19.2321721054909 ], [ -98.945648116824728, 19.225125992176334 ], [ -98.948636807674163, 19.214921960089718 ], [ -98.957045796848718, 19.216070910146065 ], [ -98.964587449881677, 19.213065496604447 ], [ -98.968712027991614, 19.202645748087473 ], [ -98.96691453201565, 19.196777987910462 ], [ -98.973495652800764, 19.204002398422229 ], [ -98.977151501198747, 19.204250387064327 ], [ -98.977455975618909, 19.206945828715124 ], [ -98.981545382579696, 19.208556424002751 ], [ -98.97760156051406, 19.215915534709964 ], [ -98.988398553253546, 19.226026755383128 ], [ -99.031743663068809, 19.224700975768652 ], [ -99.020422415041736, 19.239335096650425 ], [ -99.018287020037931, 19.237852512344489 ], [ -99.007043445900223, 19.251574185755846 ], [ -99.016649362572423, 19.259952175986555 ], [ -99.029602676387256, 19.262510606869967 ], [ -99.037160961380408, 19.271654717827261 ], [ -99.069094011018038, 19.284839888513027 ], [ -99.061614782144716, 19.292590140362627 ], [ -99.06479102764807, 19.301628660064505 ], [ -99.063391564859657, 19.305713436964943 ], [ -99.059820065356604, 19.304509660827836 ], [ -99.053568266069334, 19.312167259163463 ], [ -99.043629398798686, 19.312214374379305 ], [ -99.040477899894469, 19.315418248412879 ], [ -98.999763830179631, 19.325349400966793 ], [ -98.959994510798467, 19.324930265769297 ], [ -98.957901396685784, 19.323154874056538 ], [ -98.962964332831561, 19.316617244500041 ], [ -98.96462048050013, 19.307123953147961 ], [ -98.967225978420927, 19.305961262681009 ], [ -98.976361111111103, 19.253083333361811 ] ] ] } },
{ "type": "Feature", "properties": { "cve_edo": "09", "cve_mpo_ine": "012", "cve_edo_mpo_ine": "09012", "nom_mpo": "TLALPAN", "nom_edo": "Ciudad de México", "alianza_ganadora": "Va por México", "margen_pp": 3.3404303419048551, "por_participacion": 52.963420322281451 }, "geometry": { "type": "Polygon", "coordinates": [ [ [ -99.125673210450771, 19.087848536511569 ], [ -99.215702997148014, 19.0905020970322 ], [ -99.22531674561823, 19.094760500449727 ], [ -99.281949153142733, 19.133710582141255 ], [ -99.30321798836269, 19.190739967324436 ], [ -99.302713486816401, 19.209414435344097 ], [ -99.297850665769701, 19.212798249782331 ], [ -99.276981449692755, 19.210505171574884 ], [ -99.272682332086291, 19.214093539419718 ], [ -99.272330742683636, 19.217793893979181 ], [ -99.251224937909996, 19.233181935846797 ], [ -99.248404453414153, 19.243570820639977 ], [ -99.242536804243414, 19.251308507153666 ], [ -99.242432992131199, 19.257722785882077 ], [ -99.245218805233776, 19.258879874341787 ], [ -99.246399261759265, 19.264465083938319 ], [ -99.243688508964325, 19.269902513831212 ], [ -99.244955371442686, 19.279962454004146 ], [ -99.24078815820279, 19.287116039993322 ], [ -99.242881024827028, 19.291703133155835 ], [ -99.233075498979588, 19.296822480150137 ], [ -99.231280534876561, 19.305223560874655 ], [ -99.225079009755362, 19.3106396797311 ], [ -99.218856434351466, 19.310666285714969 ], [ -99.215063438742192, 19.307468798369229 ], [ -99.195949917175071, 19.30218255506518 ], [ -99.179257667630324, 19.303428613814727 ], [ -99.161526655039765, 19.301122104052183 ], [ -99.156619837783779, 19.2967819955926 ], [ -99.147440351299565, 19.301284717558612 ], [ -99.142551965130153, 19.299643029137297 ], [ -99.134810939650862, 19.308251445601368 ], [ -99.117535503375279, 19.301469185134764 ], [ -99.100897024595483, 19.300015492948297 ], [ -99.101315230552203, 19.294957911312313 ], [ -99.124449966175916, 19.28536551937562 ], [ -99.141025851651264, 19.282502578281139 ], [ -99.143448334559267, 19.266095121433072 ], [ -99.139395848021394, 19.254677806145029 ], [ -99.141770475283039, 19.248950822984501 ], [ -99.138888888888232, 19.245555554763559 ], [ -99.140382526274323, 19.243621052006279 ], [ -99.144179910602119, 19.244700036776777 ], [ -99.14390407827976, 19.239734220412792 ], [ -99.147507243471679, 19.2402535584277 ], [ -99.144574350435619, 19.234580815813711 ], [ -99.147001860456939, 19.233890906837765 ], [ -99.14543007933753, 19.230865599458397 ], [ -99.149837709819394, 19.231741782459785 ], [ -99.155125953162269, 19.219368238017829 ], [ -99.137858888678394, 19.21408085328434 ], [ -99.13662248748814, 19.20944400592397 ], [ -99.132932658934251, 19.210045916209896 ], [ -99.129302369579833, 19.202937805578166 ], [ -99.129947004396641, 19.196703428600841 ], [ -99.125191936778393, 19.195561303355852 ], [ -99.122823528710896, 19.192001720876508 ], [ -99.12453891687727, 19.184686127046845 ], [ -99.120457054634628, 19.180673099156035 ], [ -99.125256043009173, 19.170007460176343 ], [ -99.125319061866406, 19.156990869224671 ], [ -99.129394003027684, 19.154634826247626 ], [ -99.130496153964515, 19.143204639492929 ], [ -99.141216487361021, 19.150826266760088 ], [ -99.150390193256499, 19.11165698191342 ], [ -99.125673210450771, 19.087848536511569 ] ] ] } },
{ "type": "Feature", "properties": { "cve_edo": "09", "cve_mpo_ine": "017", "cve_edo_mpo_ine": "09017", "nom_mpo": "VENUSTIANO CARRANZA", "nom_edo": "Ciudad de México", "alianza_ganadora": "Juntos Haremos Historia", "margen_pp": 7.7481687009412941, "por_participacion": 54.727181447893301 }, "geometry": { "type": "Polygon", "coordinates": [ [ [ -99.122141290799675, 19.459950632551472 ], [ -99.101376314862492, 19.450058647711213 ], [ -99.093176246202503, 19.451715879219005 ], [ -99.087019088819687, 19.445728445001599 ], [ -99.080463795139678, 19.450094115459244 ], [ -99.062243535426518, 19.444851777572193 ], [ -99.050759616340031, 19.450477717871589 ], [ -99.046762991836871, 19.441021924798694 ], [ -99.056263337270281, 19.421797894905357 ], [ -99.069594115811682, 19.42018501173661 ], [ -99.078205773444822, 19.407077657701141 ], [ -99.097511944431872, 19.409185965029732 ], [ -99.125681041270667, 19.404353271177406 ], [ -99.128168473651797, 19.413717470819662 ], [ -99.123022078755938, 19.442634809464018 ], [ -99.125861663020657, 19.448281721862529 ], [ -99.122141290799675, 19.459950632551472 ] ] ] } },
{ "type": "Feature", "properties": { "cve_edo": "09", "cve_mpo_ine": "013", "cve_edo_mpo_ine": "09013", "nom_mpo": "XOCHIMILCO", "nom_edo": "Ciudad de México", "alianza_ganadora": "Juntos Haremos Historia", "margen_pp": 11.013750170175374, "por_participacion": 45.957744516143713 }, "geometry": { "type": "Polygon", "coordinates": [ [ [ -99.031743663068809, 19.224700975768652 ], [ -99.045550998935113, 19.217286363245105 ], [ -99.047371424844414, 19.21834997246911 ], [ -99.046066724810004, 19.221297845992375 ], [ -99.055534208695079, 19.222015482789715 ], [ -99.051230459774516, 19.214420481125739 ], [ -99.058358199764086, 19.210563809654275 ], [ -99.062886293111177, 19.212844764487787 ], [ -99.07830457540453, 19.206716176737864 ], [ -99.074248089521404, 19.202319811859017 ], [ -99.080230417289869, 19.196330147725607 ], [ -99.086564925801966, 19.202631822751798 ], [ -99.087880773899997, 19.198966205163607 ], [ -99.09921125428562, 19.202061374311235 ], [ -99.104737884206372, 19.199059870127986 ], [ -99.104646914386919, 19.193498929382606 ], [ -99.107530411815375, 19.193291867131137 ], [ -99.107811637468799, 19.181934269730828 ], [ -99.100596832676345, 19.172054390417607 ], [ -99.130496153964515, 19.143204639492929 ], [ -99.129394003027684, 19.154634826247626 ], [ -99.125319061866406, 19.156990869224671 ], [ -99.124011798856984, 19.161838338833689 ], [ -99.125038359803568, 19.171046115474088 ], [ -99.120457054634628, 19.180673099156035 ], [ -99.12453891687727, 19.184686127046845 ], [ -99.122944085765852, 19.192458515999515 ], [ -99.125191936778393, 19.195561303355852 ], [ -99.129947004396641, 19.196703428600841 ], [ -99.129302369579833, 19.202937805578166 ], [ -99.132932658934251, 19.210045916209896 ], [ -99.13662248748814, 19.20944400592397 ], [ -99.137858888678394, 19.21408085328434 ], [ -99.155125953162269, 19.219368238017829 ], [ -99.149837709819394, 19.231741782459785 ], [ -99.14543007933753, 19.230865599458397 ], [ -99.147001860456939, 19.233890906837765 ], [ -99.144574350435619, 19.234580815813711 ], [ -99.147507243471679, 19.2402535584277 ], [ -99.14390407827976, 19.239734220412792 ], [ -99.144179910602119, 19.244700036776777 ], [ -99.140382526274323, 19.243621052006279 ], [ -99.138888888888232, 19.245555554763559 ], [ -99.141770475283039, 19.248950822984501 ], [ -99.139395848021394, 19.254677806145029 ], [ -99.143448334559267, 19.266095121433072 ], [ -99.141025851651264, 19.282502578281139 ], [ -99.124449966175916, 19.28536551937562 ], [ -99.101315230552203, 19.294957911312313 ], [ -99.099032522044126, 19.320469399625622 ], [ -99.087717061109259, 19.304742186949621 ], [ -99.06890192828844, 19.284688016503964 ], [ -99.037160961380408, 19.271654717827261 ], [ -99.029602676387256, 19.262510606869967 ], [ -99.016649362572423, 19.259952175986555 ], [ -99.007043445900223, 19.251574185755846 ], [ -99.018287020037931, 19.237852512344489 ], [ -99.020422415041736, 19.239335096650425 ], [ -99.031743663068809, 19.224700975768652 ] ] ] } }
]
}
