{
"type": "FeatureCollection",
"name": "01",
"crs": { "type": "name", "properties": { "name": "urn:ogc:def:crs:OGC:1.3:CRS84" } },
"features": [
{ "type": "Feature", "properties": { "cve_edo": "01", "cve_mpo_ine": "001", "cve_edo_mpo_ine": "01001", "nom_mpo": "AGUASCALIENTES", "nom_edo": "Aguascalientes", "alianza_ganadora": "Va por México", "margen_pp": 32.219335574365324, "por_participacion": 47.19577634183036 }, "geometry": { "type": "Polygon", "coordinates": [ [ [ -102.272776613131995, 21.95695891062336 ], [ -102.274346690972479, 21.953728317026993 ], [ -102.266422933326083, 21.951857489294703 ], [ -102.267079892941652, 21.944255586213405 ], [ -102.264891692176974, 21.943529196367567 ], [ -102.260517066437728, 21.947448862150708 ], [ -102.24944228155411, 21.952017232178907 ], [ -102.248491681469559, 21.950087841819673 ], [ -102.234659610837809, 21.956987355607279 ], [ -102.230067926427381, 21.961402443214038 ], [ -102.227630854329973, 21.974924989309773 ], [ -102.218084818615225, 21.973556961687521 ], [ -102.218699751219916, 21.996603972199576 ], [ -102.229035764727001, 21.999325605091784 ], [ -102.227338079393519, 22.010003046209903 ], [ -102.223469595521166, 22.010699780728491 ], [ -102.223021322438896, 22.03149596244819 ], [ -102.209378160101366, 22.02884218535484 ], [ -102.207959994272002, 22.03800021935708 ], [ -102.178938190889397, 22.032851253864521 ], [ -102.177378720513175, 22.039564311618353 ], [ -102.166986038956281, 22.037897512658272 ], [ -102.17114182906063, 22.02572905409 ], [ -102.157831136179396, 22.026433746704232 ], [ -102.157587137122832, 22.017614329670632 ], [ -102.151821333118775, 22.023260281543461 ], [ -102.134727150564473, 22.029084404792826 ], [ -102.14436684184183, 22.034603434681642 ], [ -102.138578999666393, 22.060256690406007 ], [ -102.140952744112624, 22.075329110833337 ], [ -102.107345457848723, 22.074743569817773 ], [ -102.106734578417033, 22.060498301213141 ], [ -102.103703658451536, 22.057212204869995 ], [ -102.111655623625595, 22.053477417455479 ], [ -102.111012759797816, 22.045725894648072 ], [ -102.116817420886406, 22.043069511182015 ], [ -102.109683909903666, 22.027104911967744 ], [ -102.096928613223852, 22.022987520179722 ], [ -102.097851720326204, 21.992160050634403 ], [ -102.092510476789528, 21.96120798054875 ], [ -102.097360520348076, 21.960973958662727 ], [ -102.100869952333767, 21.964824885126671 ], [ -102.100656714612143, 21.972193182571885 ], [ -102.131936234221541, 21.976884670465381 ], [ -102.138555479582308, 21.940325399841992 ], [ -102.12993689859033, 21.9397634287226 ], [ -102.129719644273237, 21.936917237868347 ], [ -102.164127350043614, 21.937213555903156 ], [ -102.166211773695522, 21.919578391627368 ], [ -102.162084902800771, 21.919653308916995 ], [ -102.162522075107546, 21.906255685885117 ], [ -102.155318106349839, 21.910578993242364 ], [ -102.157223364097945, 21.869564442639469 ], [ -102.174851830407704, 21.870457179450671 ], [ -102.176239452346692, 21.843892214956615 ], [ -102.167594019065604, 21.843001004970915 ], [ -102.170266586765081, 21.836444762538346 ], [ -102.169743332368796, 21.823462486006502 ], [ -102.158997177542275, 21.820736852052161 ], [ -102.160318619000847, 21.811334224548133 ], [ -102.150574431507337, 21.809695649626175 ], [ -102.153456425107649, 21.788896518247011 ], [ -102.145976492284277, 21.787917941454918 ], [ -102.143837855229052, 21.794514530864877 ], [ -102.140406148048768, 21.797103910560974 ], [ -102.140852915938012, 21.794522307498209 ], [ -102.13262041005828, 21.793268489610114 ], [ -102.132033028117732, 21.796628503428948 ], [ -102.117343001027194, 21.794125746753608 ], [ -102.115053978571993, 21.800232485400361 ], [ -102.107625194801727, 21.799356852117928 ], [ -102.104997095994818, 21.803091035204844 ], [ -102.071797001209447, 21.794791176649337 ], [ -102.067990177863663, 21.800475582888708 ], [ -102.066091931414107, 21.796130829898747 ], [ -102.072918373348529, 21.783237476977 ], [ -102.079519557755077, 21.78577476036314 ], [ -102.077004833767376, 21.78120915702738 ], [ -102.085145218005167, 21.770390546047707 ], [ -102.082735806779255, 21.763004349318106 ], [ -102.086292324542526, 21.762012249852038 ], [ -102.087993306198626, 21.757782685377322 ], [ -102.092936219679075, 21.761230363952944 ], [ -102.094766560947605, 21.75924088406466 ], [ -102.101660926696411, 21.761155235609266 ], [ -102.101089413159642, 21.753521908690185 ], [ -102.109492903299213, 21.748592518142463 ], [ -102.111599567453339, 21.74944572909931 ], [ -102.112460348918475, 21.746019670095986 ], [ -102.121814934392859, 21.741595712478993 ], [ -102.120626660008682, 21.736909645864618 ], [ -102.123240536203269, 21.729155277139668 ], [ -102.118316961966272, 21.726793392573661 ], [ -102.118699715082812, 21.723983499091485 ], [ -102.125395374245485, 21.725865013509043 ], [ -102.12942186529132, 21.718164715471154 ], [ -102.136325702365269, 21.716985988446439 ], [ -102.140414901417699, 21.708830782617749 ], [ -102.140161629784629, 21.704815205257201 ], [ -102.142712255084447, 21.703059045172605 ], [ -102.148400971401074, 21.699675967183108 ], [ -102.154245810017159, 21.700247995972894 ], [ -102.160829702892499, 21.693704586957733 ], [ -102.17702630097105, 21.68776523362046 ], [ -102.189633259984504, 21.687378742869328 ], [ -102.194236296853546, 21.691460830209813 ], [ -102.215170089443731, 21.694801658812551 ], [ -102.213862825624688, 21.68694173088485 ], [ -102.221157545430515, 21.68110292774259 ], [ -102.21803179741012, 21.678028409356621 ], [ -102.225036155382028, 21.661210278607047 ], [ -102.23378028270983, 21.655547118937651 ], [ -102.281580136489453, 21.654304630779045 ], [ -102.282432333551114, 21.651290916050986 ], [ -102.296998701229029, 21.64238773234996 ], [ -102.298988384714335, 21.643727783277001 ], [ -102.305512714061749, 21.638483318274396 ], [ -102.312326783247073, 21.640233943574035 ], [ -102.317489556916541, 21.629185039788087 ], [ -102.324210229119828, 21.62158260885403 ], [ -102.366892068302633, 21.641902145379522 ], [ -102.369325360616699, 21.649391853346852 ], [ -102.384133786082202, 21.650850466758126 ], [ -102.383629484071051, 21.652251091300144 ], [ -102.410265485102656, 21.659707370626467 ], [ -102.446258466178961, 21.660349953194451 ], [ -102.448208846292829, 21.66633282545315 ], [ -102.445090831826917, 21.667093769645323 ], [ -102.443861878337628, 21.671676464250744 ], [ -102.453354062272368, 21.670850296775576 ], [ -102.461198588288937, 21.677236830461688 ], [ -102.453897313398116, 21.686507190098542 ], [ -102.448066526120513, 21.688606529132379 ], [ -102.447073363068284, 21.696057753093001 ], [ -102.462344455563013, 21.69867058793907 ], [ -102.475206764947259, 21.694180307705391 ], [ -102.475121725719987, 21.699785486266983 ], [ -102.521501427340439, 21.718250532067461 ], [ -102.520369452992497, 21.723681651074681 ], [ -102.511818091603274, 21.726029420994315 ], [ -102.51933468715913, 21.729982383044636 ], [ -102.520598855303064, 21.741328894211431 ], [ -102.536925256599716, 21.745435195044141 ], [ -102.552227057157779, 21.743740344079928 ], [ -102.557159513075888, 21.742976717202279 ], [ -102.561785019326081, 21.736245756246007 ], [ -102.568019907903604, 21.737072212233379 ], [ -102.56683432463025, 21.742337418629475 ], [ -102.570135057670726, 21.745006095979946 ], [ -102.57540447265832, 21.741722565462357 ], [ -102.59616119851988, 21.744060340407771 ], [ -102.598485844409709, 21.749521667969937 ], [ -102.596518405816866, 21.751016980528451 ], [ -102.599094011372515, 21.750980565137159 ], [ -102.601599625368294, 21.761764570794458 ], [ -102.59997909418189, 21.789060510153067 ], [ -102.594221356765487, 21.790689524519795 ], [ -102.589032389779788, 21.795477108310873 ], [ -102.571046625434974, 21.799202179779545 ], [ -102.570087917636926, 21.802347915708467 ], [ -102.558926634062331, 21.804009487124976 ], [ -102.55175219857648, 21.803787918975477 ], [ -102.552476821264236, 21.801683009767416 ], [ -102.545775694991974, 21.802284500695347 ], [ -102.541499205592601, 21.807788855382345 ], [ -102.530577431396921, 21.812640512941478 ], [ -102.51969427396844, 21.809127246063088 ], [ -102.515565075567537, 21.816447175612215 ], [ -102.508217665486001, 21.813465397604226 ], [ -102.504508304946441, 21.815800385857131 ], [ -102.500721588274985, 21.813485590190787 ], [ -102.49581283253579, 21.816467885067389 ], [ -102.474246992352349, 21.817092366823008 ], [ -102.476247113155324, 21.814351295024181 ], [ -102.461909307982978, 21.814640624832471 ], [ -102.461444796443914, 21.817399328061882 ], [ -102.456415402552167, 21.817882052407686 ], [ -102.450323005740245, 21.830166107067772 ], [ -102.442763891723871, 21.833771037875504 ], [ -102.433800977760754, 21.84465078057648 ], [ -102.435631827577183, 21.849918306255052 ], [ -102.432203476664284, 21.852187911100213 ], [ -102.43149396216053, 21.864812993373985 ], [ -102.423124029988898, 21.878064387048475 ], [ -102.417074357754345, 21.881673162721341 ], [ -102.418919894949767, 21.883734343606196 ], [ -102.413499397439338, 21.891089282872723 ], [ -102.40278476479088, 21.894083065797886 ], [ -102.390211056042659, 21.894229121637323 ], [ -102.390657719303803, 21.898363685479492 ], [ -102.393487608159163, 21.897916191745104 ], [ -102.395401087281826, 21.905650337297232 ], [ -102.389385047783378, 21.904910798875072 ], [ -102.387128600182564, 21.9125816423396 ], [ -102.382805075409181, 21.912454282380356 ], [ -102.378482662271125, 21.924274559450101 ], [ -102.375330451826386, 21.925323169192652 ], [ -102.361468732445019, 21.915125683626211 ], [ -102.346299365359343, 21.912428215983628 ], [ -102.33091194618909, 21.913680303206377 ], [ -102.337416552346852, 21.922437612373251 ], [ -102.343469665864845, 21.939074311333155 ], [ -102.308536059992107, 21.934379147552232 ], [ -102.308435570490261, 21.939988174640529 ], [ -102.29655629084958, 21.939183534864565 ], [ -102.296381766767368, 21.93765806822131 ], [ -102.291089524257416, 21.939020274123383 ], [ -102.290576735387404, 21.950087639522941 ], [ -102.281882599585927, 21.950496688299715 ], [ -102.280784501150023, 21.953449668605469 ], [ -102.290358672702666, 21.952880072906304 ], [ -102.290088492638745, 21.962888976772053 ], [ -102.278010908645825, 21.960977635088394 ], [ -102.279088361801556, 21.958126092038984 ], [ -102.272776613131995, 21.95695891062336 ] ] ] } },
{ "type": "Feature", "properties": { "cve_edo": "01", "cve_mpo_ine": "002", "cve_edo_mpo_ine": "01002", "nom_mpo": "ASIENTOS", "nom_edo": "Aguascalientes", "alianza_ganadora": "Juntos Haremos Historia", "margen_pp": 19.277712757064037, "por_participacion": 66.050081444465917 }, "geometry": { "type": "Polygon", "coordinates": [ [ [ -102.200905689920617, 22.159923410633002 ], [ -102.18063307464152, 22.162808854696696 ], [ -102.170969484554021, 22.168794210915763 ], [ -102.159212769149519, 22.166935882667328 ], [ -102.15458465590531, 22.170404105499276 ], [ -102.142229172277453, 22.172474066972701 ], [ -102.147347534421371, 22.153117049513 ], [ -102.100743930629562, 22.138297632366051 ], [ -102.103395875066795, 22.146587742162993 ], [ -102.094762199204595, 22.155893939595284 ], [ -102.097095325755078, 22.158458845502349 ], [ -102.099333647858359, 22.153107562913291 ], [ -102.105821249919188, 22.147366877141305 ], [ -102.106780107066967, 22.152466809533006 ], [ -102.12049023980093, 22.164446011040702 ], [ -102.101914163894762, 22.188416582412827 ], [ -102.13294591275924, 22.203335638962503 ], [ -102.130113005738608, 22.216264345529407 ], [ -102.146987506107095, 22.234120395962588 ], [ -102.12989101315388, 22.24108897021884 ], [ -102.129823898737826, 22.270845347573221 ], [ -102.127905695338342, 22.270895356823296 ], [ -102.125074853261836, 22.286705875589334 ], [ -102.100430564710678, 22.283802624797275 ], [ -102.090377414448596, 22.288408308521234 ], [ -102.072650528725845, 22.309571288969995 ], [ -102.061225012190278, 22.314851393258742 ], [ -102.047864194106879, 22.309338724930448 ], [ -102.03841745361828, 22.300061765854661 ], [ -102.032254852951255, 22.288823453935773 ], [ -102.033228344714075, 22.281037854457157 ], [ -102.030562623299247, 22.273756936500121 ], [ -102.020851535813719, 22.273444787346261 ], [ -102.025697182015961, 22.266532035733956 ], [ -102.028169181553181, 22.266205061385133 ], [ -102.022538811948408, 22.242364187264666 ], [ -102.001950033657039, 22.241870974180138 ], [ -102.000475170001494, 22.237825936387786 ], [ -102.001292642467831, 22.174768274579691 ], [ -102.004688219153039, 22.165916673238865 ], [ -102.027707968797884, 22.167539635081042 ], [ -102.033587687302557, 22.154687931698994 ], [ -102.016998412815127, 22.154763386360663 ], [ -102.025478685202174, 22.130926674986384 ], [ -102.000804183343291, 22.122890851350324 ], [ -101.986702255702639, 22.121535554897292 ], [ -101.971626604340699, 22.114792314842376 ], [ -101.880756986772809, 22.054091370045558 ], [ -101.857827368864676, 22.041275510714033 ], [ -101.854664678921694, 22.043129251945725 ], [ -101.862298447065925, 22.035189294889502 ], [ -101.859944859977332, 22.03449580001698 ], [ -101.860921681353688, 22.02551078233035 ], [ -101.858723540236525, 22.023902720921193 ], [ -101.869515474626738, 21.984801072924135 ], [ -101.889681816065675, 21.97864424699916 ], [ -101.894992262802532, 21.990199867600627 ], [ -101.909891018337277, 21.996244761159296 ], [ -101.913776913340698, 21.999994235397377 ], [ -101.909624781271802, 21.990016575057531 ], [ -101.901619087432877, 21.985665199177514 ], [ -101.90113786204634, 21.988664907703875 ], [ -101.897977444404589, 21.98563915801056 ], [ -101.899561884081379, 21.983195617141522 ], [ -101.896282091654356, 21.965165932459879 ], [ -101.89002111086198, 21.951779295521266 ], [ -101.944851303882089, 22.005561873382625 ], [ -101.944738983712142, 21.98953452693598 ], [ -101.957783993826354, 21.992191423025144 ], [ -101.96467459515118, 21.980868145504338 ], [ -101.974960624714043, 21.983262939641254 ], [ -101.971675480079966, 21.991759884196846 ], [ -101.962373600445986, 21.991939590607331 ], [ -101.960556038285389, 22.009593489253945 ], [ -101.992010463063011, 22.007904395745935 ], [ -101.989914567574829, 22.025689745012407 ], [ -102.006135445990139, 22.028810927124383 ], [ -102.010205126181134, 21.998840634808001 ], [ -102.0415203688285, 21.982748247480117 ], [ -102.041347135930167, 21.992066172971111 ], [ -102.036881537098878, 22.000577422684746 ], [ -102.070084724284172, 21.999252017221739 ], [ -102.071328023211692, 21.992582994262765 ], [ -102.075147708061849, 21.998431718013197 ], [ -102.090438440923492, 22.005837800834438 ], [ -102.097831906362202, 22.013175273044784 ], [ -102.096928613223852, 22.022987520179722 ], [ -102.109683909903666, 22.027104911967744 ], [ -102.112704022599203, 22.035451777582722 ], [ -102.115672516958782, 22.03704201248501 ], [ -102.116821643158616, 22.043196017055976 ], [ -102.111012759797816, 22.045725894648072 ], [ -102.111655623625595, 22.053477417455479 ], [ -102.103703658451536, 22.057212204869995 ], [ -102.106734578417033, 22.060498301213141 ], [ -102.107345457848723, 22.074743569817773 ], [ -102.140952744112624, 22.075329110833337 ], [ -102.154923424091876, 22.088403555628066 ], [ -102.154927097071294, 22.086946130904057 ], [ -102.16342915910694, 22.087474904778851 ], [ -102.16318942981168, 22.083317272313874 ], [ -102.180372174336341, 22.0843087516905 ], [ -102.183952249361113, 22.068763376212576 ], [ -102.19978632023205, 22.067300761195575 ], [ -102.196732569223158, 22.089757378210251 ], [ -102.192267574420498, 22.100642841811474 ], [ -102.216357045829341, 22.104644793226036 ], [ -102.218954403048912, 22.103261174183043 ], [ -102.217875583514555, 22.122713404234577 ], [ -102.238668448173584, 22.126262460126458 ], [ -102.23268199802915, 22.149439608255971 ], [ -102.229423824180444, 22.148886351214561 ], [ -102.229352843753475, 22.153595444076466 ], [ -102.231404352507269, 22.15359072303448 ], [ -102.228068143474431, 22.170331393313059 ], [ -102.200905689920617, 22.159923410633002 ] ] ] } },
{ "type": "Feature", "properties": { "cve_edo": "01", "cve_mpo_ine": "003", "cve_edo_mpo_ine": "01003", "nom_mpo": "CALVILLO", "nom_edo": "Aguascalientes", "alianza_ganadora": "Va por México", "margen_pp": 18.859472112357736, "por_participacion": 51.230203035190016 }, "geometry": { "type": "Polygon", "coordinates": [ [ [ -102.624508396960792, 21.759916551090864 ], [ -102.628268258606425, 21.764162006441047 ], [ -102.635514983618805, 21.764580497490204 ], [ -102.63557417922749, 21.766981070695952 ], [ -102.633100275075975, 21.767640409043718 ], [ -102.635111858369669, 21.769165521984664 ], [ -102.645385399588918, 21.762976583052737 ], [ -102.652495351529083, 21.766660247413743 ], [ -102.660132843141852, 21.762988786454809 ], [ -102.674548515733889, 21.76464873120052 ], [ -102.674297052661686, 21.754811012429929 ], [ -102.679786709868111, 21.752148056578672 ], [ -102.680670639290426, 21.746999927280015 ], [ -102.685975456283998, 21.74466375374195 ], [ -102.690400648021367, 21.736856184160786 ], [ -102.698366822280747, 21.736843143599732 ], [ -102.697840291335794, 21.718321166313785 ], [ -102.711389324690458, 21.706100028695396 ], [ -102.717300620137493, 21.710840234934196 ], [ -102.719180840978751, 21.716454308834521 ], [ -102.725658836383715, 21.714345570915579 ], [ -102.725841366677102, 21.7114564917126 ], [ -102.731473605115795, 21.711193228266794 ], [ -102.738969409451471, 21.7153818801245 ], [ -102.747836905885805, 21.716152879104055 ], [ -102.756268009882589, 21.726094064586832 ], [ -102.759077331244086, 21.726059094526391 ], [ -102.761015033881989, 21.730808628044596 ], [ -102.773820081540677, 21.738803981411181 ], [ -102.777536437369605, 21.734977642604569 ], [ -102.785055161293982, 21.7489648131953 ], [ -102.790104515930551, 21.750787544606617 ], [ -102.794553700724833, 21.756851454731809 ], [ -102.807997455856324, 21.764308406185009 ], [ -102.816442158994818, 21.766040645204296 ], [ -102.817592743240709, 21.768415997060465 ], [ -102.827171176783352, 21.762475106605475 ], [ -102.831066441971444, 21.765467601429279 ], [ -102.829949058396039, 21.77437266273688 ], [ -102.837032316872765, 21.774541852559224 ], [ -102.838405220252881, 21.781131496215252 ], [ -102.845599180197397, 21.783819675596174 ], [ -102.852196709078882, 21.780400702728201 ], [ -102.853635891412992, 21.781533411925746 ], [ -102.849327722782618, 21.787269310097692 ], [ -102.851543941910663, 21.794671154365087 ], [ -102.853745869670149, 21.795584207871013 ], [ -102.853750373709389, 21.80377199188009 ], [ -102.847317165093514, 21.818974742599035 ], [ -102.846842749133629, 21.821821786764684 ], [ -102.85040040321141, 21.825024993748769 ], [ -102.847871751401527, 21.828086400388749 ], [ -102.847693157288916, 21.833379450328383 ], [ -102.858578789998205, 21.833641574243568 ], [ -102.863414887386753, 21.842492585905593 ], [ -102.872787429145561, 21.847569885307777 ], [ -102.874359564368874, 21.850574635017143 ], [ -102.884061471719434, 21.847410358239294 ], [ -102.892519911013565, 21.850061513620393 ], [ -102.884804396347221, 21.850835322410251 ], [ -102.875554199210413, 21.858299758346107 ], [ -102.864618388558327, 21.863329856239879 ], [ -102.860730243027049, 21.874449690088003 ], [ -102.861579251003477, 21.87965866556895 ], [ -102.857800880873441, 21.880961851457734 ], [ -102.848429414223176, 21.906707810327489 ], [ -102.840108771725809, 21.911907291818771 ], [ -102.845667149345687, 21.914812898548384 ], [ -102.837825140952333, 21.940086724445198 ], [ -102.833367557183053, 21.940260827825373 ], [ -102.823129177826274, 21.954860604825175 ], [ -102.822434805206854, 21.96213081550971 ], [ -102.828285537809478, 21.971259033404618 ], [ -102.828259441401102, 21.976414497583121 ], [ -102.823770524568076, 21.985010773124245 ], [ -102.8179968536014, 21.988422431293497 ], [ -102.815328686301555, 21.995781851302514 ], [ -102.81198950813814, 21.99604952241781 ], [ -102.806841250436349, 21.991561755972995 ], [ -102.746213269610678, 22.078004676614636 ], [ -102.697207845441753, 22.101271645014293 ], [ -102.691915680978241, 22.106680981353033 ], [ -102.685226762629341, 22.105464213616131 ], [ -102.684194150159485, 22.102451297507539 ], [ -102.691904989262568, 22.093967897899613 ], [ -102.69132248165549, 22.085368039124376 ], [ -102.685748727957602, 22.085526165573917 ], [ -102.683096481079502, 22.091464718642374 ], [ -102.679595166224232, 22.092646645776885 ], [ -102.668000694534214, 22.086871542699523 ], [ -102.659808171632676, 22.085530865172533 ], [ -102.65995808550646, 22.090065929430327 ], [ -102.644276574383127, 22.093657840353153 ], [ -102.616808620102489, 22.077131614685374 ], [ -102.610510868575361, 22.064197192410937 ], [ -102.613569828749888, 22.063594839177327 ], [ -102.616975258332829, 22.050085027393372 ], [ -102.615320418497092, 22.049145250622967 ], [ -102.617181254042876, 22.037001338933766 ], [ -102.612282162645542, 22.03632148717233 ], [ -102.603413638374121, 22.040547202199839 ], [ -102.599515600742279, 22.038203552201523 ], [ -102.593072469920145, 22.038319445769332 ], [ -102.591139007222864, 22.031359008964749 ], [ -102.586584911215624, 22.030602036377484 ], [ -102.573836151949507, 22.034883642019505 ], [ -102.574762086530129, 22.024985660637316 ], [ -102.570191314348321, 22.024516933677162 ], [ -102.569447660533413, 22.02827667754535 ], [ -102.560692717361931, 22.029362996120724 ], [ -102.557217259678268, 22.020311221490051 ], [ -102.551605209216262, 22.019427879752698 ], [ -102.555155228847511, 22.002212748399529 ], [ -102.557494651462619, 22.000261734232957 ], [ -102.559750251137544, 22.00519783535325 ], [ -102.564891548868204, 22.005702451109361 ], [ -102.565754121153375, 21.994828517609001 ], [ -102.563004465859066, 21.989122077954363 ], [ -102.571788993948061, 21.97231921601794 ], [ -102.580122392249663, 21.940199590525822 ], [ -102.581737757493215, 21.940692192720764 ], [ -102.586898639174379, 21.91721015380422 ], [ -102.583787919881814, 21.916830903602271 ], [ -102.589581010180353, 21.91271048830318 ], [ -102.582063846845728, 21.911857317891357 ], [ -102.583433993371756, 21.908658859830126 ], [ -102.5794914089971, 21.905948802903183 ], [ -102.590514194997823, 21.898432678072009 ], [ -102.580328680242062, 21.899322504779416 ], [ -102.590449026500082, 21.879717938597647 ], [ -102.585049664977149, 21.878034394616375 ], [ -102.585368972537822, 21.870160020082196 ], [ -102.586420764205045, 21.867223047429214 ], [ -102.589864573075545, 21.86817620942378 ], [ -102.59845606883249, 21.865148583564409 ], [ -102.596426447999121, 21.830231383100177 ], [ -102.585540679180468, 21.829137459223496 ], [ -102.589742428398949, 21.795125680374838 ], [ -102.594221356765487, 21.790689524519795 ], [ -102.59997909418189, 21.789060510153067 ], [ -102.600756900890644, 21.755146912100329 ], [ -102.624508396960792, 21.759916551090864 ] ] ] } },
{ "type": "Feature", "properties": { "cve_edo": "01", "cve_mpo_ine": "004", "cve_edo_mpo_ine": "01004", "nom_mpo": "COSIO", "nom_edo": "Aguascalientes", "alianza_ganadora": "Va por México", "margen_pp": 2.3385539583780304, "por_participacion": 76.334752702260062 }, "geometry": { "type": "Polygon", "coordinates": [ [ [ -102.267377324296831, 22.405065926885005 ], [ -102.255943769195724, 22.391639825997089 ], [ -102.25536538072835, 22.387894464610088 ], [ -102.252952390929948, 22.388674016674081 ], [ -102.249489638506859, 22.386119212025761 ], [ -102.250798546467593, 22.380276976645192 ], [ -102.25492116044569, 22.377729558318091 ], [ -102.252346339369652, 22.374261786051104 ], [ -102.252795255529477, 22.369238351098623 ], [ -102.247065294796442, 22.361270458706876 ], [ -102.242675404203439, 22.359700216128072 ], [ -102.238936553870175, 22.352467738611232 ], [ -102.242464556955156, 22.346839240605306 ], [ -102.241494147190181, 22.341840315065266 ], [ -102.245034322494178, 22.341989254983282 ], [ -102.247177989609639, 22.324438522496788 ], [ -102.254970710546274, 22.324843674988525 ], [ -102.256246446053922, 22.320975323131034 ], [ -102.244204118878713, 22.32021153526329 ], [ -102.247018848857948, 22.310604499943381 ], [ -102.245906044051452, 22.298361404880279 ], [ -102.278016038454766, 22.301349730883604 ], [ -102.280467193835264, 22.297476278276118 ], [ -102.280172714950453, 22.287943049566689 ], [ -102.292103641529891, 22.289559184737453 ], [ -102.292934583421143, 22.291497382733187 ], [ -102.296744553151967, 22.289510414487307 ], [ -102.294546816803859, 22.301005520759407 ], [ -102.301037808459668, 22.301102550912105 ], [ -102.302072712362246, 22.299040333969121 ], [ -102.318363103015301, 22.303209850015392 ], [ -102.318443283561734, 22.298024391245551 ], [ -102.332356390575484, 22.299032436703452 ], [ -102.331968080136491, 22.308852264994787 ], [ -102.347535102291076, 22.314955066917825 ], [ -102.38571994121142, 22.304019734585122 ], [ -102.389333478820348, 22.305139070158376 ], [ -102.396544931235439, 22.309600199515312 ], [ -102.399638711350093, 22.315547723748384 ], [ -102.417504685434011, 22.327821366746821 ], [ -102.422223569119723, 22.334052150307958 ], [ -102.423056002283914, 22.339168445384963 ], [ -102.417528389257626, 22.343052898490079 ], [ -102.432426409243163, 22.357576351601629 ], [ -102.394474352959847, 22.364222343581719 ], [ -102.388421025255198, 22.36284392163401 ], [ -102.379131657294408, 22.367264810652859 ], [ -102.376775406891213, 22.374646326827659 ], [ -102.378421974899311, 22.379924053138502 ], [ -102.374611660940715, 22.385217806752635 ], [ -102.369570067884609, 22.380974751118579 ], [ -102.356865738944677, 22.390256948322801 ], [ -102.351435497294972, 22.388368220555705 ], [ -102.345241818003856, 22.39433535701416 ], [ -102.338148766117939, 22.392591082274681 ], [ -102.336801132061197, 22.39559625749348 ], [ -102.331599995723153, 22.394289289489326 ], [ -102.32186417268116, 22.398520117765845 ], [ -102.321040668383631, 22.419201789998457 ], [ -102.312667778925999, 22.440332458269211 ], [ -102.312137335067405, 22.452413496719846 ], [ -102.315347539300632, 22.456806436135974 ], [ -102.298310498094111, 22.459845098102207 ], [ -102.289840542061683, 22.418888334151688 ], [ -102.288046521790548, 22.415802066664313 ], [ -102.284482404150438, 22.416128947603948 ], [ -102.281142847407409, 22.413271159177611 ], [ -102.274660027408061, 22.41546110672024 ], [ -102.265253246696147, 22.407378790201864 ], [ -102.267377324296831, 22.405065926885005 ] ] ] } },
{ "type": "Feature", "properties": { "cve_edo": "01", "cve_mpo_ine": "011", "cve_edo_mpo_ine": "01011", "nom_mpo": "EL LLANO", "nom_edo": "Aguascalientes", "alianza_ganadora": "Juntos Haremos Historia", "margen_pp": 13.231072838177251, "por_participacion": 69.840872071169031 }, "geometry": { "type": "Polygon", "coordinates": [ [ [ -102.037034687352019, 21.853163292600595 ], [ -102.039497095667386, 21.826612443958712 ], [ -102.042256508062749, 21.826136390741031 ], [ -102.046735046984509, 21.818534996926363 ], [ -102.052798015695416, 21.81601857656787 ], [ -102.055714941574664, 21.817193546175204 ], [ -102.057166125641714, 21.807714710792037 ], [ -102.060447527597674, 21.808053204219959 ], [ -102.070007908547225, 21.799402539268772 ], [ -102.071797001209447, 21.794791176649337 ], [ -102.104997095994818, 21.803091035204844 ], [ -102.107625194801727, 21.799356852117928 ], [ -102.115053978571993, 21.800232485400361 ], [ -102.117343001027194, 21.794125746753608 ], [ -102.132033028117732, 21.796628503428948 ], [ -102.13262041005828, 21.793268489610114 ], [ -102.140852915938012, 21.794522307498209 ], [ -102.140406148048768, 21.797103910560974 ], [ -102.143837855229052, 21.794514530864877 ], [ -102.145976492284277, 21.787917941454918 ], [ -102.153456425107649, 21.788896518247011 ], [ -102.150574431507337, 21.809695649626175 ], [ -102.160318619000847, 21.811334224548133 ], [ -102.158997177542275, 21.820736852052161 ], [ -102.169743332368796, 21.823462486006502 ], [ -102.168910658463915, 21.826393869261189 ], [ -102.171017747295537, 21.826669752795009 ], [ -102.169863239878623, 21.83960168815743 ], [ -102.167594019065604, 21.843001004970915 ], [ -102.176239452346692, 21.843892214956615 ], [ -102.174851830407704, 21.870457179450671 ], [ -102.157223364097945, 21.869564442639469 ], [ -102.155318106349839, 21.910578993242364 ], [ -102.162522075107546, 21.906255685885117 ], [ -102.162084902800771, 21.919653308916995 ], [ -102.166211773695522, 21.919578391627368 ], [ -102.164127350043614, 21.937213555903156 ], [ -102.129719644273237, 21.936917237868347 ], [ -102.12993689859033, 21.9397634287226 ], [ -102.138555479582308, 21.940325399841992 ], [ -102.131936234221541, 21.976884670465381 ], [ -102.100656714612143, 21.972193182571885 ], [ -102.100869952333767, 21.964824885126671 ], [ -102.097360520348076, 21.960973958662727 ], [ -102.092510476789528, 21.96120798054875 ], [ -102.097851720326204, 21.992160050634403 ], [ -102.097831906362202, 22.013175273044784 ], [ -102.090438440923492, 22.005837800834438 ], [ -102.075147708061849, 21.998431718013197 ], [ -102.071088204048124, 21.992510215306694 ], [ -102.070084724284172, 21.999252017221739 ], [ -102.036881537098878, 22.000577422684746 ], [ -102.041347135930167, 21.992066172971111 ], [ -102.0415203688285, 21.982748247480117 ], [ -102.010205126181134, 21.998840634808001 ], [ -102.006135445990139, 22.028810927124383 ], [ -101.989914567574829, 22.025689745012407 ], [ -101.992010463063011, 22.007904395745935 ], [ -101.960556038285389, 22.009593489253945 ], [ -101.962373600445986, 21.991939590607331 ], [ -101.971675480079966, 21.991759884196846 ], [ -101.974960624714043, 21.983262939641254 ], [ -101.96467459515118, 21.980868145504338 ], [ -101.957783993826354, 21.992191423025144 ], [ -101.944738983712142, 21.98953452693598 ], [ -101.944851303882089, 22.005561873382625 ], [ -101.89002111086198, 21.951779295521266 ], [ -101.88589802210646, 21.934091966107271 ], [ -101.882804730106912, 21.937697403251789 ], [ -101.885835942048999, 21.939165144955915 ], [ -101.874655772850517, 21.947078580334789 ], [ -101.866984741704997, 21.946192145707766 ], [ -101.865608034188782, 21.948449755035249 ], [ -101.857622190145335, 21.944590461221654 ], [ -101.845069473496025, 21.944900901629293 ], [ -101.848458066774725, 21.938524517275905 ], [ -101.861514122017681, 21.936665133477341 ], [ -101.870381078878111, 21.938876396779079 ], [ -101.871936767934969, 21.937411351998865 ], [ -101.867665052934271, 21.933494156182441 ], [ -101.867282040722671, 21.926038530814022 ], [ -101.879073911415645, 21.926847500066408 ], [ -101.878744561394555, 21.921828597943872 ], [ -101.883515612818528, 21.922378267040425 ], [ -101.88548910868542, 21.917637520412597 ], [ -101.884078229113612, 21.913393676188864 ], [ -101.886228571836924, 21.912062052699792 ], [ -101.944330336123429, 21.891741479983747 ], [ -101.943554347072549, 21.889272727574568 ], [ -101.977762871968253, 21.876259715262794 ], [ -101.999431140998709, 21.869876028419856 ], [ -101.993218189132691, 21.846347597959429 ], [ -101.998570481646979, 21.848222609826269 ], [ -102.005332916801166, 21.846407960805365 ], [ -102.022101980158482, 21.851659088598094 ], [ -102.037034687352019, 21.853163292600595 ] ] ] } },
{ "type": "Feature", "properties": { "cve_edo": "01", "cve_mpo_ine": "005", "cve_edo_mpo_ine": "01005", "nom_mpo": "JESUS MARIA", "nom_edo": "Aguascalientes", "alianza_ganadora": "Va por México", "margen_pp": 33.026726057906458, "por_participacion": 50.879916597731366 }, "geometry": { "type": "Polygon", "coordinates": [ [ [ -102.308435570490261, 21.939988174640529 ], [ -102.308536059992107, 21.934379147552232 ], [ -102.343469665864845, 21.939074311333155 ], [ -102.337416552346852, 21.922437612373251 ], [ -102.33091194618909, 21.913680303206377 ], [ -102.346299365359343, 21.912428215983628 ], [ -102.361468732445019, 21.915125683626211 ], [ -102.375330451826386, 21.925323169192652 ], [ -102.378482662271125, 21.924274559450101 ], [ -102.382805075409181, 21.912454282380356 ], [ -102.387128600182564, 21.9125816423396 ], [ -102.389385047783378, 21.904910798875072 ], [ -102.395401087281826, 21.905650337297232 ], [ -102.393487608159163, 21.897916191745104 ], [ -102.390657719303803, 21.898363685479492 ], [ -102.390211056042659, 21.894229121637323 ], [ -102.40278476479088, 21.894083065797886 ], [ -102.413499397439338, 21.891089282872723 ], [ -102.418919894949767, 21.883734343606196 ], [ -102.417074357754345, 21.881673162721341 ], [ -102.423124029988898, 21.878064387048475 ], [ -102.43149396216053, 21.864812993373985 ], [ -102.432203476664284, 21.852187911100213 ], [ -102.435631827577183, 21.849918306255052 ], [ -102.433800977760754, 21.84465078057648 ], [ -102.442763891723871, 21.833771037875504 ], [ -102.450323005740245, 21.830166107067772 ], [ -102.456415402552167, 21.817882052407686 ], [ -102.461444796443914, 21.817399328061882 ], [ -102.461909307982978, 21.814640624832471 ], [ -102.476247113155324, 21.814351295024181 ], [ -102.474246992352349, 21.817092366823008 ], [ -102.49581283253579, 21.816467885067389 ], [ -102.500721588274985, 21.813485590190787 ], [ -102.504508304946441, 21.815800385857131 ], [ -102.508217665486001, 21.813465397604226 ], [ -102.515565075567537, 21.816447175612215 ], [ -102.51969427396844, 21.809127246063088 ], [ -102.530577431396921, 21.812640512941478 ], [ -102.541499205592601, 21.807788855382345 ], [ -102.545775694991974, 21.802284500695347 ], [ -102.562010012539034, 21.803724513506875 ], [ -102.563835649414301, 21.801944431868421 ], [ -102.570229553638953, 21.802300666265513 ], [ -102.571046625434974, 21.799202179779545 ], [ -102.589742428398949, 21.795125680374838 ], [ -102.585540679180468, 21.829137459223496 ], [ -102.596426447999121, 21.830231383100177 ], [ -102.59845606883249, 21.865148583564409 ], [ -102.589864573075545, 21.86817620942378 ], [ -102.586420764205045, 21.867223047429214 ], [ -102.585368972537822, 21.870160020082196 ], [ -102.585049664977149, 21.878034394616375 ], [ -102.590449026500082, 21.879717938597647 ], [ -102.580328680242062, 21.899322504779416 ], [ -102.590514194997823, 21.898432678072009 ], [ -102.5794914089971, 21.905948802903183 ], [ -102.583433993371756, 21.908658859830126 ], [ -102.582063846845728, 21.911857317891357 ], [ -102.589581010180353, 21.91271048830318 ], [ -102.583787919881814, 21.916830903602271 ], [ -102.586898639174379, 21.91721015380422 ], [ -102.581737757493215, 21.940692192720764 ], [ -102.580122392249663, 21.940199590525822 ], [ -102.571788993948061, 21.97231921601794 ], [ -102.563004465859066, 21.989122077954363 ], [ -102.565754121153375, 21.994828517609001 ], [ -102.564891548868204, 22.005702451109361 ], [ -102.559750251137544, 22.00519783535325 ], [ -102.557494651462619, 22.000261734232957 ], [ -102.555155228847511, 22.002212748399529 ], [ -102.552947429971567, 22.014555262120613 ], [ -102.543917615519291, 22.010510075047694 ], [ -102.539872104995865, 22.018695222013079 ], [ -102.535398162477748, 22.018673687598401 ], [ -102.529485497326917, 22.015675815507464 ], [ -102.529060391297435, 22.012886757743473 ], [ -102.519849826373317, 22.021266778132915 ], [ -102.51773072768141, 22.020226764643869 ], [ -102.516355550297362, 22.024290500376079 ], [ -102.510936865754985, 22.019861232445642 ], [ -102.507983785337615, 22.022930013720163 ], [ -102.480033902409247, 22.022186212960403 ], [ -102.476656413471545, 22.020817690865865 ], [ -102.474604544621826, 22.01518672515607 ], [ -102.469347175066375, 22.011543739612488 ], [ -102.472207466450584, 21.997803233509821 ], [ -102.465874843247704, 22.000077360650582 ], [ -102.461560133799182, 21.998877085488772 ], [ -102.455739040457672, 21.98935396603115 ], [ -102.449034594088005, 21.985404436899195 ], [ -102.447107769701262, 21.98951241093155 ], [ -102.432324230801697, 21.99581707407258 ], [ -102.431185789377025, 22.009156666412199 ], [ -102.427216136466114, 22.018047285616856 ], [ -102.421128486059956, 22.019488592988058 ], [ -102.421864558953601, 22.025318651752475 ], [ -102.416181324327852, 22.028088967252621 ], [ -102.416582402119914, 22.037581183424834 ], [ -102.379267477798876, 22.045980439076772 ], [ -102.373346168310917, 22.054181332090238 ], [ -102.368945397326343, 22.05448764866723 ], [ -102.366132612475809, 22.047784161462015 ], [ -102.360025413936995, 22.048730159695076 ], [ -102.356985381223609, 22.050481907659673 ], [ -102.358299019707701, 22.05375402686597 ], [ -102.356018021133494, 22.055211514822641 ], [ -102.350605399847169, 22.073569697270102 ], [ -102.339931646789495, 22.072033610094568 ], [ -102.339014703347232, 22.077437256291251 ], [ -102.31050595394882, 22.075166111920879 ], [ -102.318000791613684, 22.051446825883126 ], [ -102.303127597154884, 22.04787305937873 ], [ -102.310520891038436, 22.037346535443945 ], [ -102.306502710944443, 22.035783253646049 ], [ -102.309653109671828, 22.032583276067239 ], [ -102.309607125471004, 22.02564266248725 ], [ -102.30645544401527, 22.03303335416399 ], [ -102.279074619957811, 22.033228459412129 ], [ -102.284512639149838, 22.002170976085157 ], [ -102.28215809006123, 22.002894440301517 ], [ -102.277998840083058, 21.999260620767469 ], [ -102.27380536024512, 22.000466944771301 ], [ -102.280901791729065, 21.985378620942026 ], [ -102.289116836019417, 21.981022959578574 ], [ -102.290358672702666, 21.952880072906304 ], [ -102.280784501150023, 21.953449668605469 ], [ -102.281882599585927, 21.950496688299715 ], [ -102.290576735387404, 21.950087639522941 ], [ -102.291089524257416, 21.939020274123383 ], [ -102.296381766767368, 21.93765806822131 ], [ -102.308435570490261, 21.939988174640529 ] ] ] } },
{ "type": "Feature", "properties": { "cve_edo": "01", "cve_mpo_ine": "006", "cve_edo_mpo_ine": "01006", "nom_mpo": "PABELLON DE ARTEAGA", "nom_edo": "Aguascalientes", "alianza_ganadora": "Va por México", "margen_pp": 30.006401365624665, "por_participacion": 57.344753747323338 }, "geometry": { "type": "Polygon", "coordinates": [ [ [ -102.305590911390922, 22.140597569086456 ], [ -102.296529469301092, 22.149925906124565 ], [ -102.295804391886804, 22.165036523260433 ], [ -102.275663986604329, 22.165037044894188 ], [ -102.263310481685608, 22.167570428781971 ], [ -102.258204513293805, 22.175383006359496 ], [ -102.259183895124082, 22.186269374490891 ], [ -102.253002227130224, 22.185889149796651 ], [ -102.249970284635936, 22.179488568484896 ], [ -102.252098180248581, 22.178651414824749 ], [ -102.251247459119682, 22.175916464718043 ], [ -102.255264787676211, 22.173681911727954 ], [ -102.251590973491133, 22.170230477591893 ], [ -102.25349872142543, 22.168215782438025 ], [ -102.228469350428739, 22.163344876331429 ], [ -102.231404352507269, 22.15359072303448 ], [ -102.229352843753475, 22.153595444076466 ], [ -102.229423824180444, 22.148886351214561 ], [ -102.23268199802915, 22.149439608255971 ], [ -102.238668448173584, 22.126262460126458 ], [ -102.217875583514555, 22.122713404234577 ], [ -102.218954403048912, 22.103261174183043 ], [ -102.216357045829341, 22.104644793226036 ], [ -102.192267574420498, 22.100642841811474 ], [ -102.196732569223158, 22.089757378210251 ], [ -102.200360416281441, 22.064014282651446 ], [ -102.20699515598838, 22.065440257934565 ], [ -102.220898870343049, 22.063555072997175 ], [ -102.226118215338801, 22.06589220298266 ], [ -102.235242694539608, 22.07742077135881 ], [ -102.268548840046464, 22.079980445333636 ], [ -102.273213620008292, 22.088098457880026 ], [ -102.279087028291599, 22.08901681890508 ], [ -102.282496664033062, 22.088332304385382 ], [ -102.28451390734449, 22.082509313061443 ], [ -102.294484008736589, 22.08398479341222 ], [ -102.293557456874396, 22.069655635723226 ], [ -102.286790450255438, 22.067648805028977 ], [ -102.282979688241923, 22.061174166709595 ], [ -102.287226563924747, 22.055037722140749 ], [ -102.297297429853941, 22.050199792973682 ], [ -102.300133163876296, 22.0509163484118 ], [ -102.298273739569296, 22.042648470526185 ], [ -102.304411158679699, 22.049430010920943 ], [ -102.318000791613684, 22.051446825883126 ], [ -102.31050595394882, 22.075166111920879 ], [ -102.339014703347232, 22.077437256291251 ], [ -102.339931646789495, 22.072033610094568 ], [ -102.350605399847169, 22.073569697270102 ], [ -102.356018021133494, 22.055211514822641 ], [ -102.358299019707701, 22.05375402686597 ], [ -102.356985381223609, 22.050481907659673 ], [ -102.360025413936995, 22.048730159695076 ], [ -102.366132612475809, 22.047784161462015 ], [ -102.368945397326343, 22.05448764866723 ], [ -102.373346168310917, 22.054181332090238 ], [ -102.379267477798876, 22.045980439076772 ], [ -102.416582402119914, 22.037581183424834 ], [ -102.418800711119644, 22.080461235685682 ], [ -102.391903141085251, 22.0885739576388 ], [ -102.382415835930843, 22.127805763377076 ], [ -102.354387361831499, 22.1158909455037 ], [ -102.354906467754105, 22.126950819102092 ], [ -102.350524254547508, 22.146294484536217 ], [ -102.305590911390922, 22.140597569086456 ] ] ] } },
{ "type": "Feature", "properties": { "cve_edo": "01", "cve_mpo_ine": "007", "cve_edo_mpo_ine": "01007", "nom_mpo": "RINCON DE ROMOS", "nom_edo": "Aguascalientes", "alianza_ganadora": "Va por México", "margen_pp": 1.7012877150108092, "por_participacion": 53.826111153272109 }, "geometry": { "type": "Polygon", "coordinates": [ [ [ -102.350524254547508, 22.146294484536217 ], [ -102.354906467754105, 22.126950819102092 ], [ -102.380186602116396, 22.137522022346921 ], [ -102.371979957005337, 22.170725315618245 ], [ -102.367844656431032, 22.170361261447066 ], [ -102.359074778618123, 22.185969010603028 ], [ -102.353903643266761, 22.187808668503099 ], [ -102.35289673421002, 22.191388277299428 ], [ -102.364389871632355, 22.201837517050876 ], [ -102.366158013069224, 22.208850649824843 ], [ -102.364101353587387, 22.216292391874681 ], [ -102.368457902423117, 22.215987966302638 ], [ -102.368297464570659, 22.219301742859795 ], [ -102.37047261020777, 22.219708702185432 ], [ -102.379496042686597, 22.215997714283972 ], [ -102.388258427353108, 22.216938151583037 ], [ -102.398774955011291, 22.221828208099137 ], [ -102.402503231818997, 22.227803571680866 ], [ -102.411218929986532, 22.229603519741637 ], [ -102.420510397034789, 22.235373331247612 ], [ -102.430449263032813, 22.230429551376091 ], [ -102.433977765942103, 22.234113873284024 ], [ -102.442670374691218, 22.235545088779109 ], [ -102.443824860528863, 22.242593690650754 ], [ -102.446643328614144, 22.244315806149693 ], [ -102.441801175669013, 22.255826067503751 ], [ -102.458770039495249, 22.259639395253274 ], [ -102.456974968856954, 22.273526794658775 ], [ -102.483289648007187, 22.286669992915364 ], [ -102.489668144865405, 22.2841606438874 ], [ -102.491680429246017, 22.289483160226357 ], [ -102.512594130584816, 22.292375656544156 ], [ -102.514303046911536, 22.297885709490881 ], [ -102.505799574488321, 22.301936142046099 ], [ -102.49013550720025, 22.299255577334865 ], [ -102.483565220245879, 22.326934611357675 ], [ -102.470974105333639, 22.32903499822897 ], [ -102.468760281848716, 22.349577832677859 ], [ -102.432426409243163, 22.357576351601629 ], [ -102.417528389257626, 22.343052898490079 ], [ -102.423056002283914, 22.339168445384963 ], [ -102.422223569119723, 22.334052150307958 ], [ -102.417504685434011, 22.327821366746821 ], [ -102.399638711350093, 22.315547723748384 ], [ -102.396544931235439, 22.309600199515312 ], [ -102.389333478820348, 22.305139070158376 ], [ -102.38571994121142, 22.304019734585122 ], [ -102.347535102291076, 22.314955066917825 ], [ -102.331968080136491, 22.308852264994787 ], [ -102.332356390575484, 22.299032436703452 ], [ -102.318443283561734, 22.298024391245551 ], [ -102.318363103015301, 22.303209850015392 ], [ -102.302072712362246, 22.299040333969121 ], [ -102.301037808459668, 22.301102550912105 ], [ -102.294546816803859, 22.301005520759407 ], [ -102.296744553151967, 22.289510414487307 ], [ -102.292934583421143, 22.291497382733187 ], [ -102.292103641529891, 22.289559184737453 ], [ -102.280172714950453, 22.287943049566689 ], [ -102.280467193835264, 22.297476278276118 ], [ -102.278016038454766, 22.301349730883604 ], [ -102.245906044051452, 22.298361404880279 ], [ -102.247018848857948, 22.310604499943381 ], [ -102.244204118878713, 22.32021153526329 ], [ -102.256246446053922, 22.320975323131034 ], [ -102.254970710546274, 22.324843674988525 ], [ -102.247177989609639, 22.324438522496788 ], [ -102.245034322494178, 22.341989254983282 ], [ -102.241494147190181, 22.341840315065266 ], [ -102.242464556955156, 22.346839240605306 ], [ -102.238741555392224, 22.354714891955986 ], [ -102.251959619217743, 22.368004050538079 ], [ -102.254179158280749, 22.376259007281671 ], [ -102.240688774595753, 22.374606613253672 ], [ -102.238552031235969, 22.378529019614469 ], [ -102.238225838169086, 22.374219448587393 ], [ -102.226554247822719, 22.374684695767915 ], [ -102.213321696779545, 22.367661982077912 ], [ -102.213351386435406, 22.363164639662394 ], [ -102.176516262174218, 22.362262702617702 ], [ -102.190996663572335, 22.318017471014336 ], [ -102.21322623870401, 22.314494686426297 ], [ -102.214647800212163, 22.294402734704821 ], [ -102.238952154017653, 22.297467738877817 ], [ -102.240603401861691, 22.292429196250914 ], [ -102.246404881752781, 22.292481943755757 ], [ -102.246921445543876, 22.288664956321302 ], [ -102.250196227794518, 22.288842825425522 ], [ -102.247134637861762, 22.285332625174505 ], [ -102.246854611643499, 22.28013520203606 ], [ -102.253674634656377, 22.280041195388776 ], [ -102.252796542586822, 22.275871414042395 ], [ -102.255678354903409, 22.272199247564629 ], [ -102.253051668101335, 22.269942770264038 ], [ -102.250614638248223, 22.270919039617418 ], [ -102.251706732966554, 22.26808895071612 ], [ -102.256455705400057, 22.267543802940992 ], [ -102.257046363201198, 22.265627919962579 ], [ -102.25443053644122, 22.260766245944126 ], [ -102.257142788768235, 22.259428056130957 ], [ -102.257088166254647, 22.252993260745235 ], [ -102.254796428975624, 22.251332897300749 ], [ -102.257097611489414, 22.246662843144733 ], [ -102.253164128883611, 22.239842162593561 ], [ -102.257300289218961, 22.232689519897729 ], [ -102.254110031352141, 22.227535977031813 ], [ -102.277890471842397, 22.225215058703924 ], [ -102.276719578039149, 22.187530877168815 ], [ -102.259183895124082, 22.186269374490891 ], [ -102.258204513293805, 22.175383006359496 ], [ -102.263310481685608, 22.167570428781971 ], [ -102.275663986604329, 22.165037044894188 ], [ -102.295804391886804, 22.165036523260433 ], [ -102.296529469301092, 22.149925906124565 ], [ -102.305590911390922, 22.140597569086456 ], [ -102.350524254547508, 22.146294484536217 ] ] ] } },
{ "type": "Feature", "properties": { "cve_edo": "01", "cve_mpo_ine": "010", "cve_edo_mpo_ine": "01010", "nom_mpo": "SAN FRANCISCO DE LOS ROMO", "nom_edo": "Aguascalientes", "alianza_ganadora": "Va por México", "margen_pp": 37.908152517379399, "por_participacion": 50.146573352700386 }, "geometry": { "type": "Polygon", "coordinates": [ [ [ -102.279088361801556, 21.958126092038984 ], [ -102.278010908645825, 21.960977635088394 ], [ -102.290088492638745, 21.962888976772053 ], [ -102.289116836019417, 21.981022959578574 ], [ -102.280901791729065, 21.985378620942026 ], [ -102.27380536024512, 22.000466944771301 ], [ -102.277998840083058, 21.999260620767469 ], [ -102.28215809006123, 22.002894440301517 ], [ -102.284512639149838, 22.002170976085157 ], [ -102.279074619957811, 22.033228459412129 ], [ -102.30645544401527, 22.03303335416399 ], [ -102.309607125471004, 22.02564266248725 ], [ -102.309653109671828, 22.032583276067239 ], [ -102.306502710944443, 22.035783253646049 ], [ -102.310520891038436, 22.037346535443945 ], [ -102.303127597154884, 22.04787305937873 ], [ -102.298273739569296, 22.042648470526185 ], [ -102.300133163876296, 22.0509163484118 ], [ -102.290357882356872, 22.05328204300756 ], [ -102.283214377065448, 22.059729630674887 ], [ -102.283724736077218, 22.065088568164828 ], [ -102.293557456874396, 22.069655635723226 ], [ -102.294484008736589, 22.08398479341222 ], [ -102.28451390734449, 22.082509313061443 ], [ -102.282496664033062, 22.088332304385382 ], [ -102.273213620008292, 22.088098457880026 ], [ -102.268548840046464, 22.079980445333636 ], [ -102.235242694539608, 22.07742077135881 ], [ -102.226118215338801, 22.06589220298266 ], [ -102.217565916694809, 22.063117240178467 ], [ -102.20699515598838, 22.065440257934565 ], [ -102.200360416281441, 22.064014282651446 ], [ -102.19978632023205, 22.067300761195575 ], [ -102.183952249361113, 22.068763376212576 ], [ -102.180372174336341, 22.0843087516905 ], [ -102.16318942981168, 22.083317272313874 ], [ -102.16342915910694, 22.087474904778851 ], [ -102.154927097071294, 22.086946130904057 ], [ -102.154923424091876, 22.088403555628066 ], [ -102.140952744112624, 22.075329110833337 ], [ -102.138578999666393, 22.060256690406007 ], [ -102.14436684184183, 22.034603434681642 ], [ -102.134989385110842, 22.028800744660053 ], [ -102.151821333118775, 22.023260281543461 ], [ -102.157587137122832, 22.017614329670632 ], [ -102.157831136179396, 22.026433746704232 ], [ -102.17114182906063, 22.02572905409 ], [ -102.166986038956281, 22.037897512658272 ], [ -102.177378720513175, 22.039564311618353 ], [ -102.178938190889397, 22.032851253864521 ], [ -102.207959994272002, 22.03800021935708 ], [ -102.209378160101366, 22.02884218535484 ], [ -102.223021322438896, 22.03149596244819 ], [ -102.223469595521166, 22.010699780728491 ], [ -102.227338079393519, 22.010003046209903 ], [ -102.229035764727001, 21.999325605091784 ], [ -102.218699751219916, 21.996603972199576 ], [ -102.218084818615225, 21.973556961687521 ], [ -102.227630854329973, 21.974924989309773 ], [ -102.230067926427381, 21.961402443214038 ], [ -102.234659610837809, 21.956987355607279 ], [ -102.248491681469559, 21.950087841819673 ], [ -102.24944228155411, 21.952017232178907 ], [ -102.260517066437728, 21.947448862150708 ], [ -102.264891692176974, 21.943529196367567 ], [ -102.267079892941652, 21.944255586213405 ], [ -102.266422933326083, 21.951857489294703 ], [ -102.274346690972479, 21.953728317026993 ], [ -102.272776613131995, 21.95695891062336 ], [ -102.279088361801556, 21.958126092038984 ] ] ] } },
{ "type": "Feature", "properties": { "cve_edo": "01", "cve_mpo_ine": "008", "cve_edo_mpo_ine": "01008", "nom_mpo": "SAN JOSE DE GRACIA", "nom_edo": "Aguascalientes", "alianza_ganadora": "Va por México", "margen_pp": 13.478419897585955, "por_participacion": 74.811875769599126 }, "geometry": { "type": "Polygon", "coordinates": [ [ [ -102.691875859058641, 22.114057364898695 ], [ -102.698194713043094, 22.12519055138576 ], [ -102.689496955279992, 22.134967773633431 ], [ -102.686651124847245, 22.135059689452429 ], [ -102.679299773266564, 22.146595393966685 ], [ -102.675745413432409, 22.14433721108713 ], [ -102.668717982419651, 22.158961182575489 ], [ -102.670268311446833, 22.161310911323859 ], [ -102.6691988290452, 22.176363642017659 ], [ -102.65033507323993, 22.210467017808643 ], [ -102.637284545889713, 22.225196646142663 ], [ -102.67041328630323, 22.24349439891898 ], [ -102.669794951395602, 22.292326093262499 ], [ -102.620009020208883, 22.295488711080896 ], [ -102.616733623613385, 22.291665276636639 ], [ -102.617222270595846, 22.289113523956694 ], [ -102.608835867487542, 22.285845924577917 ], [ -102.595779420842803, 22.287853190204192 ], [ -102.588915407283523, 22.282741690946324 ], [ -102.584024437870482, 22.283110310241401 ], [ -102.577057653393283, 22.279985752356218 ], [ -102.569855900163191, 22.283656258694794 ], [ -102.558580236723657, 22.283414142266256 ], [ -102.552580769285584, 22.286804272061833 ], [ -102.542421243232937, 22.287937610416343 ], [ -102.53954835767945, 22.286069194822339 ], [ -102.534253929411562, 22.287331591458408 ], [ -102.531590743268396, 22.290534829374639 ], [ -102.526038970082396, 22.287636005281751 ], [ -102.51307205111064, 22.297798710437725 ], [ -102.512594130584816, 22.292375656544156 ], [ -102.491680429246017, 22.289483160226357 ], [ -102.489668144865405, 22.2841606438874 ], [ -102.483289648007187, 22.286669992915364 ], [ -102.456974968856954, 22.273526794658775 ], [ -102.458770039495249, 22.259639395253274 ], [ -102.441801175669013, 22.255826067503751 ], [ -102.446643328614144, 22.244315806149693 ], [ -102.443824860528863, 22.242593690650754 ], [ -102.442670374691218, 22.235545088779109 ], [ -102.433977765942103, 22.234113873284024 ], [ -102.430449263032813, 22.230429551376091 ], [ -102.420510397034789, 22.235373331247612 ], [ -102.411218929986532, 22.229603519741637 ], [ -102.402503231818997, 22.227803571680866 ], [ -102.398774955011291, 22.221828208099137 ], [ -102.388258427353108, 22.216938151583037 ], [ -102.379496042686597, 22.215997714283972 ], [ -102.376580081080931, 22.218457490593597 ], [ -102.368508555968845, 22.219477440367683 ], [ -102.368457902423117, 22.215987966302638 ], [ -102.363797938162406, 22.215843157894025 ], [ -102.366158013069224, 22.208850649824843 ], [ -102.364389871632355, 22.201837517050876 ], [ -102.357325006698829, 22.195989587727148 ], [ -102.356322828602146, 22.1926115822559 ], [ -102.352874683696641, 22.192038474685027 ], [ -102.353903643266761, 22.187808668503099 ], [ -102.359074778618123, 22.185969010603028 ], [ -102.367844656431032, 22.170361261447066 ], [ -102.371979957005337, 22.170725315618245 ], [ -102.380186602116396, 22.137522022346921 ], [ -102.354906467754105, 22.126950819102092 ], [ -102.354387361831499, 22.1158909455037 ], [ -102.382415835930843, 22.127805763377076 ], [ -102.391903141085251, 22.0885739576388 ], [ -102.418800711119644, 22.080461235685682 ], [ -102.416181324327852, 22.028088967252621 ], [ -102.421864558953601, 22.025318651752475 ], [ -102.421128486059956, 22.019488592988058 ], [ -102.427216136466114, 22.018047285616856 ], [ -102.431185789377025, 22.009156666412199 ], [ -102.432324230801697, 21.99581707407258 ], [ -102.447107769701262, 21.98951241093155 ], [ -102.449034594088005, 21.985404436899195 ], [ -102.455739040457672, 21.98935396603115 ], [ -102.461560133799182, 21.998877085488772 ], [ -102.465874843247704, 22.000077360650582 ], [ -102.472207466450584, 21.997803233509821 ], [ -102.469347175066375, 22.011543739612488 ], [ -102.474604544621826, 22.01518672515607 ], [ -102.476656413471545, 22.020817690865865 ], [ -102.480033902409247, 22.022186212960403 ], [ -102.507983785337615, 22.022930013720163 ], [ -102.510936865754985, 22.019861232445642 ], [ -102.516355550297362, 22.024290500376079 ], [ -102.51773072768141, 22.020226764643869 ], [ -102.519849826373317, 22.021266778132915 ], [ -102.529060391297435, 22.012886757743473 ], [ -102.53142384938694, 22.017303357824648 ], [ -102.539872104995865, 22.018695222013079 ], [ -102.543917615519291, 22.010510075047694 ], [ -102.552947429971567, 22.014555262120613 ], [ -102.551605209216262, 22.019427879752698 ], [ -102.557217259678268, 22.020311221490051 ], [ -102.560692717361931, 22.029362996120724 ], [ -102.569447660533413, 22.02827667754535 ], [ -102.570191314348321, 22.024516933677162 ], [ -102.574762086530129, 22.024985660637316 ], [ -102.573836151949507, 22.034883642019505 ], [ -102.586584911215624, 22.030602036377484 ], [ -102.591139007222864, 22.031359008964749 ], [ -102.593072469920145, 22.038319445769332 ], [ -102.599515600742279, 22.038203552201523 ], [ -102.603413638374121, 22.040547202199839 ], [ -102.612282162645542, 22.03632148717233 ], [ -102.617181254042876, 22.037001338933766 ], [ -102.615320418497092, 22.049145250622967 ], [ -102.616975258332829, 22.050085027393372 ], [ -102.613569828749888, 22.063594839177327 ], [ -102.610510868575361, 22.064197192410937 ], [ -102.616808620102489, 22.077131614685374 ], [ -102.644276574383127, 22.093657840353153 ], [ -102.65995808550646, 22.090065929430327 ], [ -102.659808171632676, 22.085530865172533 ], [ -102.668000694534214, 22.086871542699523 ], [ -102.679595166224232, 22.092646645776885 ], [ -102.683096481079502, 22.091464718642374 ], [ -102.685748727957602, 22.085526165573917 ], [ -102.69132248165549, 22.085368039124376 ], [ -102.691904989262568, 22.093967897899613 ], [ -102.684194150159485, 22.102451297507539 ], [ -102.685226762629341, 22.105464213616131 ], [ -102.691915680978241, 22.106680981353033 ], [ -102.691875859058641, 22.114057364898695 ] ] ] } },
{ "type": "Feature", "properties": { "cve_edo": "01", "cve_mpo_ine": "009", "cve_edo_mpo_ine": "01009", "nom_mpo": "TEPEZALA", "nom_edo": "Aguascalientes", "alianza_ganadora": "Juntos Haremos Historia", "margen_pp": 5.6329600820582959, "por_participacion": 71.453001893361019 }, "geometry": { "type": "Polygon", "coordinates": [ [ [ -102.200905689920617, 22.159923410633002 ], [ -102.228068143474431, 22.170331393313059 ], [ -102.228469350428739, 22.163344876331429 ], [ -102.25349872142543, 22.168215782438025 ], [ -102.251590973491133, 22.170230477591893 ], [ -102.255264787676211, 22.173681911727954 ], [ -102.250005156064134, 22.179012510780723 ], [ -102.251853789825532, 22.185191237591386 ], [ -102.276719578039149, 22.187530877168815 ], [ -102.277890471842397, 22.225215058703924 ], [ -102.254110031352141, 22.227535977031813 ], [ -102.257300289218961, 22.232689519897729 ], [ -102.253164128883611, 22.239842162593561 ], [ -102.257097611489414, 22.246662843144733 ], [ -102.254796428975624, 22.251332897300749 ], [ -102.257088166254647, 22.252993260745235 ], [ -102.257142788768235, 22.259428056130957 ], [ -102.25443053644122, 22.260766245944126 ], [ -102.257046363201198, 22.265627919962579 ], [ -102.256455705400057, 22.267543802940992 ], [ -102.251706732966554, 22.26808895071612 ], [ -102.250614638248223, 22.270919039617418 ], [ -102.253051668101335, 22.269942770264038 ], [ -102.255678354903409, 22.272199247564629 ], [ -102.252796542586822, 22.275871414042395 ], [ -102.253674634656377, 22.280041195388776 ], [ -102.246854611643499, 22.28013520203606 ], [ -102.247134637861762, 22.285332625174505 ], [ -102.250196227794518, 22.288842825425522 ], [ -102.246921445543876, 22.288664956321302 ], [ -102.246404881752781, 22.292481943755757 ], [ -102.240603401861691, 22.292429196250914 ], [ -102.238952154017653, 22.297467738877817 ], [ -102.214647800212163, 22.294402734704821 ], [ -102.21322623870401, 22.314494686426297 ], [ -102.190996663572335, 22.318017471014336 ], [ -102.176516262174218, 22.362262702617702 ], [ -102.17514755168861, 22.350985308770888 ], [ -102.170438355619538, 22.348769389534159 ], [ -102.170211704603034, 22.34321592222555 ], [ -102.156853201806456, 22.338350282451252 ], [ -102.156810548881722, 22.311523081000161 ], [ -102.132876835350402, 22.311050806145872 ], [ -102.125074853261836, 22.286705875589334 ], [ -102.127905695338342, 22.270895356823296 ], [ -102.129823898737826, 22.270845347573221 ], [ -102.12989101315388, 22.24108897021884 ], [ -102.146987506107095, 22.234120395962588 ], [ -102.130113005738608, 22.216264345529407 ], [ -102.13294591275924, 22.203335638962503 ], [ -102.101914163894762, 22.188416582412827 ], [ -102.120291221927019, 22.164842481369657 ], [ -102.119746204258476, 22.162894022497088 ], [ -102.106780107066967, 22.152466809533006 ], [ -102.105821249919188, 22.147366877141305 ], [ -102.099333647858359, 22.153107562913291 ], [ -102.097095325755078, 22.158458845502349 ], [ -102.094762199204595, 22.155893939595284 ], [ -102.103395875066795, 22.146587742162993 ], [ -102.100743930629562, 22.138297632366051 ], [ -102.147347534421371, 22.153117049513 ], [ -102.142229172277453, 22.172474066972701 ], [ -102.15458465590531, 22.170404105499276 ], [ -102.159212769149519, 22.166935882667328 ], [ -102.170969484554021, 22.168794210915763 ], [ -102.18063307464152, 22.162808854696696 ], [ -102.200905689920617, 22.159923410633002 ] ] ] } }
]
}
