{
"type": "FeatureCollection",
"name": "04",
"crs": { "type": "name", "properties": { "name": "urn:ogc:def:crs:OGC:1.3:CRS84" } },
"features": [
{ "type": "Feature", "properties": { "cve_edo": "04", "cve_mpo_ine": "011", "cve_edo_mpo_ine": "04011", "nom_mpo": "CALAKMUL", "nom_edo": "Campeche", "alianza_ganadora": "Juntos Haremos Historia", "margen_pp": 30.466080127972077, "por_participacion": 69.734306865429474 }, "geometry": { "type": "Polygon", "coordinates": [ [ [ -90.24881215505755, 18.166926370768021 ], [ -90.248523140586983, 18.193445830832079 ], [ -90.166771702567758, 18.196095572126577 ], [ -90.167485710998676, 18.565993141703604 ], [ -90.199648527876789, 18.565822784328446 ], [ -90.200979658699737, 18.639066096576265 ], [ -90.183684909157407, 18.638096690710587 ], [ -90.183739032781872, 18.666998755199501 ], [ -90.150518562678911, 18.666814872047766 ], [ -90.149836508412193, 18.833543017042842 ], [ -90.038151282523529, 18.833644756858597 ], [ -90.039435723555243, 19.010355482470885 ], [ -90.15666514860996, 19.021512961735631 ], [ -90.1565267307558, 19.049236167027402 ], [ -89.996114015233559, 19.023530583502225 ], [ -90.006950053889625, 19.053413675150605 ], [ -89.929661375195849, 19.028661218354038 ], [ -89.929821725538687, 19.024767267250148 ], [ -89.777548976247388, 19.031832917423742 ], [ -89.772274462603889, 19.064831248855537 ], [ -89.588109897164443, 19.059997191680772 ], [ -89.575712241014585, 19.1620225296722 ], [ -89.480549462680514, 19.152645581262938 ], [ -89.482133095953429, 19.134513028702536 ], [ -89.47968474498127, 19.134468438345305 ], [ -89.477120748453871, 18.952231453011379 ], [ -89.369032529076193, 18.957082543014341 ], [ -89.301083677194782, 18.953269982788626 ], [ -89.250057032406787, 18.955695796244274 ], [ -89.250116917610981, 18.917504736888194 ], [ -89.264723034621397, 18.871587443179145 ], [ -89.225165756149963, 18.853370839566946 ], [ -89.152069702463379, 18.846455552402844 ], [ -89.166847141460721, 18.834209305506473 ], [ -89.167830220647403, 18.799640457889527 ], [ -89.152151043464698, 18.780110924157302 ], [ -89.151869259002297, 18.47528339229163 ], [ -89.120439458445261, 18.471498874764318 ], [ -89.109201466345709, 18.414716967541274 ], [ -89.113470765914869, 18.41486263215841 ], [ -89.123358818122753, 18.410175397249063 ], [ -89.13138785330581, 18.403673468370311 ], [ -89.138305374831376, 18.403142825900257 ], [ -89.143873888654909, 18.391431562418727 ], [ -89.151670639326539, 18.384929592676382 ], [ -89.152012514019134, 17.815635708161818 ], [ -89.603538549267924, 17.814563901375863 ], [ -90.245521482868071, 17.814721978214557 ], [ -90.235544539664986, 18.105040258720098 ], [ -90.236703231356387, 18.167055501627186 ], [ -90.24881215505755, 18.166926370768021 ] ] ] } },
{ "type": "Feature", "properties": { "cve_edo": "04", "cve_mpo_ine": "002", "cve_edo_mpo_ine": "04002", "nom_mpo": "CALKINI", "nom_edo": "Campeche", "alianza_ganadora": "Juntos Haremos Historia", "margen_pp": 15.519705942413722, "por_participacion": 78.304390930314369 }, "geometry": { "type": "Polygon", "coordinates": [ [ [ -90.122454820233145, 20.267425531714146 ], [ -90.126188145753233, 20.267726632267703 ], [ -90.126669444486183, 20.264144743034009 ], [ -90.135005824295291, 20.265161431663504 ], [ -90.134560882850721, 20.254050595459063 ], [ -90.150347469811535, 20.248774557506042 ], [ -90.156456657968619, 20.252727002152266 ], [ -90.167449075692545, 20.251318607964571 ], [ -90.167383221312548, 20.221216061497575 ], [ -90.200436305070212, 20.221746059337708 ], [ -90.201287519595724, 20.251775669457306 ], [ -90.490714124263462, 20.259641551808475 ], [ -90.489215952853741, 20.300210511421504 ], [ -90.492449772687138, 20.309350543309062 ], [ -90.488831044533399, 20.330048363751651 ], [ -90.496010157267989, 20.340815827969021 ], [ -90.487861543042598, 20.347535884820974 ], [ -90.492474130484879, 20.349610561385543 ], [ -90.482809150028089, 20.375346361327054 ], [ -90.488179777494366, 20.389477485332392 ], [ -90.490732892445521, 20.404394574119678 ], [ -90.485846953179774, 20.409945434323017 ], [ -90.49268729072962, 20.406324123915567 ], [ -90.493942879758606, 20.421966498715236 ], [ -90.483053533052939, 20.423049176707472 ], [ -90.480676994545661, 20.425329434910115 ], [ -90.494262790324669, 20.423789808725708 ], [ -90.496992116166027, 20.435237342638352 ], [ -90.493190697444646, 20.438819921509516 ], [ -90.492683607640956, 20.448071403068074 ], [ -90.487946658389021, 20.451640312208895 ], [ -90.489093128983527, 20.452979578644879 ], [ -90.493014699084654, 20.44923353330605 ], [ -90.495217365298643, 20.450340005550675 ], [ -90.496184196853719, 20.455396696044541 ], [ -90.494156553993051, 20.457764805051852 ], [ -90.500055507368458, 20.454625810554123 ], [ -90.502814807384624, 20.464337707372902 ], [ -90.49967504825031, 20.470244592449603 ], [ -90.494641309286379, 20.470585310841589 ], [ -90.488358086184476, 20.468758441966862 ], [ -90.485635250560563, 20.463841629870021 ], [ -90.482462234357499, 20.464787632207848 ], [ -90.475095028931577, 20.47170727059482 ], [ -90.475041503343263, 20.474847829192779 ], [ -90.476840089629235, 20.472228662019273 ], [ -90.48187948070867, 20.471557882777216 ], [ -90.493429731123058, 20.479991921886175 ], [ -90.500924705406092, 20.472411967362873 ], [ -90.503248466598876, 20.487160347971955 ], [ -90.500689957251481, 20.493240906424262 ], [ -90.501515021425604, 20.499783563710309 ], [ -90.497430515441664, 20.506172697566811 ], [ -90.493495977979364, 20.524385298393547 ], [ -90.48842280799667, 20.533818473396707 ], [ -90.480865780589951, 20.558508576880232 ], [ -90.473466616915502, 20.56699786430363 ], [ -90.469159748040482, 20.579334705015949 ], [ -90.462181239048334, 20.590474797519331 ], [ -90.463190014318087, 20.593052246505902 ], [ -90.45690235777225, 20.60478082512661 ], [ -90.455850637845629, 20.611461172148459 ], [ -90.452537307110305, 20.613561556627143 ], [ -90.452151941184695, 20.615539815166954 ], [ -90.455657886316402, 20.615839561919618 ], [ -90.455246814722713, 20.619305415571667 ], [ -90.446695879854545, 20.639927744244016 ], [ -90.444941801824797, 20.673463293161785 ], [ -90.441681971783055, 20.679118651267505 ], [ -90.441466870809336, 20.68473657409411 ], [ -90.446546499567518, 20.682166813200677 ], [ -90.447159631673941, 20.687301068840267 ], [ -90.443986612262137, 20.701389415693523 ], [ -90.443629350674442, 20.695019011257148 ], [ -90.440653588634305, 20.69778529867866 ], [ -90.441804503393641, 20.719046912297149 ], [ -90.445947223689132, 20.716545988896439 ], [ -90.451996451124714, 20.698697756451175 ], [ -90.450459749132818, 20.684838839555812 ], [ -90.456102563086304, 20.698262579787578 ], [ -90.452348909734027, 20.712094531429756 ], [ -90.449680970634617, 20.717345430161565 ], [ -90.434251355499924, 20.729019133429283 ], [ -90.429816757999291, 20.741434862363107 ], [ -90.430654818095391, 20.747068463552871 ], [ -90.422081305712695, 20.748345127896709 ], [ -90.412301588317092, 20.758199965596383 ], [ -90.407420574810445, 20.769202863460126 ], [ -90.405956089530747, 20.779100043462183 ], [ -90.397830793648509, 20.787986869950448 ], [ -90.39464026351871, 20.809182090622379 ], [ -90.38831152678182, 20.822311232829517 ], [ -90.387421653445529, 20.819652531541781 ], [ -90.385511538227505, 20.821607188925558 ], [ -90.385883806580978, 20.833515874930185 ], [ -90.387966169801444, 20.83503556968153 ], [ -90.387160752648413, 20.827666548099835 ], [ -90.399398541746251, 20.805204082859461 ], [ -90.402835250935269, 20.78988135015932 ], [ -90.408935435754458, 20.7828648690436 ], [ -90.410811144816734, 20.77619765693364 ], [ -90.413866699350436, 20.775665158583937 ], [ -90.415929641082187, 20.778258781677156 ], [ -90.412754001806192, 20.772341908416212 ], [ -90.417419531962722, 20.760260988031416 ], [ -90.427877029102788, 20.751821264649664 ], [ -90.43560195608066, 20.752184896870244 ], [ -90.438768064738085, 20.758679896993748 ], [ -90.438219881530443, 20.763218163112338 ], [ -90.426554928179357, 20.780319888708121 ], [ -90.416478863201476, 20.813398180534143 ], [ -90.405743810113535, 20.837124735864872 ], [ -90.405235193024453, 20.844392513558166 ], [ -90.371045660179519, 20.838500740435915 ], [ -90.375865870179339, 20.547754851642072 ], [ -90.201920303276566, 20.54239998233605 ], [ -90.226731282523659, 20.48427531615074 ], [ -90.231415278088988, 20.466336611665479 ], [ -90.103375843648948, 20.42651221223295 ], [ -90.080666811311318, 20.421716188290148 ], [ -90.04979758271017, 20.457470255112217 ], [ -90.018908646988805, 20.521005845476211 ], [ -89.930384211458914, 20.521140480941046 ], [ -89.930240482418355, 20.428388239389754 ], [ -89.77372687848262, 20.428334097655831 ], [ -89.773781330466534, 20.417467465452376 ], [ -89.783251971879892, 20.417571909199484 ], [ -89.783185193674839, 20.389745979712277 ], [ -89.799970756607905, 20.389765778422998 ], [ -89.872042099034033, 20.298568414054689 ], [ -89.852259274020909, 20.274856373759043 ], [ -89.813167484022202, 20.216308305502618 ], [ -89.849882210813902, 20.15795278247678 ], [ -89.837629571139516, 20.248580553293074 ], [ -89.840683467152758, 20.251030630997938 ], [ -89.875666005040017, 20.253105080624099 ], [ -89.874797167381644, 20.262256884758223 ], [ -89.929583966953771, 20.282323561975868 ], [ -89.977572313228563, 20.321094109097871 ], [ -89.979363748633787, 20.303160322735692 ], [ -89.997943425879697, 20.305499383983442 ], [ -89.993025775586275, 20.337975622624239 ], [ -90.074987108308775, 20.346498765093347 ], [ -90.072163987306482, 20.350031675981285 ], [ -90.074284708955602, 20.352434675556736 ], [ -90.077664175003022, 20.348145931879117 ], [ -90.076504520255824, 20.346590996021455 ], [ -90.080317758905068, 20.346930260208897 ], [ -90.08199799792709, 20.330747716137449 ], [ -90.08706237646453, 20.315957670477637 ], [ -90.091070880315243, 20.316248817997415 ], [ -90.09964909718407, 20.309061291193611 ], [ -90.109565391295192, 20.276871890839303 ], [ -90.121412959213359, 20.278586663002255 ], [ -90.122454820233145, 20.267425531714146 ] ] ] } },
{ "type": "Feature", "properties": { "cve_edo": "04", "cve_mpo_ine": "001", "cve_edo_mpo_ine": "04001", "nom_mpo": "CAMPECHE", "nom_edo": "Campeche", "alianza_ganadora": "Juntos Haremos Historia", "margen_pp": 4.9253420273026363, "por_participacion": 63.273754856941011 }, "geometry": { "type": "MultiPolygon", "coordinates": [ [ [ [ -90.509033200351809, 19.639150623247911 ], [ -90.533432002772656, 19.637313841852158 ], [ -90.553816475181165, 19.656163501738366 ], [ -90.557138868375276, 19.648855870317604 ], [ -90.566035506677821, 19.650733077356044 ], [ -90.56123218165402, 19.65945426595388 ], [ -90.578546725028986, 19.657371605080925 ], [ -90.579663863264358, 19.660449238395593 ], [ -90.621546543058017, 19.680379558436879 ], [ -90.62110880414572, 19.685603877761999 ], [ -90.617865121181822, 19.689722981400241 ], [ -90.614658166808141, 19.71671909471133 ], [ -90.631594289102921, 19.704246011601292 ], [ -90.669620334045121, 19.719963592270926 ], [ -90.66685709806579, 19.726195522915422 ], [ -90.666644757672515, 19.732063385367244 ], [ -90.670152200312714, 19.736273948085064 ], [ -90.667028628815743, 19.741980008364305 ], [ -90.666595416167709, 19.751319093013247 ], [ -90.66322507785533, 19.753141150896756 ], [ -90.661848336184747, 19.759092954902613 ], [ -90.650229359581388, 19.766543592603202 ], [ -90.628138704161941, 19.788025786648404 ], [ -90.623049636786163, 19.787974421487075 ], [ -90.620495910354947, 19.790621186260729 ], [ -90.621766758663043, 19.792338031537618 ], [ -90.613473973917635, 19.796523299776066 ], [ -90.613679419343427, 19.798265488668296 ], [ -90.612130213877762, 19.797106554152904 ], [ -90.604402813164654, 19.805402993899236 ], [ -90.598621936266525, 19.808256621616923 ], [ -90.599164714522487, 19.810514865783972 ], [ -90.596385051462079, 19.811431155388224 ], [ -90.598371983832138, 19.813054205 ], [ -90.593644972838192, 19.812195581087082 ], [ -90.571728949413682, 19.824916842926619 ], [ -90.571447218689386, 19.827544665511986 ], [ -90.570646479008616, 19.826155008147371 ], [ -90.556178634769068, 19.833295163037473 ], [ -90.534615172775929, 19.85313215015357 ], [ -90.521889057201776, 19.858420699998263 ], [ -90.526070890577728, 19.862926929968953 ], [ -90.521516598511496, 19.858616655869916 ], [ -90.488066176130218, 19.876417657487991 ], [ -90.491375842454175, 19.880353733844291 ], [ -90.487988420701569, 19.88310605602285 ], [ -90.484013023080834, 19.894558619076367 ], [ -90.478079449815567, 19.898773024588795 ], [ -90.474936785272988, 19.905333046601225 ], [ -90.477272772616658, 19.902904567920821 ], [ -90.476476810659491, 19.911993927679607 ], [ -90.470682096999724, 19.927115147514503 ], [ -90.46532948750064, 19.931246336537324 ], [ -90.461483808540891, 19.931493903509018 ], [ -90.4571042947032, 19.942525070374508 ], [ -90.372384554545704, 19.942326825308921 ], [ -90.34399123170364, 19.919070072048143 ], [ -90.324501661117381, 19.839564976812245 ], [ -90.286742823746053, 19.835662412350828 ], [ -90.26989873472796, 19.880178281532384 ], [ -90.098875473034227, 19.784432250581485 ], [ -90.057828484633319, 19.729880473738255 ], [ -90.031651133034998, 19.667633812856931 ], [ -89.894063005076205, 19.429448634041584 ], [ -89.865519144925486, 19.376273336959592 ], [ -89.762551985614309, 19.201199231963763 ], [ -90.016632539759271, 19.201096158814309 ], [ -90.194463497723135, 19.211100275695919 ], [ -90.194827928171833, 19.227789747662019 ], [ -90.259931251543691, 19.237349249942255 ], [ -90.275896998087745, 19.4572204844529 ], [ -90.319934111594947, 19.456919526562192 ], [ -90.326295213180614, 19.438332169642262 ], [ -90.360927545922365, 19.443469098649871 ], [ -90.362005598448746, 19.461316991788728 ], [ -90.404884683913806, 19.461160358681358 ], [ -90.483335948742834, 19.604850304391093 ], [ -90.551622246023868, 19.607464517294577 ], [ -90.510963441241515, 19.617454528592919 ], [ -90.509033200351809, 19.639150623247911 ] ] ], [ [ [ -92.001543907456039, 21.003658980743666 ], [ -91.93902403615462, 21.003280761865504 ], [ -91.939388426000718, 20.951652779127144 ], [ -92.001886833953165, 20.952029982879615 ], [ -92.001543907456039, 21.003658980743666 ] ] ], [ [ [ -92.001254574081557, 21.236595193223241 ], [ -91.93863702650377, 21.236212857516939 ], [ -91.939005985394601, 21.184586297561808 ], [ -92.001601774485991, 21.184967616328741 ], [ -92.001254574081557, 21.236595193223241 ] ] ] ] } },
{ "type": "Feature", "properties": { "cve_edo": "04", "cve_mpo_ine": "010", "cve_edo_mpo_ine": "04010", "nom_mpo": "CANDELARIA", "nom_edo": "Campeche", "alianza_ganadora": "Juntos Haremos Historia", "margen_pp": 5.7278293501876361, "por_participacion": 60.814990540824589 }, "geometry": { "type": "Polygon", "coordinates": [ [ [ -90.397413280245928, 18.197559653372963 ], [ -90.283636043515145, 18.198721847951671 ], [ -90.28303462965377, 18.166453738782131 ], [ -90.236703231356387, 18.167055501627186 ], [ -90.235544539664986, 18.105040258720098 ], [ -90.245521482868071, 17.814721978214557 ], [ -90.417554768435366, 17.813685343246636 ], [ -90.500699139733044, 17.816368535680045 ], [ -90.986864375474212, 17.815641184947793 ], [ -90.987809269150844, 17.939262447556708 ], [ -90.983260713345814, 17.94335428749357 ], [ -90.987531032284139, 17.943316050837172 ], [ -90.987271225457789, 17.955648410131893 ], [ -90.993333074177542, 17.960347540767128 ], [ -90.993956818637002, 17.96623182234492 ], [ -91.132005265407358, 17.965796925559008 ], [ -91.133488523547811, 17.956787023119226 ], [ -91.151665713739476, 17.962260738155429 ], [ -91.149652732658737, 17.966960580065425 ], [ -91.172144543838812, 17.968499807470099 ], [ -91.172276759711153, 17.966927996901326 ], [ -91.180140021607372, 17.965594897079118 ], [ -91.18072863490103, 17.975370042842158 ], [ -91.185249419318325, 17.973591214787369 ], [ -91.19408002156392, 17.979055746495284 ], [ -91.198616501963315, 17.975786463192225 ], [ -91.200679308823069, 17.977213230643741 ], [ -91.21247600984691, 17.975087584256478 ], [ -91.225674122846797, 17.982495500578569 ], [ -91.2376463451766, 17.985751626499681 ], [ -91.242900837374336, 17.991181332852339 ], [ -91.250019578873179, 18.006232148579567 ], [ -91.28273923327211, 18.024659435948259 ], [ -91.286255962101635, 18.030900564683883 ], [ -91.294061061401507, 18.035606641149506 ], [ -91.299995031026086, 18.042696986893436 ], [ -91.3208196537243, 18.050580403387229 ], [ -91.324939338556476, 18.054425094187287 ], [ -91.324548753520247, 18.058892756565893 ], [ -91.329817877177021, 18.063326980845407 ], [ -91.347989264957803, 18.063502667618454 ], [ -91.354432779086011, 18.068031646663002 ], [ -91.361810958041218, 18.069335706403855 ], [ -91.366901056810789, 18.065253933126456 ], [ -91.372546765051894, 18.067173296904187 ], [ -91.385075442667997, 18.063525622234899 ], [ -91.390372052596035, 18.066395201231593 ], [ -91.393643525700085, 18.071203919635987 ], [ -91.393282931458941, 18.075506226273806 ], [ -91.399439045807455, 18.080239927075919 ], [ -91.407809049062138, 18.078441605318957 ], [ -91.417893699857672, 18.081488599667765 ], [ -91.425225213480388, 18.079728197202208 ], [ -91.434674483740665, 18.083186501812566 ], [ -91.384069020177193, 18.083532982339982 ], [ -91.382300149321594, 18.132411408859156 ], [ -91.324119643839637, 18.119496169952775 ], [ -91.299044320555055, 18.096694011569948 ], [ -91.24548290828578, 18.09678044872172 ], [ -91.245468338746036, 18.206663616924605 ], [ -91.21596208290218, 18.206418274572506 ], [ -91.211030096283281, 18.21502422485068 ], [ -91.201369937332117, 18.222982000296476 ], [ -91.196573552682494, 18.239600854796183 ], [ -91.199914205130653, 18.269106591040575 ], [ -91.124194747448144, 18.281971050302172 ], [ -91.131811409254865, 18.29448093583856 ], [ -91.097719722313741, 18.366417207112043 ], [ -91.040174699755553, 18.365099306798268 ], [ -91.040439045120209, 18.348128169555185 ], [ -90.975238403667078, 18.348200321660912 ], [ -90.947692045618851, 18.30950716133438 ], [ -90.945411555164029, 18.286348922315295 ], [ -90.88307949279455, 18.26828225126523 ], [ -90.881302365842771, 18.274227936349945 ], [ -90.813283167620384, 18.260147871939218 ], [ -90.798796231098351, 18.333531455949203 ], [ -90.690881125727671, 18.333740088625095 ], [ -90.690067129157455, 18.442046561297733 ], [ -90.345395688859085, 18.443959587384555 ], [ -90.397413280245928, 18.197559653372963 ] ] ] } },
{ "type": "Feature", "properties": { "cve_edo": "04", "cve_mpo_ine": "003", "cve_edo_mpo_ine": "04003", "nom_mpo": "CARMEN", "nom_edo": "Campeche", "alianza_ganadora": "Juntos Haremos Historia", "margen_pp": 21.780820546697495, "por_participacion": 54.602541330782891 }, "geometry": { "type": "MultiPolygon", "coordinates": [ [ [ [ -91.841557622464478, 18.50235848174794 ], [ -91.837940559260261, 18.504795527515068 ], [ -91.833142340971904, 18.500363776334844 ], [ -91.820339245297973, 18.49790584674146 ], [ -91.805287803755562, 18.499303240377099 ], [ -91.798541809305974, 18.493609411538554 ], [ -91.790064035477428, 18.496319962303147 ], [ -91.79606053196153, 18.488955607730716 ], [ -91.800462658201099, 18.488345457580877 ], [ -91.80011004644345, 18.480164584831435 ], [ -91.807560811138615, 18.476368059683779 ], [ -91.809811401980298, 18.472346670318853 ], [ -91.809311814469226, 18.466476750278304 ], [ -91.819852992972201, 18.456272603547387 ], [ -91.815804000824627, 18.447801846407863 ], [ -91.805073440740685, 18.463537449168289 ], [ -91.813763124633624, 18.444805173055247 ], [ -91.827140131199286, 18.447269884738283 ], [ -91.833839867418973, 18.438920972716261 ], [ -91.833702586564101, 18.431816226608799 ], [ -91.837536185319891, 18.430372764435273 ], [ -91.833489992477638, 18.430409705033956 ], [ -91.833052647878219, 18.43726017470112 ], [ -91.825643002694278, 18.446839938452278 ], [ -91.814016316815383, 18.443156163603 ], [ -91.807252511049555, 18.456211479287276 ], [ -91.813109288697376, 18.441824304554533 ], [ -91.825787077140902, 18.444694101012924 ], [ -91.824346983010471, 18.439969849957002 ], [ -91.820429336930872, 18.439016820238397 ], [ -91.820110053245926, 18.436948316627763 ], [ -91.824636232747309, 18.435595591706814 ], [ -91.830470558171172, 18.440204411646128 ], [ -91.831880691473103, 18.429730760262476 ], [ -91.837153888944172, 18.427818471826928 ], [ -91.834738455443343, 18.423403193128923 ], [ -91.82821952959462, 18.426881107073292 ], [ -91.822447533106882, 18.426320104265109 ], [ -91.823790544001838, 18.429639150149985 ], [ -91.820672261721242, 18.429438557605952 ], [ -91.808212759514134, 18.418972236834406 ], [ -91.804832637645205, 18.421081056263841 ], [ -91.804976928087527, 18.418935242312827 ], [ -91.816258244918885, 18.413695299965127 ], [ -91.82065326907346, 18.422169973255013 ], [ -91.829532361491204, 18.423757343947564 ], [ -91.834410963773081, 18.420515864666854 ], [ -91.834116835258513, 18.419191489289432 ], [ -91.86445418173642, 18.500463735075552 ], [ -91.863342322571128, 18.498968538505522 ], [ -91.859584036291636, 18.503386729315981 ], [ -91.841557622464478, 18.50235848174794 ] ] ], [ [ [ -91.786338898207134, 18.477386599386531 ], [ -91.786069711730107, 18.471433739132546 ], [ -91.788274727654709, 18.470798411365092 ], [ -91.787541269042976, 18.473847342404017 ], [ -91.79058779751351, 18.470742762529898 ], [ -91.793076183502151, 18.474986152261383 ], [ -91.791678197353804, 18.47579621279149 ], [ -91.795936195639896, 18.477333229684167 ], [ -91.795095422228698, 18.48864444843155 ], [ -91.791336654497755, 18.493145572784396 ], [ -91.7749942192346, 18.487252486681619 ], [ -91.779512751159501, 18.486561802007536 ], [ -91.78308039622064, 18.479001192626008 ], [ -91.786338898207134, 18.477386599386531 ] ] ], [ [ [ -91.821139677935136, 18.420358404837067 ], [ -91.816740274368044, 18.412214072966314 ], [ -91.804297901515895, 18.417853739703599 ], [ -91.81182840006467, 18.407863182300879 ], [ -91.812397396601767, 18.399857944732251 ], [ -91.80384249134228, 18.391418156996888 ], [ -91.798286284093052, 18.392097866701587 ], [ -91.792883312956008, 18.389970951514638 ], [ -91.790289072358277, 18.385233206442816 ], [ -91.790159037024637, 18.377715583365909 ], [ -91.785346531892387, 18.37468672819351 ], [ -91.77611157555755, 18.374001838270132 ], [ -91.760603089654879, 18.375803860437237 ], [ -91.751189504289897, 18.379740938781467 ], [ -91.745938176764696, 18.375054099026002 ], [ -91.745065962176014, 18.37124454028131 ], [ -91.73988069256761, 18.370192451061929 ], [ -91.740521818895971, 18.365574744523698 ], [ -91.733876967455544, 18.361449356458156 ], [ -91.734637132709409, 18.356585295218434 ], [ -91.732784258693584, 18.356893807663894 ], [ -91.732583911814942, 18.354661412821617 ], [ -91.726234929717009, 18.354255986091633 ], [ -91.726405150660085, 18.350293509154792 ], [ -91.723207220404092, 18.347612639403337 ], [ -91.718081161142408, 18.350690367233675 ], [ -91.717615655623405, 18.342590681506096 ], [ -91.71000919102309, 18.341261268160491 ], [ -91.704075690790205, 18.344246398907647 ], [ -91.69998257318143, 18.334706756977976 ], [ -91.693462628305667, 18.334704127549188 ], [ -91.688173458215928, 18.341330123823241 ], [ -91.69749021311884, 18.33599087424734 ], [ -91.697089508549354, 18.339867943091647 ], [ -91.700644914818668, 18.34172757467098 ], [ -91.703682002027534, 18.347628010326879 ], [ -91.710563801757118, 18.342919743681392 ], [ -91.71122017487022, 18.345570549628693 ], [ -91.716650391548853, 18.345552575072041 ], [ -91.717251960178785, 18.352167195604622 ], [ -91.723986162123779, 18.349769302034769 ], [ -91.723765683969958, 18.357365292429197 ], [ -91.728344367421926, 18.360475464306631 ], [ -91.729300950767097, 18.366516106520304 ], [ -91.734947767186881, 18.375998470420914 ], [ -91.736654325122984, 18.386342795154761 ], [ -91.75996626456886, 18.397105704155717 ], [ -91.761789180102966, 18.399026635738682 ], [ -91.759877349914476, 18.40362958938303 ], [ -91.760317792823855, 18.413711187369032 ], [ -91.765958748200617, 18.423853424137132 ], [ -91.77211755603247, 18.429954426499815 ], [ -91.778923972067091, 18.430941912465794 ], [ -91.782974111354648, 18.439165602582001 ], [ -91.795466670158106, 18.447156106515163 ], [ -91.792372546701117, 18.453728044974437 ], [ -91.780765239444449, 18.448638368451356 ], [ -91.778112020607523, 18.439687480370313 ], [ -91.770804779488955, 18.432995147414708 ], [ -91.753228698360019, 18.433450759177621 ], [ -91.744473437093333, 18.439707650189735 ], [ -91.747902233753422, 18.450980653489605 ], [ -91.753272505941467, 18.455586318130507 ], [ -91.760960518759731, 18.4598059700939 ], [ -91.766749051744299, 18.459212767396426 ], [ -91.775845993718278, 18.461878969742102 ], [ -91.784658477449952, 18.468505970297919 ], [ -91.77876922793439, 18.485039136872079 ], [ -91.769714704992424, 18.487659499558045 ], [ -91.730748466456873, 18.470930952412633 ], [ -91.692956101235325, 18.461724727897749 ], [ -91.657541326229193, 18.456339433001542 ], [ -91.616411326014884, 18.446664495886793 ], [ -91.580754901775052, 18.442418368539638 ], [ -91.534588778210988, 18.445463559968623 ], [ -91.526736641841339, 18.452630027282645 ], [ -91.523643440812293, 18.450773116445156 ], [ -91.52415656871581, 18.447393658219713 ], [ -91.519894141433952, 18.446430034700317 ], [ -91.513223445418873, 18.452454995543935 ], [ -91.520203595988534, 18.448911669445351 ], [ -91.522836916078035, 18.450597508192324 ], [ -91.522208312807564, 18.46165610645199 ], [ -91.518249946112519, 18.471184958773076 ], [ -91.512425428519549, 18.481763070456861 ], [ -91.501267570471697, 18.493262382448254 ], [ -91.460050052204195, 18.510579960297331 ], [ -91.428199652412218, 18.519929476084489 ], [ -91.412984059679474, 18.529235167622385 ], [ -91.388064018786224, 18.538216841523553 ], [ -91.361083435453565, 18.544782412487127 ], [ -91.336231452110738, 18.545824568847173 ], [ -91.32381896067001, 18.552874063479745 ], [ -91.309013098379808, 18.557635377760931 ], [ -91.305563381389646, 18.573881009325742 ], [ -91.293485268174237, 18.599149391490727 ], [ -91.296925858770052, 18.604337223618415 ], [ -91.296120399701508, 18.606306426025412 ], [ -91.296233952747642, 18.604277951817181 ], [ -91.29435166030953, 18.605473187575566 ], [ -91.296685267390856, 18.615192788435319 ], [ -91.293978698753094, 18.621134343711617 ], [ -91.289916162017562, 18.621734391203344 ], [ -91.287676349731939, 18.62540774042283 ], [ -91.283642258952668, 18.624971957379469 ], [ -91.280431215400711, 18.630319855055351 ], [ -91.281943928134567, 18.632058669361381 ], [ -91.281973197902033, 18.637282983511962 ], [ -91.279579137302392, 18.640247460278079 ], [ -91.280892939822905, 18.649194619424147 ], [ -91.272919910404497, 18.659476911280592 ], [ -91.275980400599735, 18.667971819424896 ], [ -91.270562385562741, 18.673635451635199 ], [ -91.249697985818457, 18.681675176224172 ], [ -91.244696134566865, 18.693111207976532 ], [ -91.238871865622457, 18.709127215942988 ], [ -91.241163746726002, 18.711964544756928 ], [ -91.236960031682514, 18.727898305216126 ], [ -91.239951371022457, 18.740910604176346 ], [ -91.238200007862957, 18.745632316593863 ], [ -91.235388598788688, 18.746885486067661 ], [ -91.244484623869923, 18.751161179113996 ], [ -91.247940960650723, 18.760550084174167 ], [ -91.258155947993899, 18.766643789286498 ], [ -91.269287326187722, 18.781842447129108 ], [ -91.277689290341797, 18.78526493745866 ], [ -91.290739990046944, 18.79577719739536 ], [ -91.300851484261202, 18.792774478621972 ], [ -91.310087433321783, 18.786039434510901 ], [ -91.326564612680201, 18.765845104449848 ], [ -91.330793572181747, 18.77838444848258 ], [ -91.344956994926648, 18.77518587728321 ], [ -91.352046687762581, 18.781646059013802 ], [ -91.351656467255935, 18.784864743517225 ], [ -91.353088210679772, 18.781659998612458 ], [ -91.365808117305932, 18.78257375456305 ], [ -91.367729433395326, 18.786071245703322 ], [ -91.365566792224655, 18.78331452437526 ], [ -91.362079613014231, 18.784425365581992 ], [ -91.36835695847401, 18.791122145920614 ], [ -91.365317193408629, 18.793396294757187 ], [ -91.364882800747566, 18.791241227042143 ], [ -91.362431549605816, 18.792779183940659 ], [ -91.365302924439163, 18.794470745267986 ], [ -91.371937000733993, 18.791748390239146 ], [ -91.373563629014825, 18.800036480571219 ], [ -91.377543502296689, 18.805462505979747 ], [ -91.37410163978808, 18.811864694596007 ], [ -91.388666778975207, 18.804700337524146 ], [ -91.391549495822417, 18.805565017482127 ], [ -91.382663837485211, 18.820988686474482 ], [ -91.3802319486133, 18.829801620149848 ], [ -91.377096606543503, 18.830504022884622 ], [ -91.371473724457886, 18.826709414781007 ], [ -91.369666060046711, 18.832058558834262 ], [ -91.365842678047599, 18.832255620444766 ], [ -91.369886608599842, 18.832888139309045 ], [ -91.37226758480152, 18.827959939839211 ], [ -91.377759458633818, 18.832910095384616 ], [ -91.381972704684202, 18.829494023172291 ], [ -91.384987622921614, 18.820358111547687 ], [ -91.384055282569548, 18.829604257718152 ], [ -91.371440370746583, 18.837951348794508 ], [ -91.368821081463963, 18.843372334893498 ], [ -91.359167144081198, 18.846632725822428 ], [ -91.357977439674983, 18.849014068790652 ], [ -91.356137253625121, 18.848080134916614 ], [ -91.358084380653352, 18.849676811590204 ], [ -91.360310507050471, 18.847722645089892 ], [ -91.358376508852587, 18.853813919240903 ], [ -91.355574713271807, 18.855512353039334 ], [ -91.35835774281415, 18.855218955553021 ], [ -91.366386136209854, 18.861030031656071 ], [ -91.364948331694833, 18.864648067502063 ], [ -91.357265832770437, 18.86760392387005 ], [ -91.354653693172182, 18.863766394514908 ], [ -91.344054096990092, 18.859738841565036 ], [ -91.3294824137364, 18.866899164845123 ], [ -91.343918317028852, 18.861224956585517 ], [ -91.34724483048457, 18.863584281230427 ], [ -91.348116713118216, 18.867646514324314 ], [ -91.348491795808826, 18.865584965868607 ], [ -91.352210111322051, 18.864642927397124 ], [ -91.357444358528312, 18.871574177516106 ], [ -91.360914650161277, 18.871868607759154 ], [ -91.354261676538073, 18.87574737879806 ], [ -91.362821283781258, 18.876523275321325 ], [ -91.357640294159609, 18.882901736474061 ], [ -91.338713325759457, 18.895129387562854 ], [ -91.307578555090004, 18.91049488599662 ], [ -91.293775248860968, 18.920307661117185 ], [ -91.21576850409609, 18.956249613328712 ], [ -91.213819354093488, 18.954816754800067 ], [ -91.207123312743747, 18.961251572329438 ], [ -91.153652539811034, 18.988999076547806 ], [ -91.132777687134919, 19.005804124283141 ], [ -91.123443522589426, 19.010047797946509 ], [ -91.113227569885908, 19.011219724847052 ], [ -91.109947514304267, 19.013568247337258 ], [ -91.110338176075544, 19.018450636922168 ], [ -91.106502056450552, 19.019220429485994 ], [ -91.105501254420332, 19.016395364180333 ], [ -91.099868866406339, 19.021023153214088 ], [ -91.097094129891929, 19.020568682038711 ], [ -91.102134303733706, 19.024528235124734 ], [ -91.100067721729474, 19.030944589554267 ], [ -91.114147164248152, 19.027268291669657 ], [ -91.121407455343885, 19.014481203479949 ], [ -91.139910099672477, 19.009380058053079 ], [ -91.140136882800192, 19.001861712346553 ], [ -91.153821261623236, 18.993299651712579 ], [ -91.161937326884626, 18.993004177949107 ], [ -91.164288305251716, 18.998658880605493 ], [ -91.168384419950826, 18.995907832950806 ], [ -91.176136257016225, 18.996763672255231 ], [ -91.182564908345626, 18.992971363036951 ], [ -91.184217392127664, 18.994720562339939 ], [ -91.183278014816977, 18.991741759309267 ], [ -91.188538160192365, 18.980575900913554 ], [ -91.204312076847884, 18.971461137202294 ], [ -91.206144285901331, 18.972975093535641 ], [ -91.218405643610211, 18.958188157995568 ], [ -91.223494268116838, 18.958838825667495 ], [ -91.22345011581082, 18.953796011691111 ], [ -91.239768567240574, 18.946834746213664 ], [ -91.250473513527936, 18.951779152649312 ], [ -91.244261525549575, 18.94863368751486 ], [ -91.245599690121537, 18.944106176886852 ], [ -91.259824619696829, 18.937609612825689 ], [ -91.261178703988136, 18.940190953588914 ], [ -91.256979964317736, 18.942198894708351 ], [ -91.258688469274347, 18.944289239024215 ], [ -91.268536927414203, 18.935912346059315 ], [ -91.267110138653436, 18.938537649766538 ], [ -91.270032295495156, 18.936677062156786 ], [ -91.26947455571559, 18.943447475640067 ], [ -91.271175595582221, 18.937767522577513 ], [ -91.274906180711255, 18.936083394878487 ], [ -91.27757476603135, 18.935789719664488 ], [ -91.279471564943847, 18.941023603917358 ], [ -91.282136790834869, 18.940977803870389 ], [ -91.280556440710654, 18.937980161465592 ], [ -91.284665320238673, 18.934069215411917 ], [ -91.285890230210683, 18.937640548282332 ], [ -91.288943483097029, 18.926275420914923 ], [ -91.295369363098672, 18.922313452126748 ], [ -91.297884382800319, 18.924745186974789 ], [ -91.296112955741279, 18.92720069699784 ], [ -91.297793411484818, 18.931356856630192 ], [ -91.298919939393684, 18.925255373486248 ], [ -91.302829454635074, 18.927375537681115 ], [ -91.302305953366954, 18.923317940828124 ], [ -91.309139273823249, 18.923411482653307 ], [ -91.313164085034188, 18.917101484215802 ], [ -91.313690102739869, 18.920993778679257 ], [ -91.317714429056636, 18.923197864106168 ], [ -91.315084430933297, 18.920682150986899 ], [ -91.314687735433793, 18.915799676756901 ], [ -91.318235386129956, 18.910474978929741 ], [ -91.327361758353902, 18.903738031481161 ], [ -91.341911216163837, 18.898479058406103 ], [ -91.351760786921872, 18.889518636503517 ], [ -91.363078228247261, 18.883305149261087 ], [ -91.368491720172202, 18.876846960702164 ], [ -91.369876814376653, 18.877196080350817 ], [ -91.367993347514911, 18.879485565197879 ], [ -91.372522445938614, 18.878553945256069 ], [ -91.375498398323003, 18.87247637921276 ], [ -91.375926473632006, 18.875127328757948 ], [ -91.377919003315426, 18.873335187807758 ], [ -91.378013983860782, 18.874907073009808 ], [ -91.375911784075129, 18.884964184720964 ], [ -91.370711922912108, 18.884068330415353 ], [ -91.368124792423529, 18.887009745335817 ], [ -91.370112370905417, 18.894310682661906 ], [ -91.364584718764689, 18.900602023469609 ], [ -91.371044292951538, 18.893909783843764 ], [ -91.370692135876752, 18.885556020556397 ], [ -91.372870315023633, 18.887238314943357 ], [ -91.376935320385982, 18.886383084273021 ], [ -91.379193778141612, 18.873269450006916 ], [ -91.383251822722386, 18.88167239342997 ], [ -91.381335649076519, 18.886441519752804 ], [ -91.385914079500452, 18.890552771845915 ], [ -91.386188265992502, 18.887332486315909 ], [ -91.38306169100143, 18.887291057386641 ], [ -91.384687237334461, 18.878219504024738 ], [ -91.390744752121421, 18.884334174475871 ], [ -91.391831571010272, 18.880959280342175 ], [ -91.394381241110466, 18.88082761302325 ], [ -91.391869674178238, 18.878066516305967 ], [ -91.399643020500605, 18.877011715715877 ], [ -91.403439283823275, 18.878962956938782 ], [ -91.401738130885064, 18.876212637225144 ], [ -91.393508183313145, 18.87676551335479 ], [ -91.393347298566582, 18.871390173260544 ], [ -91.39694326574056, 18.870941607652849 ], [ -91.403977169930684, 18.864420951118156 ], [ -91.406018049189314, 18.867754365882014 ], [ -91.406998375394409, 18.863633966240631 ], [ -91.409352122799845, 18.869616745726148 ], [ -91.414369244634798, 18.85786128075009 ], [ -91.424902021121355, 18.849318824651444 ], [ -91.428037298837793, 18.839687682906547 ], [ -91.432957200480956, 18.8352875950842 ], [ -91.434769345610718, 18.829441777174772 ], [ -91.441324262865194, 18.832915947703547 ], [ -91.443316680876038, 18.831040358119065 ], [ -91.442238664896763, 18.824826431225219 ], [ -91.441479327998238, 18.829859286662725 ], [ -91.433044638767768, 18.828510085941527 ], [ -91.434177057392176, 18.821498119100525 ], [ -91.431344490426909, 18.825677371869418 ], [ -91.433270184781875, 18.819998366550667 ], [ -91.43009782073436, 18.823594530300998 ], [ -91.429201653304062, 18.821268235191855 ], [ -91.430369359566242, 18.811528758333335 ], [ -91.417649895947307, 18.801443320044996 ], [ -91.421157497735976, 18.798761046659642 ], [ -91.436791052258343, 18.798302646167507 ], [ -91.440869582539563, 18.796206032738734 ], [ -91.439795018514772, 18.798754823177919 ], [ -91.44862840827831, 18.795975415582724 ], [ -91.4429147467619, 18.799208446772905 ], [ -91.434681111765485, 18.80034200199788 ], [ -91.433778290595441, 18.807522304465142 ], [ -91.436372427798048, 18.812846564954004 ], [ -91.439871516243386, 18.810825162416716 ], [ -91.448541147676679, 18.811846365281298 ], [ -91.440574509211217, 18.810172914081306 ], [ -91.437081822758714, 18.8116984141462 ], [ -91.435007060444562, 18.801999556668843 ], [ -91.444391853414075, 18.801376845654367 ], [ -91.448262156604486, 18.797458707943068 ], [ -91.447644316597561, 18.800509432806944 ], [ -91.449432250461058, 18.796481765610025 ], [ -91.453965123318753, 18.795052038256642 ], [ -91.45231205105479, 18.797593480729947 ], [ -91.455191892428999, 18.798705153996281 ], [ -91.454576278030586, 18.801590602665161 ], [ -91.456698652595165, 18.798559160104546 ], [ -91.454882611507841, 18.795725159934594 ], [ -91.458013922237399, 18.79526933739016 ], [ -91.455478172953264, 18.794410129115622 ], [ -91.460947370030681, 18.792165567157927 ], [ -91.463328537912034, 18.796081422855732 ], [ -91.461903922034494, 18.79887388355397 ], [ -91.457384684562314, 18.799229300775028 ], [ -91.460137280251487, 18.801248610188377 ], [ -91.457546675217429, 18.804687422819718 ], [ -91.452685317891763, 18.804624990775491 ], [ -91.457860219603532, 18.807336799093289 ], [ -91.451942267700048, 18.808418125223906 ], [ -91.45366373081859, 18.809597597056683 ], [ -91.449330234410041, 18.813509869519365 ], [ -91.457851794942684, 18.807998029387694 ], [ -91.454787479157346, 18.81225738593217 ], [ -91.45544297250656, 18.815324491430406 ], [ -91.459989981656491, 18.803726744575194 ], [ -91.467985922731259, 18.803085041154208 ], [ -91.465440555786572, 18.802969844372079 ], [ -91.468151962244264, 18.799119114964153 ], [ -91.465518182875044, 18.796853436111139 ], [ -91.468887266750443, 18.795904463796905 ], [ -91.462324678966539, 18.793092544175312 ], [ -91.468947400791976, 18.782017046933056 ], [ -91.494948963413066, 18.781245742396436 ], [ -91.499973899867783, 18.784101383425849 ], [ -91.498465119742121, 18.791662581157695 ], [ -91.478732632783561, 18.804627353796022 ], [ -91.445208318414757, 18.83701678284709 ], [ -91.403722775328433, 18.883843925706401 ], [ -91.388968733237519, 18.896049067617728 ], [ -91.33690930531624, 18.925772943096302 ], [ -91.293418590365192, 18.946175740756289 ], [ -91.242873585290639, 18.964898122949414 ], [ -91.216508011116488, 18.977503341351632 ], [ -91.184134287239203, 18.996630840685253 ], [ -91.123879719657054, 19.027494402761242 ], [ -91.111274048165114, 19.036272680281961 ], [ -91.1103706956943, 19.044407054438672 ], [ -91.048874295012723, 19.000065058063079 ], [ -91.000190217373984, 19.000498519023669 ], [ -91.000003735791324, 18.96628980524434 ], [ -90.891220757686867, 18.900787983554334 ], [ -90.917286636240803, 18.883948142694916 ], [ -90.884493225637087, 18.850450571802238 ], [ -90.858825660349297, 18.868777565558339 ], [ -90.865234303072626, 18.651549771450199 ], [ -90.921797832499934, 18.65210513564627 ], [ -90.940767706941642, 18.660667558049834 ], [ -90.945780040373364, 18.625696464682228 ], [ -90.951404155980995, 18.626098555651083 ], [ -90.958911505714042, 18.604525505344132 ], [ -90.972827237993428, 18.605717095486984 ], [ -90.975543218110076, 18.586343607151075 ], [ -90.981051915727136, 18.586911520193578 ], [ -90.989754143208529, 18.582103731855561 ], [ -90.986372198130454, 18.573602392527441 ], [ -90.971323895830352, 18.556307270051068 ], [ -90.977820508049049, 18.551148403164323 ], [ -90.980852257471611, 18.528622886978017 ], [ -90.974226286432213, 18.519863101906981 ], [ -90.973512911938272, 18.511708536668628 ], [ -90.969418121129692, 18.507274038215815 ], [ -90.966705806939615, 18.508253237914655 ], [ -90.966886294418174, 18.483893190826155 ], [ -90.937737101166391, 18.48390317500818 ], [ -90.937441362070004, 18.458774564744971 ], [ -91.022484130096601, 18.458829805144365 ], [ -91.032986381852325, 18.444758252980275 ], [ -91.036407411479175, 18.44249498430726 ], [ -91.043112784023535, 18.442632537687874 ], [ -91.047313929586736, 18.439398430444118 ], [ -91.055665172426274, 18.418800714954067 ], [ -91.03652407092433, 18.410855299445668 ], [ -91.028094528948259, 18.400505930688404 ], [ -91.0001961592111, 18.40058283911014 ], [ -91.000240599503343, 18.348217475895854 ], [ -91.040439045120209, 18.348128169555185 ], [ -91.040174699755553, 18.365099306798268 ], [ -91.097719722313741, 18.366417207112043 ], [ -91.131811409254865, 18.29448093583856 ], [ -91.124194747448144, 18.281971050302172 ], [ -91.199914205130653, 18.269106591040575 ], [ -91.196573552682494, 18.239600854796183 ], [ -91.201369937332117, 18.222982000296476 ], [ -91.211030096283281, 18.21502422485068 ], [ -91.21596208290218, 18.206418274572506 ], [ -91.245468338746036, 18.206663616924605 ], [ -91.24548290828578, 18.09678044872172 ], [ -91.299044320555055, 18.096694011569948 ], [ -91.324119643839637, 18.119496169952775 ], [ -91.382300149321594, 18.132411408859156 ], [ -91.384069020177193, 18.083532982339982 ], [ -91.434674483740665, 18.083186501812566 ], [ -91.439625690583583, 18.086302232500142 ], [ -91.444732487383533, 18.095128472549483 ], [ -91.449206059800161, 18.094052396775698 ], [ -91.451779944407065, 18.097255876246663 ], [ -91.459792973102608, 18.09402934809539 ], [ -91.464545917423791, 18.088552603494637 ], [ -91.470290291416916, 18.090457014799807 ], [ -91.470059073661616, 18.084020252651772 ], [ -91.493610756441683, 18.08978036234382 ], [ -91.498333238351336, 18.092645891245652 ], [ -91.502868853615439, 18.100559214182042 ], [ -91.504450090064154, 18.112935098218774 ], [ -91.509286602776058, 18.116586866214433 ], [ -91.506276197067564, 18.120263199630624 ], [ -91.508178545000078, 18.120887971836904 ], [ -91.507823825524042, 18.123990675899972 ], [ -91.505519263612172, 18.12274433989716 ], [ -91.502972225262269, 18.125718154647632 ], [ -91.505852554099434, 18.127420937483407 ], [ -91.505324666074443, 18.130523257737039 ], [ -91.502618893714256, 18.128282911265682 ], [ -91.499845080109381, 18.12976652455114 ], [ -91.499126801990002, 18.138992540560395 ], [ -91.495324039828844, 18.136956577057344 ], [ -91.502577313611809, 18.143220773436155 ], [ -91.499282387021225, 18.145241154433727 ], [ -91.500027236565415, 18.147146235525614 ], [ -91.50458633747219, 18.147073418977815 ], [ -91.501343391382918, 18.151121529033443 ], [ -91.505066619524868, 18.161143434123435 ], [ -91.503440522336888, 18.164781271318681 ], [ -91.507224273433181, 18.17047265118233 ], [ -91.515893506265371, 18.169608056630018 ], [ -91.520651445715359, 18.160224922383577 ], [ -91.524920148212061, 18.160978632294352 ], [ -91.531048991023695, 18.156687719423125 ], [ -91.531506327785394, 18.158343839858439 ], [ -91.532492419254183, 18.156442372765937 ], [ -91.532948793208519, 18.158470906753191 ], [ -91.535432447033898, 18.157689705667924 ], [ -91.535938806741214, 18.16269768213435 ], [ -91.540641542667814, 18.164960046762939 ], [ -91.542103911561114, 18.160410690947014 ], [ -91.545355654501705, 18.161545127796622 ], [ -91.555193495534297, 18.155248738128162 ], [ -91.565061117250579, 18.158279037330995 ], [ -91.571633594531349, 18.155594001925046 ], [ -91.579747622263596, 18.156777986408109 ], [ -91.581392795183177, 18.153300097238336 ], [ -91.578063692948078, 18.14407743918332 ], [ -91.578654519324616, 18.139285909304743 ], [ -91.589643731874588, 18.132608385198214 ], [ -91.594822282872329, 18.123534625418792 ], [ -91.588493232217232, 18.109255952254014 ], [ -91.591697070778068, 18.105478452061767 ], [ -91.59946466593307, 18.106952705239408 ], [ -91.607206350368671, 18.099800806813885 ], [ -91.610213931631918, 18.093754287798546 ], [ -91.605833637738229, 18.083589983515566 ], [ -91.607161312853179, 18.071405340270204 ], [ -91.614114242798365, 18.066610991873965 ], [ -91.618734461993441, 18.059933998710083 ], [ -91.618336398173824, 18.054736332529981 ], [ -91.614149662756532, 18.052495325072432 ], [ -91.616312790903407, 18.048930843321248 ], [ -91.613258743491954, 18.044205576783103 ], [ -91.614844646959341, 18.034866838938413 ], [ -91.613362432829248, 18.031162514460906 ], [ -91.618536296939226, 18.016185642694605 ], [ -91.619484678359058, 18.006768691268096 ], [ -91.616561826728443, 18.003569707449657 ], [ -91.616122357062949, 17.988260306077898 ], [ -91.620097450444007, 17.9750250530135 ], [ -91.62157545664202, 17.960734029652837 ], [ -91.620030099525593, 17.956452373857594 ], [ -91.623427910102023, 17.937496752914889 ], [ -91.622091460444224, 17.931013291912578 ], [ -91.624402087449496, 17.925012356926359 ], [ -91.615080550162858, 17.911704938852122 ], [ -91.608606221557324, 17.910568215282957 ], [ -91.608456561947904, 17.90424719114106 ], [ -91.616956065567337, 17.890889789897322 ], [ -91.624155195858933, 17.894223705893264 ], [ -91.637121785816149, 17.873164644590886 ], [ -91.677662653182679, 17.893344378040876 ], [ -91.6877955061899, 17.916048429234497 ], [ -91.699323737858705, 17.918704496396039 ], [ -91.69973021603731, 17.91648277128299 ], [ -91.703757202642464, 17.916959363328733 ], [ -91.705538798050398, 17.915104012243606 ], [ -91.708769120304524, 17.917296054925202 ], [ -91.708381317685735, 17.920965139357975 ], [ -91.720804748059862, 17.923691799496414 ], [ -91.733563495661343, 17.933171350259066 ], [ -91.736277706727009, 17.927413408189395 ], [ -91.743896567031896, 17.928786327638342 ], [ -91.71537047908609, 17.963476964620551 ], [ -91.741594350847478, 18.042430662505769 ], [ -91.789477744663785, 18.20421660062679 ], [ -91.789352106581902, 18.213302390380058 ], [ -91.803769176712194, 18.213388685714406 ], [ -91.813240862785989, 18.250601717447278 ], [ -91.82396536893134, 18.250597288525761 ], [ -91.823523700839871, 18.255798327425776 ], [ -91.830743505192629, 18.263063976997724 ], [ -91.832589576906258, 18.2712093306328 ], [ -91.831275683162247, 18.285325862704571 ], [ -91.835114329976221, 18.289352139550946 ], [ -91.835245926773851, 18.295134406460367 ], [ -91.834636564673232, 18.299591222159588 ], [ -91.82918059271033, 18.303650442379379 ], [ -91.834379814375083, 18.311194264295391 ], [ -91.832850789220259, 18.315067998068681 ], [ -91.826244081243303, 18.318501495997612 ], [ -91.842165513163707, 18.397567705746074 ], [ -91.833830515879498, 18.417902253413558 ], [ -91.83290146731926, 18.41371878866423 ], [ -91.832235230336863, 18.420401492456904 ], [ -91.827233006442043, 18.422822769111001 ], [ -91.821139677935136, 18.420358404837067 ] ], [ [ -91.4879924622239, 18.45385244153692 ], [ -91.485300405071285, 18.456013529338378 ], [ -91.48317024957322, 18.452061835166568 ], [ -91.487893234641973, 18.442233368306283 ], [ -91.486283900007237, 18.441760531132463 ], [ -91.484391312073669, 18.448023739747107 ], [ -91.480369852045158, 18.450252520723705 ], [ -91.478318821729488, 18.448534296591674 ], [ -91.479854632808582, 18.446442990125018 ], [ -91.472568132989238, 18.443508081366691 ], [ -91.467332032817652, 18.445846902747689 ], [ -91.467137749518102, 18.450640695280747 ], [ -91.469684661878418, 18.45732601340989 ], [ -91.467827281984782, 18.461398128600347 ], [ -91.473134198407521, 18.472373141106097 ], [ -91.469941620927656, 18.487386513148095 ], [ -91.473566114506866, 18.495324329657997 ], [ -91.473356619638224, 18.483456039345004 ], [ -91.476007652975341, 18.47678812085741 ], [ -91.485623297017369, 18.478674184018328 ], [ -91.491488306527543, 18.473241079153258 ], [ -91.502492017584885, 18.481138123286414 ], [ -91.509593520314098, 18.470246625956307 ], [ -91.506658277588045, 18.465583529463416 ], [ -91.509185303316286, 18.459009463742156 ], [ -91.507430425941308, 18.460390600933216 ], [ -91.503545792449628, 18.457366841313043 ], [ -91.512523558816767, 18.452810251179443 ], [ -91.492832963039831, 18.454526817742241 ], [ -91.492940547667473, 18.465649847970496 ], [ -91.489064185986905, 18.462505564295 ], [ -91.4879924622239, 18.45385244153692 ] ] ], [ [ [ -92.307280844495295, 18.433991497491036 ], [ -92.314674891061998, 18.443297759761453 ], [ -92.321022046699753, 18.457071479413607 ], [ -92.330161449973971, 18.460670075205066 ], [ -92.337457055298557, 18.457966783831385 ], [ -92.347311616540679, 18.444507333231968 ], [ -92.35263779939973, 18.442623726246843 ], [ -92.359345599299488, 18.447122251944645 ], [ -92.358755394921843, 18.457389151906671 ], [ -92.362452214155439, 18.463863311014489 ], [ -92.376103865892944, 18.470872790113571 ], [ -92.384777672153263, 18.479104726490682 ], [ -92.401215289482622, 18.479994572327801 ], [ -92.412785552211375, 18.487573452138175 ], [ -92.426353804948789, 18.515137362933512 ], [ -92.423179091864085, 18.54082753122016 ], [ -92.426089985680804, 18.557652644757759 ], [ -92.438338591492169, 18.580613358937843 ], [ -92.447764602126128, 18.593081375744461 ], [ -92.452099368217915, 18.604720344714227 ], [ -92.464182664595398, 18.616131481471673 ], [ -92.465887978707727, 18.621913127836745 ], [ -92.463700288670751, 18.635798195239332 ], [ -92.467323552614616, 18.653426535367135 ], [ -92.412121969637724, 18.66344344441173 ], [ -92.323890689721978, 18.672923950634509 ], [ -92.265472196860898, 18.674582175922492 ], [ -92.181869823423952, 18.687853960412653 ], [ -92.02586535162628, 18.704231976007279 ], [ -91.976408665700532, 18.705696511138999 ], [ -91.957021524409271, 18.700616842483317 ], [ -91.945649074096281, 18.693556760030891 ], [ -91.928319946494341, 18.672555471985657 ], [ -91.919390815421266, 18.646688680582503 ], [ -91.909004512606558, 18.635342329253081 ], [ -91.887533158187892, 18.622221319826494 ], [ -91.876716120066348, 18.61755871378611 ], [ -91.861827491758973, 18.61458447394735 ], [ -91.85549244545598, 18.610448695036219 ], [ -91.868307512897729, 18.579223756608314 ], [ -91.881256251156984, 18.56210526553614 ], [ -91.885175998258845, 18.563139777329866 ], [ -91.884086770461039, 18.566844521071218 ], [ -91.888437220092158, 18.570361592819065 ], [ -91.882136287078694, 18.574504289507452 ], [ -91.879253736184097, 18.582649260550827 ], [ -91.885833485644099, 18.583795852078936 ], [ -91.886707494785128, 18.587770079630985 ], [ -91.887897514547177, 18.585222777448426 ], [ -91.891951682560318, 18.584854534817545 ], [ -91.891328158971376, 18.579396372747926 ], [ -91.894560706894168, 18.579927556471208 ], [ -91.896815089679009, 18.575574802486251 ], [ -91.900750152913261, 18.575452837938787 ], [ -91.902759152468718, 18.572171050781904 ], [ -91.903239470226879, 18.566920590094004 ], [ -91.897104548193269, 18.561285382575431 ], [ -91.898093564726821, 18.556172910375661 ], [ -91.894622682753294, 18.556216941250618 ], [ -91.899528725676802, 18.552387569315886 ], [ -91.900263152963859, 18.541418087526278 ], [ -91.894008377702235, 18.542092737088819 ], [ -91.873555887858387, 18.53162479596498 ], [ -91.870314629706598, 18.531836550869574 ], [ -91.861834862719107, 18.525795175212011 ], [ -91.859269145446362, 18.527418404565363 ], [ -91.856001217289673, 18.520856825561683 ], [ -91.850442010078098, 18.52145525136736 ], [ -91.852417023885224, 18.511978988291943 ], [ -91.850500198465141, 18.508240705271518 ], [ -91.852383874432562, 18.505701390075707 ], [ -91.860957475639566, 18.504475809996755 ], [ -91.862355800500765, 18.512503164403054 ], [ -91.871541685863463, 18.51756120271164 ], [ -91.877010864145817, 18.514978856473281 ], [ -91.880423175955883, 18.510473893099206 ], [ -91.878895519197783, 18.503436351800563 ], [ -91.865128188283848, 18.501370101513139 ], [ -91.864961010028225, 18.501145290807592 ], [ -92.123978654438829, 18.50070495812038 ], [ -92.124392954318637, 18.434793948748059 ], [ -92.307280844495295, 18.433991497491036 ] ] ], [ [ [ -91.683373114491502, 18.673371916426731 ], [ -91.675748571765965, 18.664194200789176 ], [ -91.664352181260782, 18.659842821729047 ], [ -91.65866411877974, 18.661011880710973 ], [ -91.661614091675418, 18.648990016783248 ], [ -91.688001624917831, 18.63262854982267 ], [ -91.696568348169421, 18.632401815484954 ], [ -91.700222016184753, 18.635914701640363 ], [ -91.710512940589396, 18.636534025565012 ], [ -91.722123309374965, 18.642124015538489 ], [ -91.731506291492209, 18.641492497002705 ], [ -91.720229236341538, 18.645157259251341 ], [ -91.721825008566256, 18.646910737029653 ], [ -91.713700699124303, 18.648547937723951 ], [ -91.709480464651563, 18.652379067441128 ], [ -91.706823241994812, 18.660275835805233 ], [ -91.700520664521889, 18.663999089212236 ], [ -91.692285602436726, 18.681573875944991 ], [ -91.687409441507356, 18.682588428860011 ], [ -91.68785399438363, 18.667562435738223 ], [ -91.685588657180148, 18.664066160251107 ], [ -91.685601291248986, 18.671334238118682 ], [ -91.683373114491502, 18.673371916426731 ] ] ], [ [ [ -91.564442486382674, 18.723753038583812 ], [ -91.561841506908962, 18.727353517576983 ], [ -91.564608679439417, 18.728132252875554 ], [ -91.56924026523545, 18.720345775121476 ], [ -91.573753551726497, 18.720485982636554 ], [ -91.574621914033855, 18.724378637149872 ], [ -91.572046938180264, 18.726245279542837 ], [ -91.574122038104065, 18.726849865841444 ], [ -91.585596241804836, 18.718241633689114 ], [ -91.588814225504493, 18.719851602433469 ], [ -91.58620280544848, 18.724195604225503 ], [ -91.589157644050346, 18.727949499213121 ], [ -91.602671595468394, 18.730184987581705 ], [ -91.590659795947715, 18.743825261944341 ], [ -91.59516157516137, 18.744790712687703 ], [ -91.594313364397394, 18.74734018393038 ], [ -91.59918814461021, 18.746575930471177 ], [ -91.59485446562357, 18.742061451223627 ], [ -91.598877318674425, 18.744094387412112 ], [ -91.611752936512374, 18.734676371462704 ], [ -91.627461123644167, 18.72942213446737 ], [ -91.627031726030538, 18.727104311733708 ], [ -91.612587846237489, 18.72510667499898 ], [ -91.615635264527796, 18.714656228660012 ], [ -91.612724736203418, 18.707847531364695 ], [ -91.616798929088759, 18.706329416520209 ], [ -91.61908740627247, 18.708174993759062 ], [ -91.618773906696816, 18.705858605582023 ], [ -91.612991276955356, 18.705455824094827 ], [ -91.632763849565521, 18.691167166627078 ], [ -91.639237099881669, 18.68381453503504 ], [ -91.641385944136715, 18.687309886454504 ], [ -91.639042508545941, 18.689262981246692 ], [ -91.642965715450799, 18.690137463773915 ], [ -91.642687699058058, 18.693354986285581 ], [ -91.645037116092411, 18.690988977044864 ], [ -91.652876602783891, 18.69323306672101 ], [ -91.648447165761894, 18.687314608820831 ], [ -91.641408623738712, 18.685740979766901 ], [ -91.640528100348448, 18.682591699077165 ], [ -91.663843210079563, 18.66305757695325 ], [ -91.668931477616908, 18.663367643094894 ], [ -91.670843381287142, 18.66727273214476 ], [ -91.678550034771661, 18.670670350093033 ], [ -91.679556354814963, 18.67316030120978 ], [ -91.672863140000629, 18.679851038049822 ], [ -91.663549992261792, 18.683536171728832 ], [ -91.663836882006251, 18.687751748310212 ], [ -91.658787783916836, 18.692727699836976 ], [ -91.666165852957391, 18.686789223600694 ], [ -91.665760805860742, 18.682737378596521 ], [ -91.673425322195754, 18.681014158671605 ], [ -91.68081177814976, 18.674414431413322 ], [ -91.68274870768127, 18.67658533122275 ], [ -91.678992931991246, 18.688349960597108 ], [ -91.66440240217068, 18.696760920866172 ], [ -91.645842666579597, 18.699340410861033 ], [ -91.642707923951178, 18.707973442781082 ], [ -91.633838165436984, 18.704890215157164 ], [ -91.632777241831093, 18.706198440815928 ], [ -91.642104084671686, 18.70970032628091 ], [ -91.648838978921788, 18.700285909810507 ], [ -91.664157897222282, 18.697666404359623 ], [ -91.679315470491233, 18.690088274162999 ], [ -91.682605988002976, 18.678483163359548 ], [ -91.688753631004857, 18.693919561659328 ], [ -91.693651193521234, 18.699595040369299 ], [ -91.69178639128387, 18.692304533903773 ], [ -91.696412653186584, 18.692608300775625 ], [ -91.703068293047679, 18.688559147440753 ], [ -91.709525477709633, 18.690371277905136 ], [ -91.710932962330716, 18.689066744775111 ], [ -91.705518641322328, 18.687184634647636 ], [ -91.693534237687786, 18.69149980292628 ], [ -91.690194061981032, 18.690303074634762 ], [ -91.687847798298392, 18.684328137142511 ], [ -91.694731253641351, 18.680529805340708 ], [ -91.702218151936108, 18.666745040521153 ], [ -91.711847860546513, 18.66512646058159 ], [ -91.715600794394874, 18.653360975944278 ], [ -91.720243398630643, 18.652425437660707 ], [ -91.72616173856099, 18.659598923679521 ], [ -91.733000916819051, 18.658854436609889 ], [ -91.750655249232381, 18.646013981702374 ], [ -91.769292980216392, 18.637230242162008 ], [ -91.786740611139464, 18.634720565605257 ], [ -91.793438301978568, 18.637894485609372 ], [ -91.795154713205505, 18.641008336812956 ], [ -91.800221014489878, 18.640488339779015 ], [ -91.803222814978, 18.642870792134044 ], [ -91.802600657254231, 18.638665251430652 ], [ -91.8075698732045, 18.637950510770253 ], [ -91.810745996922066, 18.644001643568643 ], [ -91.808381765312404, 18.637668527697116 ], [ -91.803983256739428, 18.636672113226254 ], [ -91.812147984614171, 18.636343429016001 ], [ -91.805666942070332, 18.633584438150187 ], [ -91.81976774635163, 18.628940447030949 ], [ -91.822844881879092, 18.631270593020865 ], [ -91.820533164232899, 18.636731916240805 ], [ -91.826329458271417, 18.627794358070123 ], [ -91.82537602162931, 18.630196133858341 ], [ -91.831866645615264, 18.631501617515763 ], [ -91.839023080804594, 18.640199651610487 ], [ -91.844701535958094, 18.643390848253521 ], [ -91.843846481379344, 18.646570780271446 ], [ -91.839260490844168, 18.649087836480884 ], [ -91.847422396305404, 18.645066316189904 ], [ -91.845225546274435, 18.649125016168529 ], [ -91.841074401366967, 18.650360254534636 ], [ -91.843678717493262, 18.655555530960267 ], [ -91.842677274032113, 18.651142157151263 ], [ -91.845442229397975, 18.654133407144695 ], [ -91.844696697701551, 18.650213155204273 ], [ -91.84855400904695, 18.650209056496696 ], [ -91.847676827440651, 18.64765710345533 ], [ -91.850676250811759, 18.649580542204937 ], [ -91.84899143654259, 18.65639348412574 ], [ -91.841266675825864, 18.66334797919162 ], [ -91.788660059882474, 18.667952008274646 ], [ -91.731497728045696, 18.683696483226079 ], [ -91.699659656929299, 18.700411008906546 ], [ -91.698876505854741, 18.706678395011398 ], [ -91.661436965625143, 18.717867350484255 ], [ -91.652323250472762, 18.723618965047361 ], [ -91.649714517338779, 18.727881377708155 ], [ -91.6299952226627, 18.738290651219806 ], [ -91.559657377982987, 18.764984826834315 ], [ -91.531515424842055, 18.780312445093795 ], [ -91.526358039900188, 18.769096337453469 ], [ -91.510029949046043, 18.753852538863434 ], [ -91.513507014498018, 18.746052506437756 ], [ -91.515842747939089, 18.744490065480132 ], [ -91.515636152583468, 18.743107292008169 ], [ -91.523001070493649, 18.738496065098388 ], [ -91.521028024963513, 18.738800683250609 ], [ -91.521877259167425, 18.736251613407841 ], [ -91.518466096454091, 18.739758273927002 ], [ -91.520032550276213, 18.735732043040358 ], [ -91.512416015246842, 18.741661223259406 ], [ -91.51623997067145, 18.733865649897712 ], [ -91.51808715628286, 18.734220117903739 ], [ -91.516652772774009, 18.737174449981634 ], [ -91.521089479219654, 18.734754806164442 ], [ -91.526283838607426, 18.735813498249897 ], [ -91.522016008181794, 18.742364733138118 ], [ -91.539769872417793, 18.724509081334443 ], [ -91.549814324148826, 18.718692559731586 ], [ -91.559673232961245, 18.717497921142108 ], [ -91.564442486382674, 18.723753038583812 ] ] ], [ [ [ -91.436918484935248, 18.797394960455843 ], [ -91.432779514197975, 18.795192033301653 ], [ -91.439254531474418, 18.795771831587107 ], [ -91.436918484935248, 18.797394960455843 ] ] ], [ [ [ -91.416862541968911, 18.835326115889156 ], [ -91.395549127651407, 18.827193373172101 ], [ -91.394361161948311, 18.829492351232414 ], [ -91.392595869039084, 18.822855862688826 ], [ -91.394886311468895, 18.815942156994218 ], [ -91.40289257839278, 18.814559442997346 ], [ -91.403448650011669, 18.816302719685947 ], [ -91.400175159617447, 18.818739696269443 ], [ -91.408780141888258, 18.824721854332488 ], [ -91.406537271927348, 18.819153862730467 ], [ -91.410747470832206, 18.815902369738609 ], [ -91.410700607419358, 18.810611140608504 ], [ -91.414505256235159, 18.811818201368276 ], [ -91.41582229454589, 18.817374023984918 ], [ -91.413492183251918, 18.818500906290474 ], [ -91.422981866143346, 18.818790033667053 ], [ -91.426852321332774, 18.823883029661058 ], [ -91.426747468282571, 18.827458723258914 ], [ -91.427992807869302, 18.825220514195685 ], [ -91.424488813620698, 18.818644315319386 ], [ -91.416989486102835, 18.816645266958496 ], [ -91.414062677658009, 18.810241765671122 ], [ -91.410949321053835, 18.809291739789828 ], [ -91.414330703138802, 18.807434622555675 ], [ -91.415546141224922, 18.802986526469475 ], [ -91.420283046896159, 18.80370963230547 ], [ -91.419439616760329, 18.806261293553863 ], [ -91.429058975196213, 18.810491373147823 ], [ -91.427924059528664, 18.821582303537078 ], [ -91.432322339079889, 18.830650042729726 ], [ -91.427486256550992, 18.837531198167028 ], [ -91.426604565885825, 18.832331698980656 ], [ -91.426437930748307, 18.838013561427523 ], [ -91.424154950720848, 18.838725780714515 ], [ -91.420805002855133, 18.834881561089201 ], [ -91.416862541968911, 18.835326115889156 ] ] ], [ [ [ -91.377966358364674, 18.861018812035635 ], [ -91.371020633652904, 18.860843801022355 ], [ -91.370712824324002, 18.857863787641012 ], [ -91.374355657388847, 18.853861697441143 ], [ -91.378134671826729, 18.857053149123953 ], [ -91.38787499005862, 18.84726240631726 ], [ -91.405499405598988, 18.845427905623556 ], [ -91.399996408691891, 18.850067528313076 ], [ -91.412494175747568, 18.841799612365477 ], [ -91.415706692912408, 18.844073594499253 ], [ -91.414485926181413, 18.840007015625133 ], [ -91.40331380554457, 18.844324560503196 ], [ -91.406188412142114, 18.837005063684714 ], [ -91.397331911365114, 18.832507425978743 ], [ -91.396109489463882, 18.82860606280747 ], [ -91.413634026508717, 18.834291938685983 ], [ -91.418658962556762, 18.839648193506804 ], [ -91.418588287615464, 18.836175302933775 ], [ -91.421362385716805, 18.836542147175646 ], [ -91.424658585636834, 18.841297050030491 ], [ -91.420115665316686, 18.843387165118703 ], [ -91.422762323585658, 18.844661658982044 ], [ -91.425570829792733, 18.842383583227758 ], [ -91.421201503643601, 18.848939942275976 ], [ -91.413961035939849, 18.853639993797156 ], [ -91.410106207490614, 18.865080032862259 ], [ -91.404192476398521, 18.856818572020021 ], [ -91.397746518068715, 18.862685685552588 ], [ -91.389448280481503, 18.859682933886056 ], [ -91.3831153328222, 18.865716323082466 ], [ -91.377966358364674, 18.861018812035635 ] ] ] ] } },
{ "type": "Feature", "properties": { "cve_edo": "04", "cve_mpo_ine": "004", "cve_edo_mpo_ine": "04004", "nom_mpo": "CHAMPOTON", "nom_edo": "Campeche", "alianza_ganadora": "Juntos Haremos Historia", "margen_pp": 14.619541404994889, "por_participacion": 61.570418862291604 }, "geometry": { "type": "Polygon", "coordinates": [ [ [ -90.703687047766664, 19.480480980179397 ], [ -90.700132843821081, 19.479447946917237 ], [ -90.672675216088678, 19.483852148601546 ], [ -90.672906145158777, 19.490834110086258 ], [ -90.63846717708789, 19.486892070815408 ], [ -90.637875713024172, 19.494519250834429 ], [ -90.639937691572669, 19.494878090042235 ], [ -90.637568464504, 19.534705657781942 ], [ -90.614458284720584, 19.539640385813339 ], [ -90.594534727358948, 19.539590315736152 ], [ -90.590562015198742, 19.548250399773 ], [ -90.59116280002398, 19.566190005722831 ], [ -90.589235902647104, 19.56619335196611 ], [ -90.592246356137039, 19.595163998180585 ], [ -90.566683728824103, 19.59229587119879 ], [ -90.567111752439288, 19.599129153363702 ], [ -90.551608804093163, 19.60854680630155 ], [ -90.483335948742834, 19.604850304391093 ], [ -90.404884683913806, 19.461160358681358 ], [ -90.362005598448746, 19.461316991788728 ], [ -90.360927545922365, 19.443469098649871 ], [ -90.326295213180614, 19.438332169642262 ], [ -90.319934111594947, 19.456919526562192 ], [ -90.275896998087745, 19.4572204844529 ], [ -90.259931251543691, 19.237349249942255 ], [ -90.194827928171833, 19.227789747662019 ], [ -90.194463497723135, 19.211100275695919 ], [ -90.016632539759271, 19.201096158814309 ], [ -89.92267194364662, 19.20117540898876 ], [ -89.929661375195849, 19.028661218354038 ], [ -90.006950053889625, 19.053413675150605 ], [ -89.996114015233559, 19.023530583502225 ], [ -90.1565267307558, 19.049236167027402 ], [ -90.15666514860996, 19.021512961735631 ], [ -90.152095681942413, 19.021456142950814 ], [ -90.152346173851555, 18.990036378893048 ], [ -90.13462474564362, 18.989728172380698 ], [ -90.134441786885475, 18.953025018970891 ], [ -90.100008599425692, 18.951888962838932 ], [ -90.100471980643732, 18.908250113356612 ], [ -90.147705366821171, 18.908301592527433 ], [ -90.147959583308207, 18.940000377436494 ], [ -90.1532987585651, 18.940283286974189 ], [ -90.156839637497271, 18.907798809365225 ], [ -90.300163965130039, 18.927770041893133 ], [ -90.299659950963459, 18.801180712179271 ], [ -90.333381918852211, 18.801258995425883 ], [ -90.466655640643921, 18.81668225474461 ], [ -90.473331690137684, 18.572799961136649 ], [ -90.533369255164729, 18.574797541186857 ], [ -90.554919775509688, 18.677394244087068 ], [ -90.555009677026234, 18.688961964997759 ], [ -90.641871463444218, 18.693401159149818 ], [ -90.686429155225028, 18.714637499998474 ], [ -90.667425226284948, 18.805236599884619 ], [ -90.708330964000595, 18.796159289193003 ], [ -90.710960166054733, 18.80264035847464 ], [ -90.719684036413156, 18.801324219356072 ], [ -90.721631791398124, 18.787948765722287 ], [ -90.731458646710166, 18.786638457412785 ], [ -90.724579291858049, 18.75279027932838 ], [ -90.739159657983421, 18.737102731018922 ], [ -90.798615359156528, 18.777774068111977 ], [ -90.800495718820315, 18.774302714231286 ], [ -90.806804503991046, 18.778150094429108 ], [ -90.798321593620273, 18.797169857077353 ], [ -90.798184189486335, 18.810017784228659 ], [ -90.760345214134517, 18.820997492178702 ], [ -90.759882638618052, 18.829698596936424 ], [ -90.775837969169132, 18.833726088201473 ], [ -90.816576529394794, 18.833659782262991 ], [ -90.81529450942044, 18.867951730423087 ], [ -90.858825660349297, 18.868777565558339 ], [ -90.884493225637087, 18.850450571802238 ], [ -90.917286636240803, 18.883948142694916 ], [ -90.891220757686867, 18.900787983554334 ], [ -91.000003735791324, 18.96628980524434 ], [ -91.000190217373984, 19.000498519023669 ], [ -91.048874295012723, 19.000065058063079 ], [ -91.1103706956943, 19.044407054438672 ], [ -91.091628616141236, 19.056130068998822 ], [ -91.077813967596086, 19.069828884070201 ], [ -91.035403285230842, 19.09628086810573 ], [ -90.995514094550671, 19.117969081854369 ], [ -90.978390158141821, 19.131123774896661 ], [ -90.929148770347496, 19.161040538732323 ], [ -90.879456646250105, 19.201353520347755 ], [ -90.833735221787634, 19.246335088488411 ], [ -90.804852869065371, 19.266180210696852 ], [ -90.764629442381604, 19.3018615698807 ], [ -90.739320539753081, 19.330816013825874 ], [ -90.727582798740031, 19.354715821927485 ], [ -90.722629638547687, 19.358422837630204 ], [ -90.722495293033248, 19.374552150645677 ], [ -90.725974169471399, 19.383708467064238 ], [ -90.725564277750948, 19.400090705581942 ], [ -90.713415058235682, 19.428636258125557 ], [ -90.706275423594192, 19.461234731601344 ], [ -90.70693849465205, 19.471494094744603 ], [ -90.703687047766664, 19.480480980179397 ] ] ] } },
{ "type": "Feature", "properties": { "cve_edo": "04", "cve_mpo_ine": "012", "cve_edo_mpo_ine": "04012", "nom_mpo": "DZITBALCHE", "nom_edo": "Campeche", "alianza_ganadora": "Juntos Haremos Historia", "margen_pp": 16.42274472168906, "por_participacion": 72.663877266387715 }, "geometry": { "type": "Polygon", "coordinates": [ [ [ -90.122454820233145, 20.267425531714146 ], [ -90.121412959213359, 20.278586663002255 ], [ -90.109565391295192, 20.276871890839303 ], [ -90.09964909718407, 20.309061291193611 ], [ -90.091070880315243, 20.316248817997415 ], [ -90.08706237646453, 20.315957670477637 ], [ -90.08199799792709, 20.330747716137449 ], [ -90.080317758905068, 20.346930260208897 ], [ -90.076504520255824, 20.346590996021455 ], [ -90.077664175003022, 20.348145931879117 ], [ -90.074284708955602, 20.352434675556736 ], [ -90.072163987306482, 20.350031675981285 ], [ -90.074987108308775, 20.346498765093347 ], [ -89.993025775586275, 20.337975622624239 ], [ -89.997943425879697, 20.305499383983442 ], [ -89.979363748633787, 20.303160322735692 ], [ -89.977572313228563, 20.321094109097871 ], [ -89.929583966953771, 20.282323561975868 ], [ -89.874797167381644, 20.262256884758223 ], [ -89.875666005040017, 20.253105080624099 ], [ -89.840683467152758, 20.251030630997938 ], [ -89.837629571139516, 20.248580553293074 ], [ -89.855532069993359, 20.11275299652802 ], [ -89.90205846300951, 20.115811709758905 ], [ -89.889768848608099, 20.138832438822092 ], [ -89.965011186208997, 20.157433280414704 ], [ -89.940801891382989, 20.195795253996785 ], [ -89.935331526786044, 20.225994524844019 ], [ -89.961283282354515, 20.23086628168754 ], [ -89.962059994355357, 20.216319467272456 ], [ -89.980963805997291, 20.225109973772323 ], [ -89.980133891235155, 20.212764993329593 ], [ -89.996147578173748, 20.213075759226367 ], [ -89.997373806823504, 20.168453838172006 ], [ -90.025306719348578, 20.171355320463256 ], [ -90.030234421757442, 20.176633745894009 ], [ -90.029887851416248, 20.205582811334814 ], [ -90.041064838541487, 20.208567561126451 ], [ -90.052746883119298, 20.206170022224104 ], [ -90.061999721004938, 20.211165182170006 ], [ -90.061427819538181, 20.215471600691707 ], [ -90.063500210927529, 20.215413713811603 ], [ -90.068036825062237, 20.231780388491408 ], [ -90.068869492255288, 20.252883388368986 ], [ -90.089312767819024, 20.25608916670825 ], [ -90.088035034389065, 20.258689285176825 ], [ -90.093515409629333, 20.260968286359805 ], [ -90.092365854674995, 20.264921786186477 ], [ -90.122454820233145, 20.267425531714146 ] ] ] } },
{ "type": "Feature", "properties": { "cve_edo": "04", "cve_mpo_ine": "009", "cve_edo_mpo_ine": "04009", "nom_mpo": "ESCARCEGA", "nom_edo": "Campeche", "alianza_ganadora": "Juntos Haremos Historia", "margen_pp": 5.9412602913236228, "por_participacion": 59.351140554889938 }, "geometry": { "type": "Polygon", "coordinates": [ [ [ -90.24881215505755, 18.166926370768021 ], [ -90.28303462965377, 18.166453738782131 ], [ -90.283636043515145, 18.198721847951671 ], [ -90.397413280245928, 18.197559653372963 ], [ -90.345395688859085, 18.443959587384555 ], [ -90.690067129157455, 18.442046561297733 ], [ -90.690881125727671, 18.333740088625095 ], [ -90.798796231098351, 18.333531455949203 ], [ -90.813283167620384, 18.260147871939218 ], [ -90.881302365842771, 18.274227936349945 ], [ -90.88307949279455, 18.26828225126523 ], [ -90.945411555164029, 18.286348922315295 ], [ -90.947692045618851, 18.30950716133438 ], [ -90.975238403667078, 18.348200321660912 ], [ -91.000240599503343, 18.348217475895854 ], [ -91.0001961592111, 18.40058283911014 ], [ -91.028094528948259, 18.400505930688404 ], [ -91.03652407092433, 18.410855299445668 ], [ -91.055665172426274, 18.418800714954067 ], [ -91.047313929586736, 18.439398430444118 ], [ -91.043112784023535, 18.442632537687874 ], [ -91.036407411479175, 18.44249498430726 ], [ -91.032986381852325, 18.444758252980275 ], [ -91.022484130096601, 18.458829805144283 ], [ -90.937441362070004, 18.458774564744971 ], [ -90.937737101166391, 18.48390317500818 ], [ -90.966886294418174, 18.483893190826155 ], [ -90.966705806939615, 18.508253237914655 ], [ -90.969418121129692, 18.507274038215815 ], [ -90.973512911938272, 18.511708536668628 ], [ -90.974226286432213, 18.519863101906981 ], [ -90.980852257471611, 18.528622886978017 ], [ -90.977820508049049, 18.551148403164323 ], [ -90.971323895830352, 18.556307270051068 ], [ -90.986372198130454, 18.573602392527441 ], [ -90.989754143208529, 18.582103731855561 ], [ -90.981051915727136, 18.586911520193578 ], [ -90.975543218110076, 18.586343607151075 ], [ -90.972827237993428, 18.605717095486984 ], [ -90.958911505714042, 18.604525505344132 ], [ -90.951404155980995, 18.626098555651083 ], [ -90.945780040373364, 18.625696464682228 ], [ -90.940767706941642, 18.660667558049834 ], [ -90.921797832499934, 18.65210513564627 ], [ -90.865234303072626, 18.651549771450199 ], [ -90.858825660349297, 18.868777565558339 ], [ -90.81529450942044, 18.867951730423087 ], [ -90.816576529394794, 18.833659782262991 ], [ -90.775837969169132, 18.833726088201473 ], [ -90.759882638618052, 18.829698596936424 ], [ -90.760345214134517, 18.820997492178702 ], [ -90.798184189486335, 18.810017784228659 ], [ -90.798321593620273, 18.797169857077353 ], [ -90.806804503991046, 18.778150094429108 ], [ -90.800495718820315, 18.774302714231286 ], [ -90.798615359156528, 18.777774068111977 ], [ -90.739159657983421, 18.737102731018922 ], [ -90.724579291858049, 18.75279027932838 ], [ -90.731458646710166, 18.786638457412785 ], [ -90.721631791398124, 18.787948765722287 ], [ -90.719684036413156, 18.801324219356072 ], [ -90.710960166054733, 18.80264035847464 ], [ -90.708330964000595, 18.796159289193003 ], [ -90.667425226284948, 18.805236599884619 ], [ -90.686429155225028, 18.714637499998474 ], [ -90.641871463444218, 18.693401159149818 ], [ -90.555009677026234, 18.688961964997759 ], [ -90.554919775509688, 18.677394244087068 ], [ -90.533369255164757, 18.574797541186857 ], [ -90.473331690137684, 18.572799961136649 ], [ -90.466655640643921, 18.81668225474461 ], [ -90.333381918852211, 18.801258995425883 ], [ -90.299659950963459, 18.801180712179271 ], [ -90.300163965130039, 18.927770041893133 ], [ -90.156839637497271, 18.907798809365225 ], [ -90.1532987585651, 18.940283286974189 ], [ -90.147959583308207, 18.940000377436494 ], [ -90.147705366821171, 18.908301592527433 ], [ -90.100471980643732, 18.908250113356612 ], [ -90.100008599425692, 18.951888962838932 ], [ -90.134441786885475, 18.953025018970891 ], [ -90.13462474564362, 18.989728172380698 ], [ -90.152346173851555, 18.990036378893048 ], [ -90.152095681942413, 19.021456142950814 ], [ -90.039435723555243, 19.010355482470885 ], [ -90.038151282523529, 18.833644756858597 ], [ -90.149836508412193, 18.833543017042842 ], [ -90.150518562678911, 18.666814872047766 ], [ -90.183739032781872, 18.666998755199501 ], [ -90.183684909157407, 18.638096690710587 ], [ -90.200979658699737, 18.639066096576265 ], [ -90.199648527876789, 18.565822784328446 ], [ -90.167485710998676, 18.565993141703604 ], [ -90.166771702567758, 18.196095572126577 ], [ -90.248523140586983, 18.193445830832079 ], [ -90.24881215505755, 18.166926370768021 ] ] ] } },
{ "type": "Feature", "properties": { "cve_edo": "04", "cve_mpo_ine": "005", "cve_edo_mpo_ine": "04005", "nom_mpo": "HECELCHAKAN", "nom_edo": "Campeche", "alianza_ganadora": "Juntos Haremos Historia", "margen_pp": 12.113047466177482, "por_participacion": 74.658677509094801 }, "geometry": { "type": "Polygon", "coordinates": [ [ [ -90.092365854674995, 20.264921786186477 ], [ -90.093515409629333, 20.260968286359805 ], [ -90.088035034389065, 20.258689285176825 ], [ -90.089312767819024, 20.25608916670825 ], [ -90.068869492255288, 20.252883388368986 ], [ -90.068036825062237, 20.231780388491408 ], [ -90.063500210927529, 20.215413713811603 ], [ -90.061427819538181, 20.215471600691707 ], [ -90.061999721004938, 20.211165182170006 ], [ -90.052746883119298, 20.206170022224104 ], [ -90.041064838541487, 20.208567561126451 ], [ -90.029887851416248, 20.205582811334814 ], [ -90.030234421757442, 20.176633745894009 ], [ -90.025306719348578, 20.171355320463256 ], [ -89.997373806823504, 20.168453838172006 ], [ -89.996147578173748, 20.213075759226367 ], [ -89.980133891235155, 20.212764993329593 ], [ -89.980963805997291, 20.225109973772323 ], [ -89.962059994355357, 20.216319467272456 ], [ -89.961283282354515, 20.23086628168754 ], [ -89.935331526786044, 20.225994524844019 ], [ -89.940801891382989, 20.195795253996785 ], [ -89.965011186208997, 20.157433280414704 ], [ -89.889768848608099, 20.138832438822092 ], [ -89.90205846300951, 20.115811709758905 ], [ -89.8581131618797, 20.112922850355197 ], [ -89.857765164036124, 20.080700950048165 ], [ -89.850834262659092, 20.080576593536371 ], [ -89.850493862926427, 20.016959966742291 ], [ -90.02368175281633, 19.898982256102922 ], [ -90.105876666038213, 19.996129000927873 ], [ -90.106772948263171, 20.024316561317317 ], [ -90.14717955110541, 20.028776999351781 ], [ -90.146632163597644, 20.05274519551223 ], [ -90.287437584263884, 20.085457024409635 ], [ -90.286729694276616, 20.105126222462157 ], [ -90.478854419343506, 20.110970071243308 ], [ -90.481009533925814, 20.122049114439168 ], [ -90.495767386730179, 20.158015355135827 ], [ -90.489177811068714, 20.168680136000514 ], [ -90.481386952583122, 20.172647539806942 ], [ -90.477951844974356, 20.184883082202944 ], [ -90.480951020286724, 20.201336290950852 ], [ -90.479696585938839, 20.206875378812089 ], [ -90.489071791250097, 20.215806090511542 ], [ -90.487262795106687, 20.226884499517546 ], [ -90.490714124263462, 20.259641551808475 ], [ -90.201287519595724, 20.251775669457306 ], [ -90.200436305070212, 20.221746059337708 ], [ -90.167383221312548, 20.221216061497575 ], [ -90.167449075692545, 20.251318607964571 ], [ -90.156456657968619, 20.252727002152266 ], [ -90.150347469811535, 20.248774557506042 ], [ -90.134560882850721, 20.254050595459063 ], [ -90.135005824295291, 20.265161431663504 ], [ -90.126669444486183, 20.264144743034009 ], [ -90.126188145753233, 20.267726632267703 ], [ -90.092365854674995, 20.264921786186477 ] ] ] } },
{ "type": "Feature", "properties": { "cve_edo": "04", "cve_mpo_ine": "006", "cve_edo_mpo_ine": "04006", "nom_mpo": "HOPELCHEN", "nom_edo": "Campeche", "alianza_ganadora": "Va por México", "margen_pp": 3.3246135552913199, "por_participacion": 73.229772561039326 }, "geometry": { "type": "Polygon", "coordinates": [ [ [ -89.8581131618797, 20.112922850355197 ], [ -89.855532069993359, 20.11275299652802 ], [ -89.849882210813902, 20.15795278247678 ], [ -89.825339784457185, 20.197731949744949 ], [ -89.797711166219344, 20.196737059507534 ], [ -89.744545504372823, 20.121766669223657 ], [ -89.712562574320188, 20.142967195813583 ], [ -89.621479926372828, 20.116392104564898 ], [ -89.70136144221199, 20.060765825190629 ], [ -89.625724207049402, 19.956149902404437 ], [ -89.602986307018725, 19.896493628642599 ], [ -89.567913874435519, 19.875581610425371 ], [ -89.506737239445499, 19.790876660126294 ], [ -89.506698819559134, 19.779508997562111 ], [ -89.501110854773103, 19.778695106593371 ], [ -89.495733909965935, 19.771325383832131 ], [ -89.490312966484552, 19.750513685917252 ], [ -89.490814031874905, 19.741044546156886 ], [ -89.455491287218834, 19.679132679329864 ], [ -89.402177928205106, 19.642304055452918 ], [ -89.147436462922812, 19.306320868643148 ], [ -89.147799648442884, 19.000523311294796 ], [ -89.249983553683663, 19.00114552860601 ], [ -89.250057032406787, 18.955695796244274 ], [ -89.301083677194782, 18.953269982788626 ], [ -89.369032529076193, 18.957082543014341 ], [ -89.477120748453871, 18.952231453011379 ], [ -89.47968474498127, 19.134468438345305 ], [ -89.482133095953429, 19.134513028702536 ], [ -89.480549462680514, 19.152645581262938 ], [ -89.575712241014585, 19.1620225296722 ], [ -89.588109897164443, 19.059997191680772 ], [ -89.772274462603889, 19.064831248855537 ], [ -89.777548976247388, 19.031832917423742 ], [ -89.929821725538687, 19.024767267250148 ], [ -89.92267194364662, 19.20117540898876 ], [ -89.762551985614309, 19.201199231963763 ], [ -89.865519144925486, 19.376273336959592 ], [ -89.894063005076205, 19.429448634041584 ], [ -90.031651133034998, 19.667633812856931 ], [ -90.057828484633319, 19.729880473738255 ], [ -90.098875473034227, 19.784432250581485 ], [ -90.02368175281633, 19.898982256102922 ], [ -89.850493862926427, 20.016959966742291 ], [ -89.850834262659092, 20.080576593536371 ], [ -89.857765164036124, 20.080700950048165 ], [ -89.8581131618797, 20.112922850355197 ] ] ] } },
{ "type": "Feature", "properties": { "cve_edo": "04", "cve_mpo_ine": "007", "cve_edo_mpo_ine": "04007", "nom_mpo": "PALIZADA", "nom_edo": "Campeche", "alianza_ganadora": "Juntos Haremos Historia", "margen_pp": 4.4085478714453981, "por_participacion": 80.528455284552848 }, "geometry": { "type": "Polygon", "coordinates": [ [ [ -91.864708819509218, 18.501145502052491 ], [ -91.833728606895448, 18.418150839948549 ], [ -91.842165513163707, 18.397567705746074 ], [ -91.826244081243303, 18.318501495997612 ], [ -91.832850789220259, 18.315067998068681 ], [ -91.834379814375083, 18.311194264295391 ], [ -91.82918059271033, 18.303650442379379 ], [ -91.834636564673232, 18.299591222159588 ], [ -91.835245926773851, 18.295134406460367 ], [ -91.835114329976221, 18.289352139550946 ], [ -91.831275683162247, 18.285325862704571 ], [ -91.832589576906258, 18.2712093306328 ], [ -91.830743505192629, 18.263063976997724 ], [ -91.823523700839871, 18.255798327425776 ], [ -91.82396536893134, 18.250597288525761 ], [ -91.813240862785989, 18.250601717447278 ], [ -91.803769176712194, 18.213388685714406 ], [ -91.789352106581902, 18.213302390380058 ], [ -91.789477744663785, 18.20421660062679 ], [ -91.741594350847478, 18.042430662505769 ], [ -91.71537047908609, 17.963476964620551 ], [ -91.739756951696251, 17.934632498584108 ], [ -91.760529690207264, 17.95748290926916 ], [ -91.762063017299397, 17.938607889340787 ], [ -91.768064637775197, 17.948426417573952 ], [ -91.771142110356436, 17.944274892001808 ], [ -91.804810034673423, 17.972738803762301 ], [ -91.849706446432165, 17.980261191180901 ], [ -91.851744711909177, 17.97636446140687 ], [ -91.849962763267143, 17.972127458679797 ], [ -91.851012515239518, 17.967743474069618 ], [ -91.8635618357998, 17.962769681543637 ], [ -91.867718965409367, 17.951961883102832 ], [ -91.871446345855006, 17.954366411164997 ], [ -91.864794390712632, 17.982502621637149 ], [ -91.867501874061688, 17.982736009421373 ], [ -91.874391363214755, 17.990846168472537 ], [ -91.877022943630635, 17.977146736953991 ], [ -91.88313673214428, 17.98597057541911 ], [ -91.882947769292315, 17.999924038670549 ], [ -91.92852987118917, 18.007273096100583 ], [ -91.967155301021393, 18.016192543504353 ], [ -91.978910667825133, 18.042976088249667 ], [ -91.981614966034428, 18.043567842827269 ], [ -91.988158085567548, 18.038437120346437 ], [ -91.992300140902032, 18.039448879874683 ], [ -92.007158920095691, 18.049806534674396 ], [ -92.013314738903233, 18.05136458356165 ], [ -92.023825124135683, 18.066450199281974 ], [ -92.027166476979019, 18.076090323928526 ], [ -92.042655250662335, 18.078352481846292 ], [ -92.042288924515134, 18.081779154860666 ], [ -92.035849655068716, 18.088770934816026 ], [ -92.0362850447748, 18.093027474147238 ], [ -92.040175062401161, 18.097878516464291 ], [ -92.053512082024213, 18.094016516325112 ], [ -92.059939556376335, 18.098713659543943 ], [ -92.068912477261591, 18.092021712158306 ], [ -92.077023965475988, 18.094619324646263 ], [ -92.077986823272411, 18.087601608507356 ], [ -92.081108515390071, 18.085963349941611 ], [ -92.092084102977608, 18.091629781124634 ], [ -92.110342490205383, 18.093774886486635 ], [ -92.118596606472551, 18.101947768090835 ], [ -92.129093410445847, 18.096135899281006 ], [ -92.132886718661311, 18.098697193858882 ], [ -92.136391378252128, 18.11424852773143 ], [ -92.161112010810754, 18.157470774041141 ], [ -92.166911151264443, 18.232390577408168 ], [ -92.166926285844141, 18.292235267177322 ], [ -92.125359362530247, 18.292205451074121 ], [ -92.123978654438829, 18.50070495812038 ], [ -91.864708819509218, 18.501145502052491 ] ] ] } },
{ "type": "Feature", "properties": { "cve_edo": "04", "cve_mpo_ine": "013", "cve_edo_mpo_ine": "04013", "nom_mpo": "SEYBAPLAYA", "nom_edo": "Campeche", "alianza_ganadora": "Juntos Haremos Historia", "margen_pp": 11.886901327178304, "por_participacion": 75.041136225859532 }, "geometry": { "type": "Polygon", "coordinates": [ [ [ -90.669620334045121, 19.719963592270926 ], [ -90.631594289102921, 19.704246011601292 ], [ -90.614658166808141, 19.71671909471133 ], [ -90.617865121181822, 19.689722981400241 ], [ -90.62110880414572, 19.685603877761999 ], [ -90.621546543058017, 19.680379558436879 ], [ -90.579663863264358, 19.660449238395593 ], [ -90.578546725028986, 19.657371605080925 ], [ -90.56123218165402, 19.65945426595388 ], [ -90.566035506677821, 19.650733077356044 ], [ -90.557138868375276, 19.648855870317604 ], [ -90.553816475181165, 19.656163501738366 ], [ -90.533432002772656, 19.637313841852158 ], [ -90.509033200351809, 19.639150623247911 ], [ -90.510963441241515, 19.617454528592919 ], [ -90.550951554904429, 19.60894601079092 ], [ -90.567111752439288, 19.599129153363702 ], [ -90.566683728824103, 19.59229587119879 ], [ -90.592246356137039, 19.595163998180585 ], [ -90.589235902647104, 19.56619335196611 ], [ -90.59116280002398, 19.566190005722831 ], [ -90.590562015198742, 19.548250399773 ], [ -90.594534727358948, 19.539590315736152 ], [ -90.614458284720584, 19.539640385813339 ], [ -90.637568464504, 19.534705657781942 ], [ -90.639937691572669, 19.494878090042235 ], [ -90.637875713024172, 19.494519250834429 ], [ -90.63846717708789, 19.486892070815408 ], [ -90.672906145158777, 19.490834110086258 ], [ -90.672675216088678, 19.483852148601546 ], [ -90.700132843821081, 19.479447946917237 ], [ -90.703687047766664, 19.480480980179397 ], [ -90.703936045916166, 19.499997766478245 ], [ -90.709465406488562, 19.509081337395603 ], [ -90.710756217203752, 19.514814647329114 ], [ -90.708583559853011, 19.523665110177532 ], [ -90.711174678622356, 19.527707944438273 ], [ -90.704387636692346, 19.548927120780803 ], [ -90.705972255098629, 19.560155331374446 ], [ -90.701989056668964, 19.558858305619029 ], [ -90.704505018753295, 19.561500423199387 ], [ -90.709796178103417, 19.560592260945288 ], [ -90.712001923521129, 19.562273009438066 ], [ -90.693523287901655, 19.596040944768212 ], [ -90.685613438707776, 19.625354556946636 ], [ -90.686816016550921, 19.633227271831494 ], [ -90.69163004039396, 19.642528176005619 ], [ -90.705715486275722, 19.651486979249295 ], [ -90.703688881182885, 19.664601759786589 ], [ -90.707171432669313, 19.675131686904123 ], [ -90.689848960870719, 19.692312953400208 ], [ -90.684272080114056, 19.702825690580646 ], [ -90.669620334045121, 19.719963592270926 ] ] ] } },
{ "type": "Feature", "properties": { "cve_edo": "04", "cve_mpo_ine": "008", "cve_edo_mpo_ine": "04008", "nom_mpo": "TENABO", "nom_edo": "Campeche", "alianza_ganadora": "Juntos Haremos Historia", "margen_pp": 7.3877068557919623, "por_participacion": 79.501938212146129 }, "geometry": { "type": "Polygon", "coordinates": [ [ [ -90.467570565060839, 20.018560535585991 ], [ -90.46718515502414, 20.021780959664095 ], [ -90.479061539795708, 20.033911762487953 ], [ -90.478384853227979, 20.042421109151068 ], [ -90.480139306463855, 20.041945651467362 ], [ -90.48473799060595, 20.047953698939093 ], [ -90.49087182989733, 20.062910525084646 ], [ -90.486489886262405, 20.068978269667788 ], [ -90.485872586985622, 20.082697971881871 ], [ -90.482376419237241, 20.082408660855993 ], [ -90.486312749574864, 20.085101242281997 ], [ -90.485891919057664, 20.091546297868788 ], [ -90.479635309579919, 20.098253180410744 ], [ -90.478854419343506, 20.110970071243308 ], [ -90.286729694276616, 20.105126222462157 ], [ -90.287437584263884, 20.085457024409635 ], [ -90.146632163597644, 20.05274519551223 ], [ -90.14717955110541, 20.028776999351781 ], [ -90.106772948263171, 20.024316561317317 ], [ -90.105876666038213, 19.996129000927873 ], [ -90.02368175281633, 19.898982256102922 ], [ -90.098875473034227, 19.784432250581485 ], [ -90.26989873472796, 19.880178281532384 ], [ -90.286742823746053, 19.835662412350828 ], [ -90.324501661117381, 19.839564976812245 ], [ -90.34399123170364, 19.919070072048143 ], [ -90.372384554545704, 19.942326825308921 ], [ -90.4571042947032, 19.942525070374508 ], [ -90.450502609317383, 19.959811911835324 ], [ -90.445942953082778, 19.961080613752802 ], [ -90.452918669096078, 19.962652190801968 ], [ -90.450554531514683, 19.976102783003924 ], [ -90.460489550749998, 19.973657466660889 ], [ -90.467825583555467, 19.98490780911796 ], [ -90.462880841443493, 19.989314633240689 ], [ -90.469327152917231, 19.986165948586446 ], [ -90.469027504969034, 19.992198952830613 ], [ -90.471557273790026, 19.995371163478691 ], [ -90.461108869410765, 20.001945483369138 ], [ -90.462020530244658, 20.014360094212403 ], [ -90.467570565060839, 20.018560535585991 ] ] ] } }
]
}
